site_id,sitename,address,city,state,zip,lat,lon,accuracy,bos_district,council_distict,councill_code,elementary_dist,hs_dist,unified_dist,state_assembly_dist,state_senate_dist,congressional_dist
1,1ST SAMOAN CONGREGATIONAL CHURCH,,,,91978,33,-117,LOW,2,,,GEN ELEM LA MESA-SPRING VALLEY,HIGH GROSSMONT UNION,,71,38,53
2,37 ECB,,,,92105,33,-117,LOW,4,3,SD,,,UNIFIED SAN DIEGO,78,39,53
4,A.B & JESSIE POLINSKY CHILDREN'S CENTER,,,,92123,33,-117,LOW,4,6,SD,,,UNIFIED SAN DIEGO,77,39,52
7,ACADEMY OF ARTS AND SCIENCES,,,,92120,33,-117,LOW,2,7,SD,,,UNIFIED SAN DIEGO,79,39,53
9,ACADEMY OF ARTS AND SCIENCES: DEL MAR MIDDLE & HIGH (6-12),,,,92120,33,-117,LOW,2,7,SD,,,UNIFIED SAN DIEGO,79,39,53
23,ALBERT EINSTEIN ACADEMY ELEMENTARY,,,,92102,33,-117,LOW,4,3,SD,,,UNIFIED SAN DIEGO,78,39,53
24,"ALBERT EINSTEIN ACADEMY FOR LETTERS, ARTS & SCIENCES - AGUA DULC",,,,92102,33,-117,LOW,4,3,SD,,,UNIFIED SAN DIEGO,78,39,53
25,"ALBERT EINSTEIN ACADEMY FOR LETTERS, ARTS & SCIENCES - ODYSSEY",,,,92101,33,-117,LOW,4,3,SD,,,UNIFIED SAN DIEGO,78,39,52
26,"ALBERT EINSTEIN ACADEMY FOR LETTERS, ARTS AND SCIENCES",,,,92102,33,-117,LOW,4,3,SD,,,UNIFIED SAN DIEGO,78,39,53
43,ASELTINE,,,,92103,33,-117,LOW,4,3,SD,,,UNIFIED SAN DIEGO,78,39,53
50,AUTUMN,,,,92083,33,-117,LOW,5,1,VS,,,UNIFIED VISTA,76,36,49
59,BALBOA CITY SCHOOL-ANNEX,,,,92103,33,-117,LOW,4,3,SD,,,UNIFIED SAN DIEGO,78,39,53
63,BALDERRAMA PARK,,,,92058,33,-117,LOW,5,1,OC,,,UNIFIED OCEANSIDE,76,36,49
64,BALLINGTON ACADEMY FOR THE ARTS AND SCIENCES,,,,,33,-116,LOW,,,,,,,,40,51
65,BALLINGTON ACADEMY FOR THE ARTS AND SCIENCES - SAN BERNARDINO,,,,,34,-117,LOW,,,,,,,,,
68,BANDINI PRIMARY,,,,92113,33,-117,LOW,1,9,SD,,,UNIFIED SAN DIEGO,80,40,51
72,BARONA RECREATION CENTER,,,,92040,33,-117,LOW,2,,,GEN ELEM LAKESIDE UNION,HIGH GROSSMONT UNION,,71,38,50
73,BARRETT,,,,92123,33,-117,LOW,4,7,SD,,,UNIFIED SAN DIEGO,79,39,53
75,BAY POINT PRE K,,,,92106,33,-117,LOW,4,2,SD,,,UNIFIED SAN DIEGO,78,39,52
79,BAYSIDE BLENDED COMMUNITY SCHOOL,,,,92111,33,-117,LOW,4,7,SD,,,UNIFIED SAN DIEGO,79,39,53
83,BAYVIEW CDC,,,,91910,33,-117,LOW,1,,,"GEN BOND CHULA VISTA-SFID 1 2012C,PROP E 11/06/12",HIGH SWEETWATER UNION,,79,40,53
101,BLESSED SACRAMENT ELEMENTARY,,,,92115,33,-117,LOW,2,9,SD,,,UNIFIED SAN DIEGO,79,39,53
126,BREAKING CYCLES,,,,92069,33,-117,LOW,5,1,SM,,,"UNIF BOND SAN MARCOS SFID #1-6/04/96, 2004-1 REF",75,38,50
130,BROOKLYN CDC,,,,92102,33,-117,LOW,4,3,SD,,,UNIFIED SAN DIEGO,80,39,53
135,CABRILLO NATIONAL MONUMENT,,,,92106,33,-117,LOW,1,2,SD,,,UNIFIED SAN DIEGO,78,39,52
149,CALVIN CHRISTIAN,,,,92026,33,-117,LOW,3,2,ES,GEN ELEM ESCONDIDO UNION,HIGH ESCONDIDO UNION,,75,38,50
150,CALVIN CHRISTIAN SCHOOL -ANNEX,,,,92026,33,-117,LOW,3,2,ES,GEN ELEM ESCONDIDO UNION,HIGH ESCONDIDO UNION,,75,38,50
152,CAMP CUYAMACA,,,,91916,33,-117,LOW,2,,,,,UNIFIED MT EMPIRE,71,38,50
153,CAMP DENVER C FOX,,,,92106,33,-117,LOW,4,2,SD,,,UNIFIED SAN DIEGO,78,39,52
155,CAMP MARSTON,,,,92036,33,-117,LOW,2,,,GEN ELEM JULIAN UNION,HIGH JULIAN UNION,,71,38,50
157,CAMP PALOMAR,,,,92111,33,-117,LOW,4,7,SD,,,UNIFIED SAN DIEGO,79,39,53
158,CAMP SURF,,,,91932,33,-117,LOW,1,,,GEN ELEM SOUTH BAY UNION,HIGH SWEETWATER UNION,,78,40,51
160,CAMPO EDUCATIONAL CENTER & CHILDCARE,,,,91906,33,-116,LOW,2,,,,,UNIFIED MT EMPIRE,71,40,51
162,CAMPO HEADSTART CENTER,,,,92154,33,-117,LOW,1,8,SD,"GEN BOND CHULA VISTA-SFID 1 2012C,PROP E 11/06/12",HIGH SWEETWATER UNION,,80,40,51
184,CASA DE SALUD,,,,91932,33,-117,LOW,1,,,GEN ELEM SOUTH BAY UNION,HIGH SWEETWATER UNION,,78,40,51
191,CENTER FOR POSITIVE CHANGES,,,,91977,33,-117,LOW,2,,,GEN ELEM LA MESA-SPRING VALLEY,HIGH GROSSMONT UNION,,71,38,53
192,CENTER FOR POSITIVE CHANGES 5,,,,91977,33,-117,LOW,2,,,GEN ELEM LA MESA-SPRING VALLEY,HIGH GROSSMONT UNION,,71,38,53
193,CENTER FOR POSITIVE CHANGES II,,,,91977,33,-117,LOW,2,,,GEN ELEM LA MESA-SPRING VALLEY,HIGH GROSSMONT UNION,,71,38,53
194,CENTER FOR POSITIVE CHANGES III-ANNEX,,,,91977,33,-117,LOW,2,,,GEN ELEM LA MESA-SPRING VALLEY,HIGH GROSSMONT UNION,,71,38,53
201,CENTRAL PRESCHOOL,,,,92026,33,-117,LOW,3,1,ES,GEN ELEM ESCONDIDO UNION,HIGH ESCONDIDO UNION,,75,38,50
214,CHILDREN'S WORKSHOP,,,,92126,33,-117,LOW,3,6,SD,,,UNIFIED SAN DIEGO,77,39,52
215,CHINA LAKE YOUTH CENTER,,,,,36,-118,LOW,,,,,,,,,
216,CHOICE COMMUNITY SCHOOL,,,,92111,33,-117,LOW,4,7,SD,,,UNIFIED SAN DIEGO,79,39,53
218,CHOLLAS MEAD ELEMENTARY-PRIMETIME,,,,92102,33,-117,LOW,1,4,SD,,,UNIFIED SAN DIEGO,80,40,51
224,CHULA VISTA COMMUNITY,,,,91911,33,-117,LOW,1,2,CV,"GEN BOND CHULA VISTA-SFID 1 2012C,PROP E 11/06/12",HIGH SWEETWATER UNION,,80,40,51
231,CIRCLE OF FRIENDS,,,,92064,33,-117,LOW,2,2,PW,,,"UNIF BOND POWAY-SFID 2002-1,PROP U, 2014 REF",77,38,52
232,CIRCLE OF FRIENDS II,,,,92064,33,-117,LOW,2,2,PW,,,"UNIF BOND POWAY-SFID 2002-1,PROP U, 2014 REF",77,38,52
233,CITRONICA ONE APARTMENTS,,,,91945,33,-117,LOW,2,,,GEN ELEM LEMON GROVE,HIGH GROSSMONT UNION,,79,38,53
239,CITY OF CHULA VISTA SOUTH CV LIBRARY,,,,91910,33,-117,LOW,1,2,CV,"GEN BOND CHULA VISTA-SFID 1 2012C,PROP E 11/06/12",HIGH SWEETWATER UNION,,80,40,51
253,COL. SALOMON CDC,,,,92101,33,-117,LOW,4,3,SD,,,UNIFIED SAN DIEGO,78,39,52
254,COLEMAN TECH CHARTER HIGH,,,,92123,33,-117,LOW,4,7,SD,,,UNIFIED SAN DIEGO,79,39,53
256,COLLEGE PREPARATORY MIDDLE,,,,91942,33,-117,LOW,2,,,GEN ELEM LA MESA-SPRING VALLEY,HIGH GROSSMONT UNION,,79,38,53
261,COMMUNITY DAY SCHOOL,,,,91932,33,-117,LOW,1,,,GEN ELEM SOUTH BAY UNION,HIGH SWEETWATER UNION,,78,40,51
264,COMMUNITY YOUTH ATHLETICS CENTER,,,,91911,33,-117,LOW,1,3,CV,"GEN BOND CHULA VISTA-SFID 1 2012C,PROP E 11/06/12",HIGH SWEETWATER UNION,,80,40,53
268,CONWAY PRESCHOOL,,,,92029,33,-117,LOW,3,2,ES,GEN ELEM ESCONDIDO UNION,HIGH ESCONDIDO UNION,,75,38,50
288,CTEC INDEPENDENT STUDY,,,,92111,33,-117,LOW,4,7,SD,,,UNIFIED SAN DIEGO,79,39,53
291,CUYAMACHA PREP COMMUNITY SCHOOL,,,,92111,33,-117,LOW,4,7,SD,,,UNIFIED SAN DIEGO,79,39,53
310,DEWEY CDC,,,,92110,33,-117,LOW,4,2,SD,,,UNIFIED SAN DIEGO,78,39,52
322,DISTRICT OFFICE,,,,92103,33,-117,LOW,4,3,SD,,,UNIFIED SAN DIEGO,78,39,53
323,DISTRICT OFFICE,,,,92103,33,-117,LOW,4,3,SD,,,UNIFIED SAN DIEGO,78,39,53
324,DISTRICT OFFICE,,,,92103,33,-117,LOW,4,3,SD,,,UNIFIED SAN DIEGO,78,39,53
325,DISTRICT OFFICE,,,,92103,33,-117,LOW,4,3,SD,,,UNIFIED SAN DIEGO,78,39,53
326,DISTRICT OFFICE,,,,92103,33,-117,LOW,4,3,SD,,,UNIFIED SAN DIEGO,78,39,53
327,DITMAR ELEMENTARY,,,,92054,33,-117,LOW,5,1,OC,,,UNIFIED OCEANSIDE,76,36,49
334,EAST COUNTY COMMUNITY SCHOOL,,,,92021,33,-117,LOW,2,2,EC,GEN ELEM CAJON VALLEY UNION,HIGH GROSSMONT UNION,,71,38,50
336,EAST MESA JUVENILE DETENTION FACILITY,,,,92154,33,-117,LOW,1,,,GEN ELEM SAN YSIDRO,HIGH SWEETWATER UNION,,71,40,51
341,ECDC/CROWN PRESCHOOL,,,,92118,33,-117,LOW,1,,,,,UNIFIED CORONADO,78,39,52
352,EL CENTRO NAF,,,,,33,-116,LOW,,,,,,,,40,51
361,EMPOWER ACADEMY/CDS,,,,92020,33,-117,LOW,2,2,EC,GEN ELEM CAJON VALLEY UNION,HIGH GROSSMONT UNION,,71,38,53
368,ENRIQUE S. CAMARENA,,,,91915,33,-117,LOW,1,3,CV,GEN ELEM CHULA VISTA,HIGH SWEETWATER UNION,,79,40,53
374,ESCONDIDO COMMUNITY BLENDED,,,,92111,33,-117,LOW,4,7,SD,,,UNIFIED SAN DIEGO,79,39,53
378,EUCLID CDC,,,,92105,33,-117,LOW,4,9,SD,,,UNIFIED SAN DIEGO,80,40,51
382,EXCELSIOR ACADEMY,,,,91942,33,-117,LOW,2,,,GEN ELEM LA MESA-SPRING VALLEY,HIGH GROSSMONT UNION,,79,38,53
392,FELICITA PRESCHOOL,,,,92025,33,-117,LOW,3,4,ES,GEN ELEM ESCONDIDO UNION,HIGH ESCONDIDO UNION,,75,38,50
396,FIRST AVENUE LITERACY COMMUNITY SCHOOL,,,,92111,33,-117,LOW,4,7,SD,,,UNIFIED SAN DIEGO,79,39,53
398,FIRST STEP TREATMENT HOME,,,,91977,33,-117,LOW,2,,,GEN ELEM LA MESA-SPRING VALLEY,HIGH GROSSMONT UNION,,71,38,53
399,FLETCHER CDC,,,,92123,33,-117,LOW,4,7,SD,,,UNIFIED SAN DIEGO,79,39,53
416,GARFIELD CDC,,,,92116,33,-117,LOW,4,3,SD,,,UNIFIED SAN DIEGO,78,39,53
421,GIRLS REHABILITATION,,,,92123,33,-117,LOW,4,7,SD,,,UNIFIED SAN DIEGO,79,39,53
423,GLEN VIEW PRESCHOOL,,,,92027,33,-117,LOW,3,1,ES,GEN ELEM ESCONDIDO UNION,HIGH ESCONDIDO UNION,,75,38,50
428,GOOD SHEPHERD CATHOLIC SCHOOL,,,,92126,33,-117,LOW,3,6,SD,,,UNIFIED SAN DIEGO,77,39,52
434,GRAVES SUMMIT SCHOOL,,,,92020,33,-117,LOW,2,1,EC,GEN ELEM LA MESA-SPRING VALLEY,HIGH GROSSMONT UNION,,71,38,53
438,GREENTREE-ANNEX,,,,92103,33,-117,LOW,4,3,SD,,,UNIFIED SAN DIEGO,78,39,53
460,HAWTHORNE CDC,,,,92117,33,-117,LOW,4,6,SD,,,UNIFIED SAN DIEGO,77,39,52
481,HIGH TECH HIGH EXPLORER,,,,92106,33,-117,LOW,4,2,SD,,,UNIFIED SAN DIEGO,78,39,52
505,HOLY TRINITY ELEMENTARY,,,,92019,33,-117,LOW,2,4,EC,GEN ELEM CAJON VALLEY UNION,HIGH GROSSMONT UNION,,71,38,50
511,HORTON PLAZA-ANNEX,,,,92101,33,-117,LOW,4,3,SD,,,UNIFIED SAN DIEGO,78,39,52
524,INDIAN HILLS CAMP,,,,91935,33,-117,LOW,2,,,GEN ELEM JAMUL-DULZURA UNION,HIGH GROSSMONT UNION,,71,40,50
531,INTEGRITY CHARTER SCHOOL-B&G CLUB,,,,91950,33,-117,LOW,1,,,GEN ELEM NATIONAL,HIGH SWEETWATER UNION,,80,40,51
533,IOWA STREET,,,,92104,33,-117,LOW,4,3,SD,,,UNIFIED SAN DIEGO,78,39,53
538,JACK & CAROL CLARK ADOLESCENT TREATMENT PROGRAM,,,,92111,33,-117,LOW,4,7,SD,,,UNIFIED SAN DIEGO,79,39,53
541,JACUMBA MIDDLE,,,,91962,33,-116,LOW,2,,,,,UNIFIED MT EMPIRE,71,40,51
558,JOHN MUIR,,,,92117,33,-117,LOW,4,6,SD,,,UNIFIED SAN DIEGO,77,39,52
569,JUAREZ LINCOLN,,,,92154,33,-117,LOW,1,8,SD,"GEN BOND CHULA VISTA-SFID 1 2012C,PROP E 11/06/12",HIGH SWEETWATER UNION,,80,40,51
578,JUNIPER PRESCHOOL,,,,92026,33,-117,LOW,3,1,ES,GEN ELEM ESCONDIDO UNION,HIGH ESCONDIDO UNION,,75,38,50
580,JUVENILE HALL,,,,92123,33,-117,LOW,4,7,SD,,,UNIFIED SAN DIEGO,79,39,53
584,KAVOD ELEMENTARY CHARTER,,,,92111,33,-117,LOW,4,6,SD,,,UNIFIED SAN DIEGO,77,39,52
588,"KEARNY ENG, INNOV & DESIGN",,,,92111,33,-117,LOW,4,7,SD,,,UNIFIED SAN DIEGO,79,39,53
589,KEARNY INTERNATIONAL BUSINESS,,,,92111,33,-117,LOW,4,7,SD,,,UNIFIED SAN DIEGO,79,39,53
590,KEARNY MESA LC- AUDEO-ANNEX,,,,92123,33,-117,LOW,3,6,SD,,,UNIFIED SAN DIEGO,77,39,52
597,KENNEDY CDC,,,,92113,33,-117,LOW,1,4,SD,,,UNIFIED SAN DIEGO,79,40,51
618,LA MESA COMMUNITY SCHOOL,,,,92111,33,-117,LOW,4,7,SD,,,UNIFIED SAN DIEGO,79,39,53
619,LA MESA COMMUNITY SCHOOLS 123,,,,91942,33,-117,LOW,2,,,GEN ELEM LA MESA-SPRING VALLEY,HIGH GROSSMONT UNION,,79,38,53
622,LA MESA-SPRING VALLEY HOME INDEPENDENT STUDY,,,,91977,33,-117,LOW,2,,,GEN ELEM LA MESA-SPRING VALLEY,HIGH GROSSMONT UNION,,71,38,53
643,LEARNING LATITUDES CHARTER,,,,92101,33,-117,LOW,4,3,SD,,,UNIFIED SAN DIEGO,78,39,52
644,LEE ELEMENTARY,,,,92139,33,-117,LOW,1,4,SD,,,UNIFIED SAN DIEGO,80,40,53
652,LEONARDO DA VINCI SCIENCES CHARTER SCHOOL,,,,91911,33,-117,LOW,1,4,CV,"GEN BOND CHULA VISTA-SFID 1 2012C,PROP E 11/06/12",HIGH SWEETWATER UNION,,80,40,51
658,LIBERTY CHARTER HIGH SCHOOL,,,,91945,33,-117,LOW,2,,,GEN ELEM LEMON GROVE,HIGH GROSSMONT UNION,,79,38,53
660,LIBERTY HIGH CHARTER SCHOOL-ANNEX,,,,91945,33,-117,LOW,2,,,GEN ELEM LEMON GROVE,HIGH GROSSMONT UNION,,79,38,53
667,LINCOLN PRESCHOOL,,,,92029,33,-117,LOW,3,2,ES,GEN ELEM ESCONDIDO UNION,HIGH ESCONDIDO UNION,,75,38,50
673,LINDSAY COMMUNITY,,,,92113,33,-117,LOW,1,8,SD,,,UNIFIED SAN DIEGO,80,40,51
675,LITERACY FIRST CHARTER SCHOOL - JA - ANNEX,,,,91945,33,-117,LOW,2,,,GEN ELEM LEMON GROVE,HIGH GROSSMONT UNION,,79,38,53
676,LITERACY FIRST CHARTER SCHOOL - LA - ANNEX,,,,91945,33,-117,LOW,2,,,GEN ELEM LEMON GROVE,HIGH GROSSMONT UNION,,79,38,53
677,LITERACY FIRST CHARTER SCHOOL - PA -ANNEX,,,,92020,33,-117,LOW,2,4,EC,GEN ELEM CAJON VALLEY UNION,HIGH GROSSMONT UNION,,71,38,53
678,LITT RESOURSES BLENDED,,,,92111,33,-117,LOW,4,7,SD,,,UNIFIED SAN DIEGO,79,39,53
680,LOGAN CDC,,,,92102,33,-117,LOW,1,8,SD,,,UNIFIED SAN DIEGO,80,40,51
686,LOMA PORTAL CHARTER SCHOOL-ANNEX,,,,92110,33,-117,LOW,4,2,SD,,,UNIFIED SAN DIEGO,78,39,52
690,LOS ALTOS CDC,,,,92123,33,-117,LOW,3,6,SD,,,UNIFIED SAN DIEGO,77,39,52
701,MAGNOLIA ELEMENTARY,,,,92021,33,-117,LOW,2,2,EC,GEN ELEM CAJON VALLEY UNION,HIGH GROSSMONT UNION,,71,38,50
704,MAIN STREET UMOJA BLENDED COMM SCHOOL,,,,92111,33,-117,LOW,4,7,SD,,,UNIFIED SAN DIEGO,79,39,53
710,MAR VISTA ACADEMY FOR PROBLEM BASED LEARNING,,,,92154,33,-117,LOW,1,8,SD,GEN ELEM SOUTH BAY UNION,HIGH SWEETWATER UNION,,80,40,51
712,MARCY ST ANNEX,,,,92113,33,-117,LOW,1,8,SD,,,UNIFIED SAN DIEGO,80,40,51
724,MATAGUAY SCOUT RESV,,,,92101,33,-117,LOW,4,3,SD,,,UNIFIED SAN DIEGO,78,39,53
735,MESA GRANDE INDIAN HOUSING AUTHORITY SITE 2,,,,92070,33,-117,LOW,5,,,GEN ELEM JULIAN UNION,HIGH JULIAN UNION,,71,38,50
739,METRO COMMUNITY SCHOOLS,,,,92111,33,-117,LOW,4,7,SD,,,UNIFIED SAN DIEGO,79,39,53
740,METRO TECH ACADEMY BLENDED COMMUNITY SCHOOL,,,,92111,33,-117,LOW,4,7,SD,,,UNIFIED SAN DIEGO,79,39,53
742,MID CITY 1 AND 2-ANNEX,,,,92105,33,-117,LOW,4,9,SD,,,UNIFIED SAN DIEGO,80,40,51
748,MIRA MESA COMMUNITY SCHOOL,,,,92111,33,-117,LOW,4,7,SD,,,UNIFIED SAN DIEGO,79,39,53
761,MISSION VALLEY LC - AUDEO-ANNEX,,,,92123,33,-117,LOW,3,6,SD,,,UNIFIED SAN DIEGO,77,39,52
765,MONARCH ELEMENTARY COMMUNITY DAY,,,,92113,33,-117,LOW,4,8,SD,,,UNIFIED SAN DIEGO,80,40,51
771,MONTEZUMA CDC,,,,92115,33,-117,LOW,2,9,SD,,,UNIFIED SAN DIEGO,79,39,53
781,MOSAICA ONLINE ACADEMY OF SOUTHERN CALIFORNIA,,,,92101,33,-117,LOW,4,3,SD,,,UNIFIED SAN DIEGO,78,39,52
785,MOUNTAIN REGION COURT (JUVENILE RANCH FACILITY),,,,92123,33,-117,LOW,4,7,SD,,,UNIFIED SAN DIEGO,79,39,53
814,"NBVC YOUTH CENTER, POINT MUGU",,,,,34,-119,LOW,,,,,,,,,
817,"NEW ALTERNATIVE, INC.",,,,92123,33,-117,LOW,4,7,SD,,,UNIFIED SAN DIEGO,79,39,53
818,NEW ALTERNATIVES #17,,,,92123,33,-117,LOW,4,7,SD,,,UNIFIED SAN DIEGO,79,39,53
819,NEW ALTERNATIVES INC. #18,,,,92123,33,-117,LOW,4,7,SD,,,UNIFIED SAN DIEGO,79,39,53
820,"NEW ALTERNATIVES, #15",,,,92123,33,-117,LOW,4,7,SD,,,UNIFIED SAN DIEGO,79,39,53
821,"NEW ALTERNATIVES, INC #5",,,,92123,33,-117,LOW,4,7,SD,,,UNIFIED SAN DIEGO,79,39,53
822,"NEW ALTERNATIVES, INC.",,,,92123,33,-117,LOW,4,7,SD,,,UNIFIED SAN DIEGO,79,39,53
823,"NEW ALTERNATIVES, INC. #16",,,,92123,33,-117,LOW,4,7,SD,,,UNIFIED SAN DIEGO,79,39,53
824,NEW HAVEN SCHOOL,,,,92083,33,-117,LOW,5,1,VS,,,UNIFIED VISTA,76,36,49
825,NEW HAVEN YOUTH AND FAMILY SERVICES,,,,92083,33,-117,LOW,5,1,VS,,,UNIFIED VISTA,76,36,49
826,NEW HAVEN-CONNIE GAYLE,,,,92083,33,-117,LOW,5,1,VS,,,UNIFIED VISTA,76,36,49
827,NEW HAVEN-DEBRA LANE,,,,92083,33,-117,LOW,5,1,VS,,,UNIFIED VISTA,76,36,49
828,NEW HAVEN-DURIAN HOUSE,,,,92083,33,-117,LOW,5,1,VS,,,UNIFIED VISTA,76,36,49
829,NEW HAVEN-LUPE HOUSE,,,,92083,33,-117,LOW,5,1,VS,,,UNIFIED VISTA,76,36,49
830,NEW HAVEN-MEADOWLAKE,,,,92083,33,-117,LOW,5,1,VS,,,UNIFIED VISTA,76,36,49
831,NEW HAVEN-PINA LANE,,,,92083,33,-117,LOW,5,1,VS,,,UNIFIED VISTA,76,36,49
832,NEW HAVEN-TEEN HOUSE,,,,92083,33,-117,LOW,5,1,VS,,,UNIFIED VISTA,76,36,49
833,NEW HAVEN-THOMSON HOUSE,,,,92083,33,-117,LOW,5,1,VS,,,UNIFIED VISTA,76,36,49
843,"NONPUBLIC, NONSECTARIAN SCHOOLS",,,,92108,33,-117,LOW,4,7,SD,,,UNIFIED SAN DIEGO,79,39,53
844,"NONPUBLIC, NONSECTARIAN SCHOOLS",,,,92108,33,-117,LOW,4,7,SD,,,UNIFIED SAN DIEGO,79,39,53
870,"NONPUBLIC, NONSECTARIAN SCHOOLS",,,,92108,33,-117,LOW,4,7,SD,,,UNIFIED SAN DIEGO,79,39,53
841,"NONPUBLIC, NONSECTARIAN SCHOOLS",,,,92108,33,-117,LOW,4,7,SD,,,UNIFIED SAN DIEGO,79,39,53
868,"NONPUBLIC, NONSECTARIAN SCHOOLS",,,,92108,33,-117,LOW,4,7,SD,,,UNIFIED SAN DIEGO,79,39,53
845,"NONPUBLIC, NONSECTARIAN SCHOOLS",,,,92108,33,-117,LOW,4,7,SD,,,UNIFIED SAN DIEGO,79,39,53
856,"NONPUBLIC, NONSECTARIAN SCHOOLS",,,,92108,33,-117,LOW,4,7,SD,,,UNIFIED SAN DIEGO,79,39,53
861,"NONPUBLIC, NONSECTARIAN SCHOOLS",,,,92108,33,-117,LOW,4,7,SD,,,UNIFIED SAN DIEGO,79,39,53
864,"NONPUBLIC, NONSECTARIAN SCHOOLS",,,,92108,33,-117,LOW,4,7,SD,,,UNIFIED SAN DIEGO,79,39,53
850,"NONPUBLIC, NONSECTARIAN SCHOOLS",,,,92108,33,-117,LOW,4,7,SD,,,UNIFIED SAN DIEGO,79,39,53
858,"NONPUBLIC, NONSECTARIAN SCHOOLS",,,,92108,33,-117,LOW,4,7,SD,,,UNIFIED SAN DIEGO,79,39,53
849,"NONPUBLIC, NONSECTARIAN SCHOOLS",,,,92108,33,-117,LOW,4,7,SD,,,UNIFIED SAN DIEGO,79,39,53
840,"NONPUBLIC, NONSECTARIAN SCHOOLS",,,,92108,33,-117,LOW,4,7,SD,,,UNIFIED SAN DIEGO,79,39,53
869,"NONPUBLIC, NONSECTARIAN SCHOOLS",,,,92108,33,-117,LOW,4,7,SD,,,UNIFIED SAN DIEGO,79,39,53
839,"NONPUBLIC, NONSECTARIAN SCHOOLS",,,,92108,33,-117,LOW,4,7,SD,,,UNIFIED SAN DIEGO,79,39,53
842,"NONPUBLIC, NONSECTARIAN SCHOOLS",,,,92108,33,-117,LOW,4,7,SD,,,UNIFIED SAN DIEGO,79,39,53
867,"NONPUBLIC, NONSECTARIAN SCHOOLS",,,,92108,33,-117,LOW,4,7,SD,,,UNIFIED SAN DIEGO,79,39,53
865,"NONPUBLIC, NONSECTARIAN SCHOOLS",,,,92108,33,-117,LOW,4,7,SD,,,UNIFIED SAN DIEGO,79,39,53
848,"NONPUBLIC, NONSECTARIAN SCHOOLS",,,,92108,33,-117,LOW,4,7,SD,,,UNIFIED SAN DIEGO,79,39,53
857,"NONPUBLIC, NONSECTARIAN SCHOOLS",,,,92108,33,-117,LOW,4,7,SD,,,UNIFIED SAN DIEGO,79,39,53
860,"NONPUBLIC, NONSECTARIAN SCHOOLS",,,,92108,33,-117,LOW,4,7,SD,,,UNIFIED SAN DIEGO,79,39,53
846,"NONPUBLIC, NONSECTARIAN SCHOOLS",,,,92108,33,-117,LOW,4,7,SD,,,UNIFIED SAN DIEGO,79,39,53
851,"NONPUBLIC, NONSECTARIAN SCHOOLS",,,,92108,33,-117,LOW,4,7,SD,,,UNIFIED SAN DIEGO,79,39,53
852,"NONPUBLIC, NONSECTARIAN SCHOOLS",,,,92108,33,-117,LOW,4,7,SD,,,UNIFIED SAN DIEGO,79,39,53
847,"NONPUBLIC, NONSECTARIAN SCHOOLS",,,,92108,33,-117,LOW,4,7,SD,,,UNIFIED SAN DIEGO,79,39,53
862,"NONPUBLIC, NONSECTARIAN SCHOOLS",,,,92108,33,-117,LOW,4,7,SD,,,UNIFIED SAN DIEGO,79,39,53
863,"NONPUBLIC, NONSECTARIAN SCHOOLS",,,,92108,33,-117,LOW,4,7,SD,,,UNIFIED SAN DIEGO,79,39,53
866,"NONPUBLIC, NONSECTARIAN SCHOOLS",,,,92108,33,-117,LOW,4,7,SD,,,UNIFIED SAN DIEGO,79,39,53
855,"NONPUBLIC, NONSECTARIAN SCHOOLS",,,,92108,33,-117,LOW,4,7,SD,,,UNIFIED SAN DIEGO,79,39,53
853,"NONPUBLIC, NONSECTARIAN SCHOOLS",,,,92108,33,-117,LOW,4,7,SD,,,UNIFIED SAN DIEGO,79,39,53
854,"NONPUBLIC, NONSECTARIAN SCHOOLS",,,,92108,33,-117,LOW,4,7,SD,,,UNIFIED SAN DIEGO,79,39,53
859,"NONPUBLIC, NONSECTARIAN SCHOOLS",,,,92108,33,-117,LOW,4,7,SD,,,UNIFIED SAN DIEGO,79,39,53
876,NORTH COAST PROJECT OZ,,,,92123,33,-117,LOW,4,6,SD,,,UNIFIED SAN DIEGO,77,39,52
879,NORTH COUNTY HEALTH SERVICES RAMONA HEALTH CENTER,,,,92065,33,-117,LOW,2,,,,,UNIFIED RAMONA,71,38,50
881,NORTH COUNTY TECH & SCIENCE ACADEMY (NCTSA),,,,92111,33,-117,LOW,4,7,SD,,,UNIFIED SAN DIEGO,79,39,53
883,NORTH PARK 1 2 AND 3-ANNEX,,,,92104,33,-117,LOW,4,3,SD,,,UNIFIED SAN DIEGO,78,39,53
885,NORTH REGION COMMUNITY DAY SCHOOLS,,,,92069,33,-117,LOW,5,1,SM,,,"UNIF BOND SAN MARCOS SFID #1-6/04/96, 2004-1 REF",75,38,50
887,NORTHGATE-ANNEX,,,,92103,33,-117,LOW,4,3,SD,,,UNIFIED SAN DIEGO,78,39,53
889,NOT MATCHED,,,,92101,33,-117,LOW,4,3,SD,,,UNIFIED SAN DIEGO,78,39,52
898,OAKHILL PRESCHOOL,,,,92029,33,-117,LOW,3,2,ES,GEN ELEM ESCONDIDO UNION,HIGH ESCONDIDO UNION,,75,38,50
923,OUR LADY OF THE SACRED HEART,,,,92105,33,-117,LOW,4,9,SD,,,UNIFIED SAN DIEGO,80,40,51
924,OXFORD PREPARATORY ACADEMY,,,,,34,-118,LOW,,,,,,,,36,
926,OZ-SAN DIEGO,,,,92123,33,-117,LOW,4,6,SD,,,UNIFIED SAN DIEGO,77,39,52
929,PACIFIC BEACH LC - AUDEO-ANNEX,,,,92123,33,-117,LOW,3,6,SD,,,UNIFIED SAN DIEGO,77,39,52
940,PALA SPORTS COMPLEX,,,,92059,33,-117,LOW,5,,,,,UNIFIED BONSALL,75,38,50
949,PALOMAR YMCA,,,,92026,33,-117,LOW,3,1,ES,GEN ELEM ESCONDIDO UNION,HIGH ESCONDIDO UNION,,75,38,50
952,PARADISE VALLEY CHARTER SCHOOL-ANNEX,,,,92139,33,-117,LOW,1,4,SD,,,UNIFIED SAN DIEGO,79,40,53
955,PARK IN THE PARK,,,,92101,33,-117,LOW,4,3,SD,,,UNIFIED SAN DIEGO,78,39,53
956,PARK TERRACE-ANNEX,,,,92103,33,-117,LOW,4,3,SD,,,UNIFIED SAN DIEGO,78,39,53
971,PHOENIX HOUSE SAN DIEGO INC.,,,,,33,-97,LOW,,,,,,,,,
972,PINE SUMMIT CAMP AND CONFERENCE CENTER,,,,,34,-117,LOW,,,,,,,,,
975,PIONEER PRESCHOOL,,,,92027,33,-117,LOW,3,1,ES,GEN ELEM ESCONDIDO UNION,HIGH ESCONDIDO UNION,,75,38,50
983,PORTER NORTH ELEMENTARY SUMMER,,,,92113,33,-117,LOW,1,4,SD,,,UNIFIED SAN DIEGO,79,40,51
991,PROSPECT PRESCHOOL,,,,92071,33,-117,LOW,2,3,ST,GEN ELEM SANTEE,HIGH GROSSMONT UNION,,71,38,50
1013,REFLECTIONS CENTRAL SCHOOL,,,,92111,33,-117,LOW,4,7,SD,,,UNIFIED SAN DIEGO,79,39,53
1014,REFLECTIONS NORTH,,,,92111,33,-117,LOW,4,7,SD,,,UNIFIED SAN DIEGO,79,39,53
1021,RINCON BALL FIELDS,,,,92082,33,-117,LOW,5,,,,,UNIFIED VALLEY CENTER-PAUMA,75,38,50
1038,ROOSEVELT MIDDLE SUMMER,,,,92101,33,-117,LOW,4,3,SD,,,UNIFIED SAN DIEGO,78,39,53
1041,ROSE PRESCHOOL,,,,92026,33,-117,LOW,3,1,ES,GEN ELEM ESCONDIDO UNION,HIGH ESCONDIDO UNION,,75,38,50
1044,ROWAN CDC,,,,92105,33,-117,LOW,4,9,SD,,,UNIFIED SAN DIEGO,80,40,51
1046,S.D.C.F.C.-SAN DIEGO CENTER FOR CHILDREN,,,,92130,33,-117,LOW,3,1,SD,GEN ELEM DEL MAR UNION,HIGH SAN DIEGUITO UNION,,77,39,52
1049,SAILS,,,,91911,33,-117,LOW,1,3,CV,"GEN BOND CHULA VISTA-SFID 1 2012C,PROP E 11/06/12",HIGH SWEETWATER UNION,,80,40,53
1052,SAM AND ROSE STEIN EDUCATION CENTER,,,,92120,33,-117,LOW,2,7,SD,,,UNIFIED SAN DIEGO,79,39,53
1053,SAM AND ROSE STEIN EDUCATION CENTER-DECENA SITE,,,,92120,33,-117,LOW,2,7,SD,,,UNIFIED SAN DIEGO,79,39,53
1057,SAN DIEGO CENTER FOR CHILDREN,,,,92111,33,-117,LOW,4,7,SD,,,UNIFIED SAN DIEGO,79,39,53
1065,SAN DIEGO EARLY/MIDDLE COLLEGE,,,,92101,33,-117,LOW,4,3,SD,,,UNIFIED SAN DIEGO,78,39,52
1066,SAN DIEGO GLOBAL VISION ACADEMY,,,,92116,33,-117,LOW,4,3,SD,,,UNIFIED SAN DIEGO,78,39,53
1077,SAN DIEGO YOUTH AQUATIC CENTER,,,,92109,33,-117,LOW,4,2,SD,,,UNIFIED SAN DIEGO,78,39,52
1080,SAN DIEGUITO HIGH ACADEMY,,,,92007,33,-117,LOW,3,4,EN,GEN BOND SOLANA BEACH-SFID 2016-1 PROP JJ 11/08/16,HIGH SAN DIEGUITO UNION,,76,36,49
1093,SAN PASQUAL BALLFIELDS,,,,92121,33,-117,LOW,3,6,SD,,,UNIFIED SAN DIEGO,77,39,52
1104,SANTA YSABEL BALL FIELDS,,,,92070,33,-117,LOW,2,,,GEN ELEM JULIAN UNION,HIGH JULIAN UNION,,71,38,50
1118,SDCOE SUMMIT,,,,92111,33,-117,LOW,4,7,SD,,,UNIFIED SAN DIEGO,79,39,53
1121,SECOND CHANCE INDEPENDENT STUDY,,,,92111,33,-117,LOW,4,7,SD,,,UNIFIED SAN DIEGO,79,39,53
1144,SORRENTO MESA LC - AUDEO CHARTER -ANNEX,,,,92108,33,-117,LOW,4,7,SD,,,UNIFIED SAN DIEGO,79,39,53
1145,SOUTH BAY COMMUNITY SCHOOL,,,,91910,33,-117,LOW,1,2,CV,"GEN BOND CHULA VISTA-SFID 1 2012C,PROP E 11/06/12",HIGH SWEETWATER UNION,,80,40,51
1146,SOUTH BAY COUNTY BLENDED COMM SCHOOL,,,,92111,33,-117,LOW,4,7,SD,,,UNIFIED SAN DIEGO,79,39,53
1150,SOUTH REGION COMMUNITY DAY SCHOOLS,,,,91932,33,-117,LOW,1,,,GEN ELEM SOUTH BAY UNION,HIGH SWEETWATER UNION,,78,40,51
1151,SOUTHLAND BLENDED COMM SCHOOL,,,,92111,33,-117,LOW,4,7,SD,,,UNIFIED SAN DIEGO,79,39,53
1159,SPORTS SCIENCE ACADEMY,,,,92111,33,-117,LOW,4,7,SD,,,UNIFIED SAN DIEGO,79,39,53
1166,SPRINGALL ACADEMY,,,,92119,33,-117,LOW,2,7,SD,,,UNIFIED SAN DIEGO,77,39,53
1167,ST. DIDACUS  SCHOOL,,,,92116,33,-117,LOW,4,3,SD,,,UNIFIED SAN DIEGO,78,39,53
1168,ST. DIDACUS PARISH SCHOOL,,,,92116,33,-117,LOW,4,3,SD,,,UNIFIED SAN DIEGO,78,39,53
1169,ST. JOHN OF THE CROSS,,,,91945,33,-117,LOW,2,,,GEN ELEM LEMON GROVE,HIGH GROSSMONT UNION,,79,38,53
1170,ST. MARTIN OF TOURS ACADEMY,,,,91942,33,-117,LOW,2,,,GEN ELEM LA MESA-SPRING VALLEY,HIGH GROSSMONT UNION,,79,38,53
1171,ST. MICHAEL'S SCHOOL,,,,92139,33,-117,LOW,1,4,SD,,,UNIFIED SAN DIEGO,80,40,53
1172,ST. PATRICK CATHOLIC SCHOOL,,,,92104,33,-117,LOW,4,3,SD,,,UNIFIED SAN DIEGO,78,39,53
1173,ST. PATRICK'S ELEMENTARY,,,,92104,33,-117,LOW,4,3,SD,,,UNIFIED SAN DIEGO,78,39,53
1174,ST. RITA'S SCHOOL,,,,92114,33,-117,LOW,4,4,SD,,,UNIFIED SAN DIEGO,79,40,51
1178,STEP PROGRAM,,,,92123,33,-117,LOW,4,6,SD,,,UNIFIED SAN DIEGO,77,39,52
1179,STEPHEN W. HAWKING CHARTER,,,,91911,33,-117,LOW,1,4,CV,"GEN BOND CHULA VISTA-SFID 1 2012C,PROP E 11/06/12",HIGH SWEETWATER UNION,,80,40,51
1180,"STEPHEN W. HAWKING II SCIENCE, TECHNOLOGY, ENGINEERING, ART AND MATH CHARTER",,,,92154,33,-117,LOW,1,8,SD,GEN ELEM SOUTH BAY UNION,HIGH SWEETWATER UNION,,80,40,51
1181,STEPS,,,,92123,33,-117,LOW,4,6,SD,,,UNIFIED SAN DIEGO,77,39,52
1186,SUMMIT NORTH,,,,92084,33,-117,LOW,5,1,VS,,,UNIFIED VISTA,76,36,49
1204,TEEN OPTIONS INDEPENDENT STUDY,,,,92111,33,-117,LOW,4,7,SD,,,UNIFIED SAN DIEGO,79,39,53
1205,TEEN OUTREACH NORTH,,,,92069,33,-117,LOW,5,1,SM,,,"UNIF BOND SAN MARCOS SFID #1-6/04/96, 2004-1 REF",75,38,50
1210,THE INSTITUTE FOR EFFECTIVE EDUCATION (TIEE SITE 1) - CHILDREN'S,,,,92108,33,-117,LOW,4,7,SD,,,UNIFIED SAN DIEGO,79,39,53
1211,THE INSTITUTE FOR EFFECTIVE EDUCATION (TIEE SITE 2) - URBAN SKIL,,,,92108,33,-117,LOW,4,7,SD,,,UNIFIED SAN DIEGO,79,39,53
1212,THE INSTITUTE FOR EFFECTIVE EDUCATION (TIEE SITE 3) - COOK EDUCA,,,,92108,33,-117,LOW,4,7,SD,,,UNIFIED SAN DIEGO,79,39,53
1216,THRIVE PUBLIC SCHOOLS - COMSTOCK CAMPUS - ANNEX,,,,92115,33,-117,LOW,4,9,SD,,,UNIFIED SAN DIEGO,79,40,51
1217,THRIVE PUBLIC SCHOOLS - HIGH SCHOOL,,,,92115,33,-117,LOW,4,9,SD,,,UNIFIED SAN DIEGO,79,40,51
1218,THRIVE PUBLIC SCHOOLS - JUANITA CAMPUS-ANNEX,,,,92115,33,-117,LOW,4,9,SD,,,UNIFIED SAN DIEGO,79,40,51
1219,THRIVE PUBLIC SCHOOLS - KROC CAMPUS-ANNEX,,,,92115,33,-117,LOW,4,9,SD,,,UNIFIED SAN DIEGO,79,40,51
1220,THURGOOD MARSHALL COMMUNITY SCHOOL,,,,92131,33,-117,LOW,3,5,SD,,,UNIFIED SAN DIEGO,77,38,52
1223,TIERRASANTA CHARTER-ANNEX,,,,92103,33,-117,LOW,4,3,SD,,,UNIFIED SAN DIEGO,78,39,53
1228,TOP BLENDED,,,,92111,33,-117,LOW,4,7,SD,,,UNIFIED SAN DIEGO,79,39,53
1242,UNIVERSITY COMMUNITY SCHOOL,,,,92111,33,-117,LOW,4,7,SD,,,UNIFIED SAN DIEGO,79,39,53
1246,UNIVERSITY TOWN CENTER-ANNEX,,,,92103,33,-117,LOW,4,3,SD,,,UNIFIED SAN DIEGO,78,39,53
1253,URBAN SKILLS CENTER,,,,92108,33,-117,LOW,4,7,SD,,,UNIFIED SAN DIEGO,79,39,53
1257,VALIANT ACADEMY DESD,,,,92101,33,-117,LOW,4,3,SD,,,UNIFIED SAN DIEGO,78,39,52
1275,VICKING CENTER,,,,92019,33,-117,LOW,2,,,GEN ELEM CAJON VALLEY UNION,HIGH GROSSMONT UNION,,71,38,50
1276,VICTORIA BLENDED COMMUNITY SCHOOL,,,,92111,33,-117,LOW,4,7,SD,,,UNIFIED SAN DIEGO,79,39,53
1277,VICTORIA COMMUNITY SCHOOL,,,,92113,33,-117,LOW,1,8,SD,,,UNIFIED SAN DIEGO,80,40,51
1279,VIEJAS RECREATION CENTER,,,,92121,33,-117,LOW,3,6,SD,,,UNIFIED SAN DIEGO,77,39,52
1286,VISTA DEL MAR,,,,92154,33,-117,LOW,1,8,SD,GEN ELEM SAN YSIDRO,HIGH SWEETWATER UNION,,80,40,51
1289,VISTA GRANDE SUMMER,,,,92124,33,-117,LOW,3,7,SD,,,UNIFIED SAN DIEGO,77,39,52
1300,VIVIAN BANKS CHARTER SCHOOL,,,,92121,33,-117,LOW,3,6,SD,,,UNIFIED SAN DIEGO,77,39,52
1302,WALKER CDC,,,,92126,33,-117,LOW,3,6,SD,,,UNIFIED SAN DIEGO,77,39,52
1311,WEGEFORTH CDC,,,,92123,33,-117,LOW,4,7,SD,,,UNIFIED SAN DIEGO,79,39,53
1331,WOODMAN-ANNEX,,,,92103,33,-117,LOW,4,3,SD,,,UNIFIED SAN DIEGO,78,39,53
1332,WORTHINGTON SCHOOL,,,,92020,33,-117,LOW,2,1,EC,GEN ELEM LA MESA-SPRING VALLEY,HIGH GROSSMONT UNION,,71,38,53
1339,YOUTH DAY CENTER,,,,92102,33,-117,LOW,1,9,SD,,,UNIFIED SAN DIEGO,80,40,51
3,64 DEGREES,9500 GILMAN DRIVE,LA JOLLA,CA,92093,33,-117,HIGH,4,1,SD,,,UNIFIED SAN DIEGO,78,39,49
5,ABBY REINKE YOUTH CENTER,BLDG. 201019,CAMP PENDLETON,CA,92055,33,-117,HIGH,5,,,GEN ELEM FALLBROOK UNION,HIGH FALLBROOK UNION,,76,36,49
6,ABRAXAS CONTINUATION HIGH,12450 Glenoak Road,Poway,CA,92064,33,-117,HIGH,2,1,PW,,,"UNIF BOND POWAY-SFID 2002-1,PROP U, 2014 REF",77,38,52
8,ACADEMY OF ARTS AND SCIENCES: DEL MAR ELEMENTARY (K-5),850 Hampshire Road Suite C,Thousand Oaks,CA,,34,-119,LOW,,,,,,,,,
10,ACADEMY OF ARTS AND SCIENCES: EL CAJON ELEMENTARY (K-5),850 Hampshire Road Suite C,Thousand Oaks,CA,,34,-119,LOW,,,,,,,,,
11,ACADEMY OF ARTS AND SCIENCES: EL CAJON MIDDLE AND HIGH (6-12),850 Hampshire Road Suite C,Thousand Oaks,CA,,34,-119,LOW,,,,,,,,,
12,ADA W. HARRIS ELEMENTARY,1508 Windsor Road,Cardiff-by-the-Sea,CA,92007,33,-117,HIGH,3,3,EN,GEN ELEM CARDIFF,HIGH SAN DIEGUITO UNION,,76,36,49
13,ADAMS ELEMENTARY,4672 35th Street,San Diego,CA,92116,33,-117,HIGH,4,3,SD,,,UNIFIED SAN DIEGO,78,39,53
14,ADAMS REC CENTER,3491 ADAMS AVENUE,SAN DIEGO,CA,92116,33,-117,HIGH,4,3,SD,,,UNIFIED SAN DIEGO,78,39,53
15,ADMIRAL HARTMAN CYP,4649 DONALDSON DR,SAN DIEGO,CA,92109,33,-117,HIGH,4,2,SD,,,UNIFIED SAN DIEGO,78,39,52
16,ADOBE BLUFFS ELEMENTARY,8707 Adobe Bluffs Drive,San Diego,CA,92129,33,-117,HIGH,3,5,SD,,,"UNIF BOND POWAY-SFID 2002-1,PROP U, 2014 REF",77,39,52
17,AL RAHMA LEARNING CENTER,7520 EL CAJON BLVD.,LA MESA,CA,91942,33,-117,HIGH,2,,,GEN ELEM LA MESA-SPRING VALLEY,HIGH GROSSMONT UNION,,79,38,53
18,ALAMOSA PARK ELEMENTARY,5130 Alamosa Park Drive,Oceanside,CA,92057,33,-117,HIGH,5,4,OC,,,UNIFIED VISTA,76,36,49
19,ALBA,4041 Oregon St,San Diego,CA,92104,33,-117,HIGH,4,3,SD,,,UNIFIED SAN DIEGO,78,39,53
21,ALBERT EINSTEIN ACADEMY CHARTER ELEMENTARY,3035 ASH ST.,SAN DIEGO,CA,92102,33,-117,HIGH,4,3,SD,,,UNIFIED SAN DIEGO,78,39,53
22,ALBERT EINSTEIN ACADEMY CHARTER MIDDLE,458 26TH ST.,SAN DIEGO,CA,92102,33,-117,HIGH,1,8,SD,,,UNIFIED SAN DIEGO,80,40,51
27,ALCOTT ELEMENTARY,4680 HIDALGO AVE.,SAN DIEGO,CA,92117,33,-117,HIGH,4,2,SD,,,UNIFIED SAN DIEGO,77,39,52
28,ALL TRIBES CHARTER,34320 Valley Center Road,Valley Center,CA,92082,33,-117,HIGH,5,,,,,UNIFIED VALLEY CENTER-PAUMA,75,38,50
29,ALL TRIBES ELEMENTARY CHARTER,"34320 Valley Center Road, Suite B",Valley Center,CA,92082,33,-117,HIGH,5,,,,,UNIFIED VALLEY CENTER-PAUMA,75,38,50
30,ALLEN (ELLA B.) ELEMENTARY,4300 Allen School Road,Bonita,CA,91902,33,-117,HIGH,1,1,CV,"GEN BOND CHULA VISTA-SFID 1 2012C,PROP E 11/06/12",HIGH SWEETWATER UNION,,80,40,53
31,ALLIED GARDENS PARK & REC,5155 GREENBRIER AVE.,SAN DIEGO,CA,92120,33,-117,HIGH,2,7,SD,,,UNIFIED SAN DIEGO,79,39,53
32,ALPINE COMMUNITY DAY,2001 Tavern Road,Alpine,CA,91901,33,-117,HIGH,2,,,GEN ELEM ALPINE UNION,HIGH GROSSMONT UNION,,71,38,50
33,ALPINE ELEMENTARY,1850 Alpine Boulevard,Alpine,CA,91901,33,-117,HIGH,2,,,GEN ELEM ALPINE UNION,HIGH GROSSMONT UNION,,71,38,50
34,ALTA VISTA ACADEMY,730 Medical Center Court,Chula Vista,CA,91911,33,-117,HIGH,1,3,CV,"GEN BOND CHULA VISTA-SFID 1 2012C,PROP E 11/06/12",HIGH SWEETWATER UNION,,79,40,53
35,ALTA VISTA HIGH (CONTINUATION),1575 BONAIR DR.,VISTA,CA,92084,33,-117,HIGH,5,2,VS,,,UNIFIED VISTA,76,36,49
36,ALVIN M. DUNN ELEMENTARY,3697 LA MIRADA DR.,SAN MARCOS,CA,92078,33,-117,HIGH,5,1,SM,,,"UNIF BOND SAN MARCOS SFID #1-6/04/96, 2004-1 REF",75,38,50
37,AMERICA'S FINEST CHARTER,730 45th Street,San Diego,CA,92102,33,-117,HIGH,1,4,SD,,,UNIFIED SAN DIEGO,80,40,51
39,ANGIER ELEMENTARY,8450 Hurlbut Street,San Diego,CA,92123,33,-117,HIGH,4,7,SD,,,UNIFIED SAN DIEGO,79,39,53
40,ANZA ELEMENTARY,1005 SOUTH ANZA ST.,EL CAJON,CA,92020,33,-117,HIGH,2,4,EC,GEN ELEM CAJON VALLEY UNION,HIGH GROSSMONT UNION,,71,38,50
41,ARROYO PASEO CHARTER HIGH,3773 El Cajon Boulevard,San Diego,CA,92105,33,-117,HIGH,4,9,SD,,,UNIFIED SAN DIEGO,80,40,51
42,ARROYO VISTA CHARTER,2491 School House Road,Chula Vista,CA,91915,33,-117,HIGH,1,1,CV,GEN ELEM CHULA VISTA,HIGH SWEETWATER UNION,,79,40,53
44,ASHLEY FALLS ELEMENTARY,13030 Ashley Falls Drive,San Diego,CA,92130,33,-117,HIGH,3,1,SD,GEN ELEM DEL MAR UNION,HIGH SAN DIEGUITO UNION,,77,39,52
45,ATMOSPHERE APARTMENTS,1453 FOURTH AVENUE,SAN DIEGO,CA,92101,33,-117,HIGH,4,3,SD,,,UNIFIED SAN DIEGO,78,39,52
46,AUDEO CHARTER,10170 Huennekens Street,San Diego,CA,92121,33,-117,HIGH,3,6,SD,,,UNIFIED SAN DIEGO,77,39,52
47,AUDEO CHARTER II,"3821 Plaza Drive, Suite 402",Oceanside,CA,92056,33,-117,HIGH,5,3,OC,,,UNIFIED CARLSBAD,76,36,49
48,AUDEO CHARTER SCHOOL III,200 East Via Rancho Parkway,Escondido,CA,92025,33,-117,HIGH,3,4,ES,GEN ELEM ESCONDIDO UNION,HIGH ESCONDIDO UNION,,75,38,50
49,AUDUBON K-8,8111 San Vicente,San Diego,CA,92114,33,-117,HIGH,4,4,SD,,,UNIFIED SAN DIEGO,79,40,53
51,AVIARA OAKS ELEMENTARY,6900 Ambrosia Lane,Carlsbad,CA,92011,33,-117,HIGH,5,4,CB,,,UNIFIED CARLSBAD,76,36,49
52,AVIARA OAKS MIDDLE,6880 Ambrosia Lane,Carlsbad,CA,92011,33,-117,HIGH,5,3,CB,,,UNIFIED CARLSBAD,76,36,49
53,AVOCADO ELEMENTARY,3845 Avocado School Road,La Mesa,CA,91941,33,-117,HIGH,2,,,GEN ELEM CAJON VALLEY UNION,HIGH GROSSMONT UNION,,71,38,53
54,AVONDALE ELEMENTARY,8401 STANSBURY ST.,SPRING VALLEY,CA,91977,33,-117,HIGH,2,,,GEN ELEM LA MESA-SPRING VALLEY,HIGH GROSSMONT UNION,,71,40,53
56,AZELEA REC CENTER,2596 VIOLET STREET,SAN DIEGO,CA,92105,33,-117,HIGH,4,9,SD,,,UNIFIED SAN DIEGO,80,40,51
57,BAKER BRANCH,835 W 15TH AVE,ESCONDIDO,CA,92025,33,-117,HIGH,3,4,ES,GEN ELEM ESCONDIDO UNION,HIGH ESCONDIDO UNION,,75,38,50
58,BAKER ELEMENTARY,4041 T Street,San Diego,CA,92113,33,-117,HIGH,1,9,SD,,,UNIFIED SAN DIEGO,80,40,51
60,BALBOA ELEMENTARY,1844 South 40th Street,San Diego,CA,92113,33,-117,HIGH,1,8,SD,,,UNIFIED SAN DIEGO,80,40,51
61,BALBOA MORLEY FIELD SPORTS COMPLEX,2221 MORLEY FIELD DRIVE,SAN DIEGO,CA,92101,33,-117,HIGH,4,3,SD,,,UNIFIED SAN DIEGO,78,39,53
62,BALDERRAMA COMMUNITY CENTER,709 SAN DIEGO STREET,OCEANSIDE,CA,92058,33,-117,HIGH,5,1,OC,,,UNIFIED OCEANSIDE,76,36,49
66,BAME CDC,3085 K STREET,SAN DIEGO,CA,92102,33,-117,HIGH,1,8,SD,,,UNIFIED SAN DIEGO,80,40,51
67,BANCROFT ELEMENTARY,8805 TYLER ST.,SPRING VALLEY,CA,91977,33,-117,HIGH,2,,,GEN ELEM LA MESA-SPRING VALLEY,HIGH GROSSMONT UNION,,71,40,53
69,BARNARD ELEMENTARY,2445 Fogg Street,San Diego,CA,92109,33,-117,HIGH,4,2,SD,,,UNIFIED SAN DIEGO,78,39,52
70,BARNETT ELEMENTARY,23925 Couna Way,Ramona,CA,92065,33,-117,HIGH,2,,,,,UNIFIED RAMONA,71,38,50
71,BARONA INDIAN CHARTER,1095 Barona Road,Lakeside,CA,92040,33,-117,HIGH,2,,,GEN ELEM LAKESIDE UNION,HIGH GROSSMONT UNION,,71,38,50
74,BAY PARK ELEMENTARY,2433 Denver Street,San Diego,CA,92110,33,-117,HIGH,4,2,SD,,,UNIFIED SAN DIEGO,78,39,52
76,BAY VIEW CYP,1876 SKY HARBOR DRIVE,SAN DIEGO,CA,92139,33,-117,HIGH,1,4,SD,,,UNIFIED SAN DIEGO,79,40,53
77,BAYPOINT PREPARATORY ACADEMY - SAN DIEGO,"1175 Linda Vista Dr,",San Marcos,CA,92078,33,-117,HIGH,5,3,SM,,,"UNIF BOND SAN MARCOS SFID #1-6/04/96, 2004-1 REF",75,38,50
78,BAYSHORE PREPARATORY CHARTER,1175 Linda Vista Drive,San Marcos,CA,92078,33,-117,HIGH,5,3,SM,,,"UNIF BOND SAN MARCOS SFID #1-6/04/96, 2004-1 REF",75,38,50
80,BAYSIDE COMMUNITY CENTER,2202 COMSTOCK ST,SAN DIEGO,CA,92111,33,-117,HIGH,4,7,SD,,,UNIFIED SAN DIEGO,79,39,53
81,BAYSIDE ELEMENTARY,490 EMORY ST.,IMPERIAL BEACH,CA,91932,33,-117,HIGH,1,,,GEN ELEM SOUTH BAY UNION,HIGH SWEETWATER UNION,,78,40,51
82,BAYSIDE STEAM ACADEMY,490 EMORY ST.,IMPERIAL BEACH,CA,91932,33,-117,HIGH,1,,,GEN ELEM SOUTH BAY UNION,HIGH SWEETWATER UNION,,78,40,51
84,BEACON CLASSICAL ACADEMY ELEMENTARY CHARTER,2400 Euclid Avenue,National City,CA,91950,33,-117,HIGH,1,,,GEN ELEM NATIONAL,HIGH SWEETWATER UNION,,80,40,51
85,BEACON CLASSICAL ACADEMY NATIONAL CITY,2400 Euclid Avenue,National City,CA,91950,33,-117,HIGH,1,,,GEN ELEM NATIONAL,HIGH SWEETWATER UNION,,80,40,51
86,BEAR VALLEY MIDDLE,3003 Bear Valley Parkway,Escondido,CA,92025,33,-117,HIGH,3,4,ES,GEN ELEM ESCONDIDO UNION,HIGH ESCONDIDO UNION,,75,38,50
87,BEAUMONT ELEMENTARY,550 BEAUMONT DR.,VISTA,CA,92084,33,-117,HIGH,5,2,VS,,,UNIFIED VISTA,76,36,49
88,BELL MIDDLE,620 BRIARWOOD RD.,SAN DIEGO,CA,92139,33,-117,HIGH,1,4,SD,,,UNIFIED SAN DIEGO,79,40,53
89,BELLA MENTE MONTESSORI ACADEMY,1737 WEST VISTA WAY,VISTA,CA,92083,33,-117,HIGH,5,3,VS,,,UNIFIED VISTA,76,36,49
90,BENCHLEY/WEINBERGER ELEMENTARY,6269 Twin Lake Drive,San Diego,CA,92119,33,-117,HIGH,2,7,SD,,,UNIFIED SAN DIEGO,77,39,53
91,BERNARDO ELEMENTARY,1122 Mountain Heights Drive,Escondido,CA,92029,33,-117,HIGH,3,,,GEN ELEM ESCONDIDO UNION,HIGH ESCONDIDO UNION,,75,38,50
92,BERNARDO HEIGHTS MIDDLE,12990 Paseo Lucido,San Diego,CA,92128,33,-117,HIGH,3,5,SD,,,"UNIF BOND POWAY-SFID 2002-1,PROP U, 2014 REF",77,39,52
93,BERRY STREET PARK,7071 MT. VERNON ST.,LEMON GROVE,CA,91945,33,-117,HIGH,2,,,GEN ELEM LEMON GROVE,HIGH GROSSMONT UNION,,79,38,53
94,BEST SUMMER BRIDGE 2010,5500 CAMPANILE DR.,SAN DIEGO,CA,92115,33,-117,HIGH,2,9,SD,,,UNIFIED SAN DIEGO,79,39,53
95,BETHUNE K-8,6835 Benjamin Holt Road,San Diego,CA,92114,33,-117,HIGH,4,4,SD,,,UNIFIED SAN DIEGO,79,40,53
96,BGC KUMEYAAY NATION,8 1/2 CRESTWOOD ROAD,BOULEVARD,CA,91962,33,-116,HIGH,2,,,,,UNIFIED MT EMPIRE,71,40,51
98,BIRD ROCK ELEMENTARY,5371 La Jolla Hermosa Avenue,La Jolla,CA,92037,33,-117,HIGH,4,1,SD,,,UNIFIED SAN DIEGO,78,39,52
99,BIRNEY ELEMENTARY,4345 Campus Avenue,San Diego,CA,92103,33,-117,HIGH,4,3,SD,,,UNIFIED SAN DIEGO,78,39,53
100,BLACK MOUNTAIN MIDDLE,9353 Oviedo Street,San Diego,CA,92129,33,-117,HIGH,3,5,SD,,,"UNIF BOND POWAY-SFID 2002-1,PROP U, 2014 REF",77,39,52
102,BLESSED SACRAMENT PARISH SCHOOL,4551 56TH STREET,SAN DIEGO,CA,92115,33,-117,HIGH,2,9,SD,,,UNIFIED SAN DIEGO,79,39,53
103,BLOSSOM VALLEY ELEMENTARY,9863 Oakmont Terrace,El Cajon,CA,92021,33,-117,HIGH,2,,,GEN ELEM CAJON VALLEY UNION,HIGH GROSSMONT UNION,,71,38,50
104,BOBIER ELEMENTARY,220 WEST BOBIER DR.,VISTA,CA,92083,33,-117,HIGH,5,1,VS,,,UNIFIED VISTA,76,36,49
105,BONITA VISTA MIDDLE,650 Otay Lakes Road,Chula Vista,CA,91913,33,-117,HIGH,1,1,CV,"GEN BOND CHULA VISTA-SFID 1 2012C,PROP E 11/06/12",HIGH SWEETWATER UNION,,80,40,53
106,BONITA VISTA SENIOR HIGH,751 Otay Lakes Road,Chula Vista,CA,91913,33,-117,HIGH,1,1,CV,"GEN BOND CHULA VISTA-SFID 1 2012C,PROP E 11/06/12",HIGH SWEETWATER UNION,,80,40,53
107,BONSALL ELEMENTARY,31555 Old River Road,Bonsall,CA,92003,33,-117,HIGH,5,,,,,UNIFIED BONSALL,75,38,50
108,BONSALL HIGH,7350 West Lilac Road,Bonsall,CA,92003,33,-117,HIGH,5,,,,,UNIFIED BONSALL,75,38,50
109,BONSALL WEST ELEMENTARY,5050 El Mirlo Drive,Oceanside,CA,92057,33,-117,HIGH,5,2,OC,,,UNIFIED BONSALL,76,36,49
110,BOONE ELEMENTARY,7330 Brookhaven Road,San Diego,CA,92114,33,-117,HIGH,4,4,SD,,,UNIFIED SAN DIEGO,79,40,53
111,BORDER VIEW YMCA,3601 AREY DRIVE,SAN DIEGO,CA,92154,33,-117,HIGH,1,8,SD,"GEN BOND CHULA VISTA-SFID 1 2012C,PROP E 11/06/12",HIGH SWEETWATER UNION,,80,40,51
112,BORREGO SPRINGS BRANCH LIBRARY,587 PALM CANYON DR. #125,BORREGO SPRINGS,CA,92004,33,-116,HIGH,5,,,,,UNIFIED BORREGO SPRINGS,71,38,50
113,BORREGO SPRINGS ELEMENTARY,1315 Palm Canyon Drive,Borrego Springs,CA,92004,33,-116,HIGH,5,,,,,UNIFIED BORREGO SPRINGS,71,38,50
114,BORREGO SPRINGS HIGH,2281 Diegueno Road,Borrego Springs,CA,92004,33,-116,HIGH,5,,,,,UNIFIED BORREGO SPRINGS,71,38,50
115,BORREGO SPRINGS MIDDLE,2255 Diegueno Road,Borrego Springs,CA,92004,33,-116,HIGH,5,,,,,UNIFIED BORREGO SPRINGS,71,38,50
116,BOSTONIA LANGUAGE ACADEMY,1390 East Broadway,El Cajon,CA,92021,33,-117,HIGH,2,3,EC,GEN ELEM CAJON VALLEY UNION,HIGH GROSSMONT UNION,,71,38,50
117,BOULDER OAKS ELEMENTARY,2320 Tavern Road,Alpine,CA,91901,33,-117,HIGH,2,,,GEN ELEM ALPINE UNION,HIGH GROSSMONT UNION,,71,38,50
118,BOYS   GIRLS CLUB OLEANDER,1301 OLEANDER AVENUE,CHULA VISTA,CA,91911,33,-117,HIGH,1,3,CV,"GEN BOND CHULA VISTA-SFID 1 2012C,PROP E 11/06/12",HIGH SWEETWATER UNION,,80,40,53
119,BOYS & GIRLS CLUB,410 W CALIFORNIA AVE,VISTA,CA,92083,33,-117,HIGH,5,1,VS,,,UNIFIED VISTA,76,36,49
120,BOYS & GIRLS CLUB @ LIBBY ELEMENTARY SCHOOL,423 W. REDONDO DRIVE,OCEANSIDE,CA,92057,33,-117,HIGH,5,2,OC,,,UNIFIED OCEANSIDE,76,36,49
121,BOYS AND GIRLS CLUB IMPERIAL BEACH,847 ENCINA AVENUE,IMPERIAL BEACH,CA,91932,33,-117,HIGH,1,,,GEN ELEM SOUTH BAY UNION,HIGH SWEETWATER UNION,,78,40,51
122,BOYS AND GIRLS CLUB OF EAST COUNTY,1171 E. MADISON,EL CAJON,CA,92021,33,-117,HIGH,2,2,EC,GEN ELEM CAJON VALLEY UNION,HIGH GROSSMONT UNION,,71,38,50
123,BOYS AND GIRLS CLUB SAN MARCOS,1 POSITIVE PLACE,SAN MARCOS,CA,92069,33,-117,HIGH,5,1,SM,,,"UNIF BOND SAN MARCOS SFID #1-6/04/96, 2004-1 REF",75,38,50
124,BOYS AND GIRLS CLUB SANTEE,8820 TAMBERLY WAY,SANTEE,CA,92071,33,-117,HIGH,2,3,ST,GEN ELEM SANTEE,HIGH GROSSMONT UNION,,71,38,50
125,BOYS/GIRLS CLUB COUNTRY CLUB LANE,401 COUNTRY CLUB LANE,OCEANSIDE,CA,92054,33,-117,HIGH,5,1,OC,,,UNIFIED OCEANSIDE,76,36,49
127,BREEZE HILL ELEMENTARY,1111 MELROSE WAY,VISTA,CA,92081,33,-117,HIGH,5,3,VS,,,UNIFIED VISTA,76,36,49
128,BRENGLE TERRACE RECREATION CENTER,1200 VALE TERRACE DRIVE,VISTA,CA,92084,33,-117,HIGH,5,2,VS,,,UNIFIED VISTA,76,36,49
129,BRONNER BRANCH,28751 COLE GRADE RD.,VALLEY CENTER,CA,92082,33,-117,HIGH,5,,,,,UNIFIED VALLEY CENTER-PAUMA,75,38,50
131,BUENA VISTA ELEMENTARY,1330 Buena Vista Way,Carlsbad,CA,92008,33,-117,HIGH,5,1,CB,,,UNIFIED CARLSBAD,76,36,49
132,BURBANK ELEMENTARY,2146 JULIAN AVE.,SAN DIEGO,CA,92113,33,-117,HIGH,1,8,SD,,,UNIFIED SAN DIEGO,80,40,51
133,CABRILLO CYP,8420 1/2 KRENZ STREET,SAN DIEGO,CA,92123,33,-117,HIGH,4,7,SD,,,UNIFIED SAN DIEGO,79,39,53
134,CABRILLO ELEMENTARY,3120 Talbot Street,San Diego,CA,92106,33,-117,HIGH,1,2,SD,,,UNIFIED SAN DIEGO,78,39,52
136,CADMAN ELEMENTARY,4370 KAMLOOP AVE.,SAN DIEGO,CA,92117,33,-117,HIGH,4,2,SD,,,UNIFIED SAN DIEGO,77,39,52
137,CADMAN RECREATION CENTER,4280 AVATI DRIVE,SAN DIEGO,CA,92117,33,-117,HIGH,4,2,SD,,,UNIFIED SAN DIEGO,77,39,52
138,CAJON PARK ELEMENTARY,10300 Magnolia Avenue,Santee,CA,92071,33,-117,HIGH,2,1,ST,GEN ELEM SANTEE,HIGH GROSSMONT UNION,,71,38,50
139,CAJON VALLEY COMMUNITY DAY,165 Roanoke Road,El Cajon,CA,92020,33,-117,HIGH,2,2,EC,GEN ELEM CAJON VALLEY UNION,HIGH GROSSMONT UNION,,71,38,53
140,CAJON VALLEY HOME,1384 Broadway,El Cajon,CA,92021,33,-117,HIGH,2,3,EC,GEN ELEM CAJON VALLEY UNION,HIGH GROSSMONT UNION,,71,38,50
141,CAJON VALLEY MIDDLE,550 PARK AVE.,EL CAJON,CA,92020,33,-117,HIGH,2,2,EC,GEN ELEM CAJON VALLEY UNION,HIGH GROSSMONT UNION,,71,38,53
142,CALAVERA HILLS ELEMENTARY,4100 Tamarack Avenue,Carlsbad,CA,92010,33,-117,HIGH,5,2,CB,,,UNIFIED CARLSBAD,76,36,49
143,CALAVERA HILLS MIDDLE,4104 Tamarack Avenue,Carlsbad,CA,92010,33,-117,HIGH,5,2,CB,,,UNIFIED CARLSBAD,76,36,49
144,CALIFORNIA ACADEMY OF SPORTS SCIENCE,"4684 Ontario Mills Parkway, Suite 100",Ontario,CA,,34,-118,HIGH,,,,,,,,,
145,CALIFORNIA AVENUE ELEMENTARY,215 West California Avenue,Vista,CA,92083,33,-117,HIGH,5,1,VS,,,UNIFIED VISTA,76,36,49
146,CALIFORNIA PACIFIC CHARTER SCHOOL OF SAN DIEGO,1200 Quail Street #175,Newport Beach,CA,,34,-118,HIGH,,,,,,,,,
146,CALIFORNIA PACIFIC CHARTER - SAN DIEGO,30951 Highway 79,Warner Springs,CA,92070,33,-117,HIGH,5,,,,,UNIFIED WARNER,71,38,50
147,CALIFORNIA VIRTUAL ACADEMY @ SAN DIEGO,50 Moreland Road,Simi Valley,CA,,34,-119,HIGH,,,,,,,,,
148,CALIFORNIA/SP ED,215 W. CALIFORNIA AVE,VISTA,CA,92083,33,-117,HIGH,5,1,VS,,,UNIFIED VISTA,76,36,49
151,CAMARENA (ENRIQUE S.) ELEMENTARY,1650 Exploration Falls Drive,Chula Vista,CA,91915,33,-117,HIGH,1,3,CV,GEN ELEM CHULA VISTA,HIGH SWEETWATER UNION,,79,40,53
154,CAMP LOCKETT MIDDLE,31360 Highway 94,Campo,CA,91906,33,-116,HIGH,2,,,,,UNIFIED MT EMPIRE,71,40,51
156,CAMP OLIVER,8761 RIVERSIDE DRIVE,DESCANSO,CA,91916,33,-117,HIGH,2,,,,,UNIFIED MT EMPIRE,71,38,50
159,CAMPO EDUCATIONAL CENTER,36190 CHURCH ROAD,CAMPO,CA,91906,33,-116,HIGH,2,,,,,UNIFIED MT EMPIRE,71,40,51
161,CAMPO ELEMENTARY,1654 BUCKMAN SPRINGS RD.,CAMPO,CA,91906,33,-116,HIGH,2,,,,,UNIFIED MT EMPIRE,71,40,51
163,CAMPO HIGH (CONTINUATION),3305 Buckman Springs Road,Pine Valley,CA,91962,33,-116,HIGH,2,,,,,UNIFIED MT EMPIRE,71,40,51
164,CANYON CREST ACADEMY,5951 Village Center Loop Road,San Diego,CA,92130,33,-117,HIGH,3,1,SD,GEN ELEM DEL MAR UNION,HIGH SAN DIEGUITO UNION,,77,39,52
165,CANYON VIEW ELEMENTARY,9225 Adolphia Street,San Diego,CA,92129,33,-117,HIGH,3,6,SD,,,"UNIF BOND POWAY-SFID 2002-1,PROP U, 2014 REF",77,39,52
166,CAPRI ELEMENTARY,941 Capri Road,Encinitas,CA,92024,33,-117,HIGH,3,1,EN,GEN ELEM ENCINITAS UNION,HIGH SAN DIEGUITO UNION,,76,36,49
167,CARDIFF ELEMENTARY,1888 Montgomery Avenue,Cardiff-by-the-Sea,CA,92007,33,-117,HIGH,3,3,EN,GEN ELEM CARDIFF,HIGH SAN DIEGUITO UNION,,76,36,49
168,CARLSBAD ADULT TRANSITION,6225 El Camino Real,Carlsbad,CA,92011,33,-117,HIGH,5,2,CB,,,UNIFIED CARLSBAD,76,36,49
169,BGC CARLSBAD- VILLAGE,3115 ROOSEVELT ST.,CARLSBAD,CA,92008,33,-117,HIGH,5,1,CB,,,UNIFIED CARLSBAD,76,36,49
169,CARLSBAD BOYS & GIRLS CLUB,3115 ROOSEVELT STREET,CARLSBAD,CA,92008,33,-117,HIGH,5,1,CB,,,UNIFIED CARLSBAD,76,36,49
170,CARLSBAD HIGH,3557 Monroe Street,Carlsbad,CA,92008,33,-117,HIGH,5,1,CB,,,UNIFIED CARLSBAD,76,36,49
171,CARLSBAD SEASIDE ACADEMY,3557 Monroe Street,Carlsbad,CA,92008,33,-117,HIGH,5,1,CB,,,UNIFIED CARLSBAD,76,36,49
172,CARLSBAD VILLAGE ACADEMY,3557 Monroe Street,Carlsbad,CA,92008,33,-117,HIGH,5,1,CB,,,UNIFIED CARLSBAD,76,36,49
173,CARLTON HILLS ELEMENTARY,9353 Pike Road,Santee,CA,92071,33,-117,HIGH,2,4,ST,GEN ELEM SANTEE,HIGH GROSSMONT UNION,,71,38,50
174,CARLTON OAKS ELEMENTARY,9353 Wethersfield Road,Santee,CA,92071,33,-117,HIGH,2,4,ST,GEN ELEM SANTEE,HIGH GROSSMONT UNION,,71,38,50
175,CARMEL CREEK ELEMENTARY,4210 Carmel Center Road,San Diego,CA,92130,33,-117,HIGH,3,1,SD,GEN BOND SOLANA BEACH-SFID 2016-1 PROP JJ 11/08/16,HIGH SAN DIEGUITO UNION,,77,39,52
176,CARMEL DEL MAR ELEMENTARY,12345 Carmel Park Drive,San Diego,CA,92130,33,-117,HIGH,3,1,SD,GEN ELEM DEL MAR UNION,HIGH SAN DIEGUITO UNION,,77,39,52
177,CARMEL VALLEY MIDDLE,3800 Mykonos Lane,San Diego,CA,92130,33,-117,HIGH,3,1,SD,GEN ELEM DEL MAR UNION,HIGH SAN DIEGUITO UNION,,77,39,52
178,CARRILLO ELEMENTARY,2875 Poinsettia Lane,Carlsbad,CA,92009,33,-117,HIGH,5,2,CB,,,"UNIF BOND SAN MARCOS SFID #1-6/04/96, 2004-1 REF",76,36,49
179,CARSON ELEMENTARY,6905 KRAMER ST.,SAN DIEGO,CA,92111,33,-117,HIGH,4,7,SD,,,UNIFIED SAN DIEGO,79,39,53
180,CARVER ELEMENTARY,3251 Juanita Street,San Diego,CA,92105,33,-117,HIGH,4,4,SD,,,UNIFIED SAN DIEGO,79,39,51
181,CASA DE FAMILIA,212 E. PARK AVE.,SAN YSIDRO,CA,92173,33,-117,HIGH,1,8,SD,GEN ELEM SAN YSIDRO,HIGH SWEETWATER UNION,,80,40,51
182,CASA DE ORO ELEMENTARY,10227 RAMONA DR.,SPRING VALLEY,CA,91977,33,-117,HIGH,2,,,GEN ELEM LA MESA-SPRING VALLEY,HIGH GROSSMONT UNION,,71,38,53
183,CASA DE ORO LIBRARY,9805 CAMPO ROAD #180,SPRING VALLEY,CA,91977,33,-117,HIGH,2,,,GEN ELEM LA MESA-SPRING VALLEY,HIGH GROSSMONT UNION,,71,38,53
185,CASA DE SALUD YOUTH CENTER,1408 HARDING AVE.,NATIONAL CITY,CA,91950,33,-117,HIGH,1,,,GEN ELEM NATIONAL,HIGH SWEETWATER UNION,,80,40,51
186,CASILLAS (JOSEPH) ELEMENTARY,1130 East J Street,Chula Vista,CA,91910,33,-117,HIGH,1,3,CV,GEN ELEM CHULA VISTA,HIGH SWEETWATER UNION,,80,40,53
187,CASITA CENTER FOR SCIENCE/MATH/TECHNOLOGY,260 Cedar Drive,Vista,CA,92083,33,-117,HIGH,5,3,VS,,,UNIFIED VISTA,76,36,49
188,CASTLE PARK ELEMENTARY,25 Emerson Street,Chula Vista,CA,91911,33,-117,HIGH,1,4,CV,"GEN BOND CHULA VISTA-SFID 1 2012C,PROP E 11/06/12",HIGH SWEETWATER UNION,,80,40,51
189,CASTLE PARK MIDDLE,160 QUINTARD ST.,CHULA VISTA,CA,91911,33,-117,HIGH,1,4,CV,"GEN BOND CHULA VISTA-SFID 1 2012C,PROP E 11/06/12",HIGH SWEETWATER UNION,,80,40,51
190,CASTLE PARK SENIOR HIGH,1395 HILLTOP DR.,CHULA VISTA,CA,91911,33,-117,HIGH,1,4,CV,"GEN BOND CHULA VISTA-SFID 1 2012C,PROP E 11/06/12",HIGH SWEETWATER UNION,,80,40,51
195,CENTRAL BRANCH LIBRARY,330 PARK BLVD.,SAN DIEGO,CA,92101,33,-117,HIGH,4,3,SD,,,UNIFIED SAN DIEGO,78,39,52
196,CENTRAL ELEMENTARY,1290 EBONY AVE.,IMPERIAL BEACH,CA,91932,33,-117,HIGH,1,,,GEN ELEM SOUTH BAY UNION,HIGH SWEETWATER UNION,,78,40,51
197,CENTRAL ELEMENTARY,933 E Avenue,National City,CA,91950,33,-117,HIGH,1,,,GEN ELEM NATIONAL,HIGH SWEETWATER UNION,,79,40,51
198,CENTRAL ELEMENTARY,4063 POLK AVE.,SAN DIEGO,CA,92105,33,-117,HIGH,4,9,SD,,,UNIFIED SAN DIEGO,80,40,51
199,CENTRAL ELEMENTARY,122 WEST FOURTH AVE.,ESCONDIDO,CA,92025,33,-117,HIGH,3,3,ES,GEN ELEM ESCONDIDO UNION,HIGH ESCONDIDO UNION,,75,38,50
200,CENTRAL LIBRARY,330 PARK BLVD.,SAN DIEGO,CA,92101,33,-117,HIGH,4,3,SD,,,UNIFIED SAN DIEGO,78,39,52
202,CESAR CHAVEZ COMMUNITY CENTER,455 SYCAMORE ROAD,SAN YSIDRO,CA,92173,33,-117,HIGH,1,8,SD,GEN ELEM SAN YSIDRO,HIGH SWEETWATER UNION,,80,40,51
203,CESAR CHAVEZ MIDDLE,202 OLEANDER DR,OCEANSIDE,CA,92057,33,-117,HIGH,5,4,OC,,,UNIFIED OCEANSIDE,76,36,49
204,CHALLENGER MIDDLE,10810 Parkdale Avenue,San Diego,CA,92126,33,-117,HIGH,3,6,SD,,,UNIFIED SAN DIEGO,77,39,52
205,CHAPARRAL ELEMENTARY,17250 Tannin Drive,Poway,CA,92064,33,-117,HIGH,2,2,PW,,,"UNIF BOND POWAY-SFID 2002-1,PROP U, 2014 REF",77,38,52
206,CHAPARRAL HIGH,1600 NORTH CUYAMACA ST.,EL CAJON,CA,92020,33,-117,HIGH,2,1,EC,GEN ELEM CAJON VALLEY UNION,HIGH GROSSMONT UNION,,71,38,53
207,CHARTER SCHOOL OF SAN DIEGO,10170 Huennekens Street,San Diego,CA,92121,33,-117,HIGH,3,6,SD,,,UNIFIED SAN DIEGO,77,39,52
208,CHASE AVENUE ELEMENTARY,195 EAST CHASE AVE.,EL CAJON,CA,92020,33,-117,HIGH,2,4,EC,GEN ELEM CAJON VALLEY UNION,HIGH GROSSMONT UNION,,71,38,53
209,CHAVEZ ELEMENTARY,1404 South 40th Street,San Diego,CA,92113,33,-117,HIGH,1,9,SD,,,UNIFIED SAN DIEGO,80,40,51
210,CHEROKEE POINT ELEMENTARY,3735 38TH ST.,SAN DIEGO,CA,92105,33,-117,HIGH,4,9,SD,,,UNIFIED SAN DIEGO,80,40,51
211,CHESTERTON CYP,7427 LINDA VISTA RD,SAN DIEGO,CA,92111,33,-117,HIGH,4,7,SD,,,UNIFIED SAN DIEGO,79,39,53
212,CHESTERTON ELEMENTARY,7335 Wheatley Street,San Diego,CA,92111,33,-117,HIGH,4,7,SD,,,UNIFIED SAN DIEGO,79,39,53
213,CHET F. HARRITT ELEMENTARY,8120 Arlette Street,Santee,CA,92071,33,-117,HIGH,2,3,ST,GEN ELEM SANTEE,HIGH GROSSMONT UNION,,71,38,50
217,CHOLLAS LAKE PARK & RECREATION CENTER,6350 COLLEGE GROVE DRIVE,SAN DIEGO,CA,92115,33,-117,HIGH,4,4,SD,,,UNIFIED SAN DIEGO,79,39,51
219,CHOLLAS VIEW UNITED METHODIST CHURCH,904 47TH STREET,SAN DIEGO,CA,92102,33,-117,HIGH,1,4,SD,,,UNIFIED SAN DIEGO,80,40,51
220,CHOLLAS/MEAD ELEMENTARY,401 NORTH 45TH ST.,SAN DIEGO,CA,92102,33,-117,HIGH,1,4,SD,,,UNIFIED SAN DIEGO,80,40,51
221,CHRISTA MCAULIFFE ELEMENTARY,3701 Kelton Drive,Oceanside,CA,92056,33,-117,HIGH,5,3,OC,,,UNIFIED OCEANSIDE,76,36,49
222,CHRISTIAN CHURCH PRESCHOOL OF LEMON GROVE,6970 SAN MIGUEL AVE,LEMON GROVE,CA,91945,33,-117,HIGH,2,,,GEN ELEM LEMON GROVE,HIGH GROSSMONT UNION,,79,38,53
223,CHULA VISTA ADULT,1034 Fourth Avenue,Chula Vista,CA,91911,33,-117,HIGH,1,4,CV,"GEN BOND CHULA VISTA-SFID 1 2012C,PROP E 11/06/12",HIGH SWEETWATER UNION,,80,40,51
225,CHULA VISTA HILLS ELEMENTARY,980 Buena Vista Way,Chula Vista,CA,91910,33,-117,HIGH,1,3,CV,"GEN BOND CHULA VISTA-SFID 1 2012C,PROP E 11/06/12",HIGH SWEETWATER UNION,,80,40,53
226,CHULA VISTA LEARNING COMMUNITY CHARTER,590 K Street,Chula Vista,CA,91911,33,-117,HIGH,1,2,CV,"GEN BOND CHULA VISTA-SFID 1 2012C,PROP E 11/06/12",HIGH SWEETWATER UNION,,80,40,51
227,CHULA VISTA MIDDLE,415 FIFTH AVE.,CHULA VISTA,CA,91910,33,-117,HIGH,1,2,CV,"GEN BOND CHULA VISTA-SFID 1 2012C,PROP E 11/06/12",HIGH SWEETWATER UNION,,80,40,51
228,CHULA VISTA PRESBYTERIAN PRESCHOOL,940 HILLTOP DRIVE,CHULA VISTA,CA,91911,33,-117,HIGH,1,4,CV,"GEN BOND CHULA VISTA-SFID 1 2012C,PROP E 11/06/12",HIGH SWEETWATER UNION,,80,40,51
229,CHULA VISTA SENIOR HIGH,820 FOURTH AVE.,CHULA VISTA,CA,91911,33,-117,HIGH,1,2,CV,"GEN BOND CHULA VISTA-SFID 1 2012C,PROP E 11/06/12",HIGH SWEETWATER UNION,,80,40,51
230,CHULA VISTA SITE,1301 OLEANDER AVE.,CHULA VISTA,CA,91911,33,-117,HIGH,1,3,CV,"GEN BOND CHULA VISTA-SFID 1 2012C,PROP E 11/06/12",HIGH SWEETWATER UNION,,80,40,53
234,CITY HEIGHTS BRANCH LIBRARY,3795 FAIRMOUNT AVENUE,SAN DIEGO,CA,92105,33,-117,HIGH,4,9,SD,,,UNIFIED SAN DIEGO,80,40,51
235,CITY HEIGHTS COMMUNITY DEVELOPMENT CORP.,4071 39TH STREET,SAN DIEGO,CA,92105,33,-117,HIGH,4,9,SD,,,UNIFIED SAN DIEGO,80,40,51
236,CITY HEIGHTS PREPARATORY CHARTER,3770 Altadena Avenue,San Diego,CA,92105,33,-117,HIGH,4,9,SD,,,UNIFIED SAN DIEGO,80,40,51
237,CITY HEIGHTS REC CENTER,4380 LANDIS STREET,SAN DIEGO,CA,92105,33,-117,HIGH,4,9,SD,,,UNIFIED SAN DIEGO,80,40,51
238,CITY OF CHULA VISTA CIVIC CENTER LIBRARY,CITY OF CHULA VISTA CIVIC CENTER LIBRARY 365 F STREET,CHULA VISTA,CA,91910,33,-117,HIGH,1,2,CV,"GEN BOND CHULA VISTA-SFID 1 2012C,PROP E 11/06/12",HIGH SWEETWATER UNION,,80,40,51
240,CITY OF OCEANSIDE LIBRARY,300 NORTH COAST HWY,OCEANSIDE,CA,92054,33,-117,HIGH,5,1,OC,,,UNIFIED OCEANSIDE,76,36,49
241,CLAIR W. BURGENER ACADEMY,707 CAREY RD.,OCEANSIDE,CA,92058,33,-117,HIGH,5,1,OC,,,UNIFIED OCEANSIDE,76,36,49
242,CLAIREMONT BRANCH,4635 CLAIREMONT MESA BLVD,SAN DIEGO,CA,92117,33,-117,HIGH,4,6,SD,,,UNIFIED SAN DIEGO,77,39,52
243,CLAIREMONT HIGH,4150 UTE DR.,SAN DIEGO,CA,92117,33,-117,HIGH,4,2,SD,,,UNIFIED SAN DIEGO,78,39,52
244,CLARK MIDDLE,4388 Thorn Street,San Diego,CA,92105,33,-117,HIGH,4,9,SD,,,UNIFIED SAN DIEGO,80,40,51
245,CLASSICAL ACADEMY,2950 South Bear Valley Parkway,Escondido,CA,92025,33,-117,HIGH,3,4,ES,GEN ELEM ESCONDIDO UNION,HIGH ESCONDIDO UNION,,75,38,50
246,CLASSICAL ACADEMY HIGH,207 East Pennsylvania Avenue,Escondido,CA,92025,33,-117,HIGH,3,3,ES,GEN ELEM ESCONDIDO UNION,HIGH ESCONDIDO UNION,,75,38,50
247,CLASSICAL ACADEMY VISTA,4010 Mystra Way,Oceanside,CA,92056,33,-117,HIGH,5,3,OC,,,UNIFIED VISTA,76,36,49
248,CLAY ELEMENTARY,6506 Solita Avenue,San Diego,CA,92115,33,-117,HIGH,2,9,SD,,,UNIFIED SAN DIEGO,79,39,53
249,CLEAR VIEW,455 Windrose Way,Chula Vista,CA,91910,33,-117,HIGH,1,2,CV,"GEN BOND CHULA VISTA-SFID 1 2012C,PROP E 11/06/12",HIGH SWEETWATER UNION,,80,40,53
250,CLOVER FLAT ELEMENTARY,39639 Old Highway 80,Boulevard,CA,91905,33,-116,HIGH,2,,,,,UNIFIED MT EMPIRE,71,40,51
251,COASTAL ACADEMY,4096 Calle Platino,Oceanside,CA,92056,33,-117,HIGH,5,4,OC,,,UNIFIED OCEANSIDE,76,36,49
252,COASTAL ACADEMY CHARTER,4096 Calle Platino,Oceanside,CA,92056,33,-117,HIGH,5,4,OC,,,UNIFIED OCEANSIDE,76,36,49
255,COLINA DEL SOL PARK & REC,5319 ORANGE AVE.,SAN DIEGO,CA,92105,33,-117,HIGH,4,9,SD,,,UNIFIED SAN DIEGO,80,40,51
257,COLLEGE PREPARATORY MIDDLE - EAST COUNTY,3291 Buckman Springs Road,Pine Valley,CA,91962,33,-116,HIGH,2,,,,,UNIFIED MT EMPIRE,71,40,51
258,COLLEGE PREPARATORY MIDDLE - LA MESA SPRING VALLEY,5150 Jackson Drive,La Mesa,CA,91942,33,-117,HIGH,2,,,GEN ELEM LA MESA-SPRING VALLEY,HIGH GROSSMONT UNION,,79,38,53
259,COLLEGE-ROLANDO BRANCH LIBRARY,6600 MONTEZUMA ROAD,SAN DIEGO,CA,92115,33,-117,HIGH,2,9,SD,,,UNIFIED SAN DIEGO,79,39,53
260,COMMUNITY CONGREGATIONAL PRESCHOOL,276 F STREET,CHULA VISTA,CA,91910,33,-117,HIGH,1,2,CV,"GEN BOND CHULA VISTA-SFID 1 2012C,PROP E 11/06/12",HIGH SWEETWATER UNION,,80,40,51
262,COMMUNITY MONTESSORI,"1441 Montiel Road, Suite 143",Escondido,CA,92026,33,-117,HIGH,3,2,ES,GEN ELEM ESCONDIDO UNION,HIGH ESCONDIDO UNION,,75,38,50
263,COMMUNITY MONTESSORI CHARTER,"1441 Montiel Road, Suite 143",Escondido,CA,92026,33,-117,HIGH,3,2,ES,GEN ELEM ESCONDIDO UNION,HIGH ESCONDIDO UNION,,75,38,50
265,COMPASS CHARTER SCHOOLS OF SAN DIEGO,"850 Hampshire Road, Suite P",Thousand Oaks,CA,,34,-119,HIGH,,,,,,,,,
266,CONRAD PREBYS ESCONDIDO,115 W WOODWARD AVE,ESCONDIDO,CA,92025,33,-117,HIGH,3,2,ES,GEN ELEM ESCONDIDO UNION,HIGH ESCONDIDO UNION,,75,38,50
267,CONWAY ELEMENTARY,1325 CONWAY DR.,ESCONDIDO,CA,92027,33,-117,HIGH,3,2,ES,GEN ELEM ESCONDIDO UNION,HIGH ESCONDIDO UNION,,75,38,50
269,COOK (HAZEL GOES) ELEMENTARY,875 Cuyamaca Avenue,Chula Vista,CA,91911,33,-117,HIGH,1,2,CV,"GEN BOND CHULA VISTA-SFID 1 2012C,PROP E 11/06/12",HIGH SWEETWATER UNION,,80,40,51
271,COPLEY YMCA,4300 EL CAJON BLVD,SAN DIEGO,CA,92105,33,-117,HIGH,4,9,SD,,,UNIFIED SAN DIEGO,78,39,53
272,CORONADO HIGH,650 D Avenue,Coronado,CA,92118,33,-117,HIGH,1,,,,,UNIFIED CORONADO,78,39,52
273,CORONADO MIDDLE,550 F Avenue,Coronado,CA,92118,33,-117,HIGH,1,,,,,UNIFIED CORONADO,78,39,52
274,CORONADO PATHWAYS CHARTER,555 D Avenue,Coronado,CA,92118,33,-117,HIGH,1,,,,,UNIFIED CORONADO,78,39,52
275,CORONADO TERRACE APARTMENTS,1183 25TH STREET,SAN DIEGO,CA,92154,33,-117,HIGH,1,8,SD,GEN ELEM SOUTH BAY UNION,HIGH SWEETWATER UNION,,80,40,51
276,CORONADO UNIFIED SPECIAL EDUCATION PRE-K,201 6th Street,Coronado,CA,92118,33,-117,HIGH,1,,,,,UNIFIED CORONADO,78,39,52
277,CORONADO VILLAGE ELEMENTARY,600 Sixth Street,Coronado,CA,92118,33,-117,HIGH,1,,,,,UNIFIED CORONADO,78,39,52
278,CORREIA MIDDLE,4302 Valeta Street,San Diego,CA,92107,33,-117,HIGH,4,2,SD,,,UNIFIED SAN DIEGO,78,39,52
279,COTTONWOOD COMMUNITY DAY,3291 Buckman Springs Road,Pine Valley,CA,91962,33,-116,HIGH,2,,,,,UNIFIED MT EMPIRE,71,40,51
280,COUNTY COLLABORATIVE CHARTER,3291 Buckman Springs Road,Pine Valley,CA,91962,33,-116,HIGH,2,,,,,UNIFIED MT EMPIRE,71,40,51
281,CRAWFORD HIGH,4191 COLTS WAY,SAN DIEGO,CA,92115,33,-117,HIGH,4,9,SD,,,UNIFIED SAN DIEGO,79,39,53
282,"CREATIVE, PERFORMING, AND MEDIA ARTS",5050 CONRAD AVE.,SAN DIEGO,CA,92117,33,-117,HIGH,4,6,SD,,,UNIFIED SAN DIEGO,77,39,52
282,CREATIVE PERFORMING AND MEDIA ARTS,5050 Conrad Avenue,San Diego,CA,92117,33,-117,HIGH,4,6,SD,,,UNIFIED SAN DIEGO,77,39,52
283,CREEKSIDE EARLY LEARNING CENTER,8818 Harbison Canyon Road,Alpine,CA,91901,33,-117,HIGH,2,,,GEN ELEM ALPINE UNION,HIGH GROSSMONT UNION,,71,38,50
284,CREEKSIDE ELEMENTARY,12362 Springhurst Drive,San Diego,CA,92128,33,-117,HIGH,3,5,SD,,,UNIFIED POWAY,77,38,52
285,CREST ELEMENTARY,2000 Suncrest Boulevard,El Cajon,CA,92021,33,-117,HIGH,2,,,GEN ELEM CAJON VALLEY UNION,HIGH GROSSMONT UNION,,71,38,50
286,CROWN HEIGHTS RESOURCE CENTER,1210 DIVISION STREET,OCEANSIDE,CA,92054,33,-117,HIGH,5,1,OC,,,UNIFIED OCEANSIDE,76,36,49
287,CROWN POINT ELEMENTARY,4033 INGRAHAM ST.,SAN DIEGO,CA,92109,33,-117,HIGH,4,2,SD,,,UNIFIED SAN DIEGO,78,39,52
289,CUBBERLEY ELEMENTARY,3201 Marathon Drive,San Diego,CA,92123,33,-117,HIGH,4,7,SD,,,UNIFIED SAN DIEGO,79,39,53
290,CURIE ELEMENTARY,4080 Governor Drive,San Diego,CA,92122,33,-117,HIGH,3,1,SD,,,UNIFIED SAN DIEGO,78,39,52
292,DAILARD ELEMENTARY,6425 Cibola Road,San Diego,CA,92120,33,-117,HIGH,2,7,SD,,,UNIFIED SAN DIEGO,79,39,53
293,DANA,1775 Chatsworth Boulevard,San Diego,CA,92106,33,-117,HIGH,4,2,SD,,,UNIFIED SAN DIEGO,78,39,52
294,DARNALL CHARTER,6020 Hughes Street,San Diego,CA,92115,33,-117,HIGH,4,4,SD,,,UNIFIED SAN DIEGO,79,39,53
295,DAVILA DAY,540 G Street,Chula Vista,CA,91910,33,-117,HIGH,1,2,CV,"GEN BOND CHULA VISTA-SFID 1 2012C,PROP E 11/06/12",HIGH SWEETWATER UNION,,80,40,51
296,DE PORTOLA MIDDLE,11010 Clairemont Mesa Boulevard,San Diego,CA,92124,33,-117,HIGH,3,7,SD,,,UNIFIED SAN DIEGO,77,39,52
297,DEER CANYON ELEMENTARY,13455 Russet Leaf Lane,San Diego,CA,92129,33,-117,HIGH,3,5,SD,,,UNIFIED POWAY,77,39,52
298,DEHESA CHARTER,"1441 Montiel Road, Suite 143",Escondido,CA,92026,33,-117,HIGH,3,,,GEN ELEM ESCONDIDO UNION,HIGH ESCONDIDO UNION,,75,38,50
299,DEHESA ELEMENTARY,4612 Dehesa Road,El Cajon,CA,92019,33,-117,HIGH,2,,,GEN ELEM DEHESA,HIGH GROSSMONT UNION,,71,38,50
300,DEL DIOS ACADEMY OF ARTS AND SCIENCES,1400 WEST NINTH AVE.,ESCONDIDO,CA,92029,33,-117,HIGH,3,4,ES,GEN ELEM ESCONDIDO UNION,HIGH ESCONDIDO UNION,,75,38,50
301,DEL DIOS X-TRACK,1400 W 9TH,ESCONDIDO,CA,92029,33,-117,HIGH,3,4,ES,GEN ELEM ESCONDIDO UNION,HIGH ESCONDIDO UNION,,75,38,50
302,DEL LAGO ACADEMY - CAMPUS OF APPLIED SCIENCE,1740 SCENIC TRAIL WAY,ESCONDIDO,CA,92029,33,-117,HIGH,3,4,ES,GEN ELEM ESCONDIDO UNION,HIGH ESCONDIDO UNION,,75,38,50
303,DEL MAR HEIGHTS ELEMENTARY,13555 Boquita Drive,Del Mar,CA,92014,33,-117,HIGH,3,1,SD,GEN ELEM DEL MAR UNION,HIGH SAN DIEGUITO UNION,,78,39,49
304,DEL MAR HILLS ELEMENTARY,14085 Mango Drive,Del Mar,CA,92014,33,-117,HIGH,3,1,SD,GEN ELEM DEL MAR UNION,HIGH SAN DIEGUITO UNION,,78,39,49
305,DEL NORTE HIGH,16601 Nighthawk Lane,San Diego,CA,92127,33,-117,HIGH,3,5,SD,,,UNIFIED POWAY,77,38,52
306,DEL RIO ELEMENTARY,5200 NORTH RIVER RD.,OCEANSIDE,CA,92057,33,-117,HIGH,5,2,OC,,,UNIFIED OCEANSIDE,76,36,49
307,DEL SUR ELEMENTARY,15665 Paseo Del Sur,San Diego,CA,92127,33,-117,HIGH,3,5,SD,,,UNIFIED POWAY,77,38,52
308,DESCANSO ELEMENTARY,24842 Viejas Boulevard,Descanso,CA,91916,33,-117,HIGH,2,,,,,UNIFIED MT EMPIRE,71,38,50
309,DESIGN 39 CAMPUS,17050 Del Sur Ridge Road,San Diego,CA,92127,33,-117,HIGH,3,5,SD,,,UNIFIED POWAY,77,38,52
311,DEWEY ELEMENTARY,3251 Rosecrans Street,San Diego,CA,92110,33,-117,HIGH,4,2,SD,,,UNIFIED SAN DIEGO,78,39,52
312,DIEGO HILLS CENTRAL PUBLIC CHARTER,4585 College Avenue,San Diego,CA,92115,33,-117,HIGH,2,9,SD,,,UNIFIED SAN DIEGO,79,39,53
313,DIEGO HILLS CHARTER,4612 Dehesa Road Room 11,El Cajon,CA,92019,33,-117,HIGH,2,,,GEN ELEM DEHESA,HIGH GROSSMONT UNION,,71,38,50
314,DIEGO SPRINGS ACADEMY,310 Broadway,Chula Vista,CA,91910,33,-117,HIGH,1,2,CV,"GEN BOND CHULA VISTA-SFID 1 2012C,PROP E 11/06/12",HIGH SWEETWATER UNION,,80,40,51
315,DIEGO VALLEY CHARTER,511 North 2nd Street,El Cajon,CA,92021,33,-117,HIGH,2,3,EC,GEN ELEM CAJON VALLEY UNION,HIGH GROSSMONT UNION,,71,38,50
316,DIEGO VALLEY EAST PUBLIC CHARTER,511 North Second Street,El Cajon,CA,92021,33,-117,HIGH,2,3,EC,GEN ELEM CAJON VALLEY UNION,HIGH GROSSMONT UNION,,71,38,50
317,DIEGUENO MIDDLE,2150 Village Park Way,Encinitas,CA,92024,33,-117,HIGH,3,1,EN,GEN ELEM ENCINITAS UNION,HIGH SAN DIEGUITO UNION,,76,36,49
318,DIMENSIONS COLLABORATIVE,"1441 Montiel Road, Suite 143",Escondido,CA,92026,33,-117,HIGH,3,2,ES,GEN ELEM ESCONDIDO UNION,HIGH ESCONDIDO UNION,,75,38,50
319,DINGEMAN ELEMENTARY,11840 Scripps Creek Drive,San Diego,CA,92131,33,-117,HIGH,3,5,SD,,,UNIFIED SAN DIEGO,77,38,52
320,DISCOVERY CHARTER,1100 Camino Biscay,Chula Vista,CA,91910,33,-117,HIGH,1,1,CV,GEN ELEM CHULA VISTA,HIGH SWEETWATER UNION,,80,40,53
321,DISCOVERY ELEMENTARY,730 Applewilde Drive,San Marcos,CA,92078,33,-117,HIGH,5,2,SM,,,"UNIF BOND SAN MARCOS SFID #1-6/04/96, 2004-1 REF",75,38,50
328,DOUBLE PEAK,111 San Elijo Road,San Marcos,CA,92078,33,-117,HIGH,5,2,SM,,,"UNIF BOND SAN MARCOS SFID #1-6/04/96, 2004-1 REF",75,38,50
329,DOYLE ELEMENTARY,3950 Berino Court,San Diego,CA,92122,33,-117,HIGH,3,1,SD,,,UNIFIED SAN DIEGO,78,39,52
330,E. G. GARRISON ELEMENTARY,333 GARRISON DR.,OCEANSIDE,CA,92054,33,-117,HIGH,5,1,OC,,,UNIFIED OCEANSIDE,76,36,49
331,E3 CIVIC HIGH,"395 11th Avenue, 6th Floor",San Diego,CA,92101,33,-117,HIGH,4,3,SD,,,UNIFIED SAN DIEGO,78,39,52
332,EARL WARREN MIDDLE,155 Stevens Street,Solana Beach,CA,92075,33,-117,HIGH,3,,,GEN BOND SOLANA BEACH-SFID 2016-1 PROP JJ 11/08/16,HIGH SAN DIEGUITO UNION,,78,39,49
333,EAST COUNTY COMMUNITY CENTER SPRING VALLEY,3845 SPRING DRIVE,SPRING VALLEY,CA,91977,33,-117,HIGH,2,,,GEN ELEM LA MESA-SPRING VALLEY,HIGH GROSSMONT UNION,,71,38,53
335,EAST HILLS ACADEMY,1791 Rock Mountain Road,Chula Vista,CA,91911,33,-117,HIGH,1,4,CV,"GEN BOND CHULA VISTA-SFID 1 2012C,PROP E 11/06/12",HIGH SWEETWATER UNION,,80,40,51
337,EAST VILLAGE HIGH,1405 Park Boulevard,San Diego,CA,92101,33,-117,HIGH,4,3,SD,,,UNIFIED SAN DIEGO,78,39,52
338,EASTLAKE ELEMENTARY,1955 Hillside Drive,Chula Vista,CA,91913,33,-117,HIGH,1,1,CV,GEN ELEM CHULA VISTA,HIGH SWEETWATER UNION,,79,40,53
339,EASTLAKE HIGH,1120 Eastlake Parkway,Chula Vista,CA,91915,33,-117,HIGH,1,1,CV,GEN ELEM CHULA VISTA,HIGH SWEETWATER UNION,,79,40,53
340,EASTLAKE MIDDLE,900 Duncan Ranch Road,Chula Vista,CA,91914,33,-117,HIGH,1,1,CV,GEN ELEM CHULA VISTA,HIGH SWEETWATER UNION,,79,40,53
342,EDISON ELEMENTARY,4077 35th Street,San Diego,CA,92104,33,-117,HIGH,4,9,SD,,,UNIFIED SAN DIEGO,78,40,51
343,EJE ELEMENTARY ACADEMY CHARTER,851 South Johnson Avenue,El Cajon,CA,92020,33,-117,HIGH,2,1,EC,GEN ELEM CAJON VALLEY UNION,HIGH GROSSMONT UNION,,71,38,53
345,EJE MIDDLE ACADEMY,851 South Johnson Avenue,El Cajon,CA,92020,33,-117,HIGH,2,1,EC,GEN ELEM CAJON VALLEY UNION,HIGH GROSSMONT UNION,,71,38,53
346,EL CAJON ADULT CENTER,1075 East Madison Avenue,El Cajon,CA,92021,33,-117,HIGH,2,2,EC,GEN ELEM CAJON VALLEY UNION,HIGH GROSSMONT UNION,,71,38,50
347,EL CAJON PUBLIC LIBRARY,201 E. DOUGLAS AVE.,EL CAJON,CA,92020,33,-117,HIGH,2,4,EC,GEN ELEM CAJON VALLEY UNION,HIGH GROSSMONT UNION,,71,38,53
348,EL CAJON VALLEY HIGH,1035 EAST MADISON AVE.,EL CAJON,CA,92021,33,-117,HIGH,2,2,EC,GEN ELEM CAJON VALLEY UNION,HIGH GROSSMONT UNION,,71,38,50
349,EL CAMINO CREEK ELEMENTARY,7885 Paseo Aliso,Carlsbad,CA,92009,33,-117,HIGH,5,4,CB,GEN ELEM ENCINITAS UNION,HIGH SAN DIEGUITO UNION,,76,36,49
350,EL CAMINO HIGH,400 RANCHO DEL ORO DR.,OCEANSIDE,CA,92057,33,-117,HIGH,5,4,OC,,,UNIFIED OCEANSIDE,76,36,49
351,EL CAPITAN HIGH,10410 ASHWOOD ST.,LAKESIDE,CA,92040,33,-117,HIGH,2,,,GEN ELEM LAKESIDE UNION,HIGH GROSSMONT UNION,,71,38,50
353,EL TOYON ELEMENTARY,2000 East Division Street,National City,CA,91950,33,-117,HIGH,1,,,GEN ELEM NATIONAL,HIGH SWEETWATER UNION,,80,40,51
354,ELEVATE ELEMENTARY,2285 Murray Ridge Road,San Diego,CA,92123,33,-117,HIGH,4,7,SD,,,UNIFIED SAN DIEGO,79,39,53
355,ELITE ACADEMIC ACADEMY - MOUNTAIN EMPIRE,43414 Business Park Drive,Temecula,CA,,34,-117,HIGH,,,,,,,75,,50
356,ELITE ACADEMY,230 Jamacha Boulevard,El Cajon,CA,92019,33,-117,HIGH,2,3,EC,GEN ELEM CAJON VALLEY UNION,HIGH GROSSMONT UNION,,71,38,50
357,EMERALD MIDDLE,1221 South Emerald Avenue,El Cajon,CA,92020,33,-117,HIGH,2,4,EC,GEN ELEM CAJON VALLEY UNION,HIGH GROSSMONT UNION,,71,38,53
358,EMERSON/BANDINI ELEMENTARY,3510 Newton Avenue,San Diego,CA,92113,33,-117,HIGH,1,9,SD,,,UNIFIED SAN DIEGO,80,40,51
359,EMORY ELEMENTARY,1915 CORONADO AVE.,SAN DIEGO,CA,92154,33,-117,HIGH,1,8,SD,GEN ELEM SOUTH BAY UNION,HIGH SWEETWATER UNION,,80,40,51
360,EMPOWER,165 Roanoke Road,El Cajon,CA,92020,33,-117,HIGH,2,2,EC,GEN ELEM CAJON VALLEY UNION,HIGH GROSSMONT UNION,,71,38,53
362,EMPOWER CHARTER,2230 East Jewett Street,San Diego,CA,92111,33,-117,HIGH,4,7,SD,,,UNIFIED SAN DIEGO,79,39,53
363,EMPRESA ELEMENTARY,4850 Avenida Empresa,Oceanside,CA,92056,33,-117,HIGH,5,4,OC,,,UNIFIED VISTA,76,36,49
364,ENCANTO BRANCH,6785 IMPERIAL AVE,SAN DIEGO,CA,92114,33,-117,HIGH,4,4,SD,,,UNIFIED SAN DIEGO,79,40,53
365,ENCANTO ELEMENTARY,822 65th Street,San Diego,CA,92114,33,-117,HIGH,4,4,SD,,,UNIFIED SAN DIEGO,79,40,51
366,ENCANTO REC CENTER,6508 WUNDERLIN AVENUE,SAN DIEGO,CA,92114,33,-117,HIGH,4,4,SD,,,UNIFIED SAN DIEGO,79,40,51
367,ENDEAVOUR ACADEMY,3450 Clairemont Drive,San Diego,CA,92117,33,-117,HIGH,4,2,SD,,,UNIFIED SAN DIEGO,78,39,52
369,EPIPHANY PREP CHARTER,725 North Escondido Boulevard,Escondido,CA,92025,33,-117,HIGH,3,2,ES,GEN ELEM ESCONDIDO UNION,HIGH ESCONDIDO UNION,,75,38,50
370,EPIPHANY PREP CHARTER,6785 Imperial Avenue,San Diego,CA,92114,33,-117,HIGH,4,4,SD,,,UNIFIED SAN DIEGO,79,40,53
371,ERICSON ELEMENTARY,11174 Westonhill Drive,San Diego,CA,92126,33,-117,HIGH,3,6,SD,,,UNIFIED SAN DIEGO,77,39,52
372,ESCONDIDO ADULT,220 West Crest,Escondido,CA,92025,33,-117,HIGH,3,2,ES,GEN ELEM ESCONDIDO UNION,HIGH ESCONDIDO UNION,,75,38,50
373,ESCONDIDO CHARTER HIGH,1868 East Valley Parkway,Escondido,CA,92027,33,-117,HIGH,3,3,ES,GEN ELEM ESCONDIDO UNION,HIGH ESCONDIDO UNION,,75,38,50
375,ESCONDIDO COMMUNITY DAY,2065 East Valley Parkway,Escondido,CA,92027,33,-117,HIGH,3,3,ES,GEN ELEM ESCONDIDO UNION,HIGH ESCONDIDO UNION,,75,38,50
376,ESCONDIDO HIGH,1535 NORTH BROADWAY,ESCONDIDO,CA,92026,33,-117,HIGH,3,2,ES,GEN ELEM ESCONDIDO UNION,HIGH ESCONDIDO UNION,,75,38,50
377,EUCALYPTUS HILLS ELEMENTARY,11838 Valle Vista Road,Lakeside,CA,92040,33,-117,HIGH,2,,,GEN ELEM LAKESIDE UNION,HIGH GROSSMONT UNION,,71,38,50
379,EUCLID ELEMENTARY,4166 Euclid Avenue,San Diego,CA,92105,33,-117,HIGH,4,9,SD,,,UNIFIED SAN DIEGO,80,40,51
380,EVANGELINE ROBERTS INSTITUTE OF LEARNING,6785 Imperial Avenue,San Diego,CA,92114,33,-117,HIGH,4,4,SD,,,UNIFIED SAN DIEGO,79,40,53
383,FALLBROOK HIGH,2400 SOUTH STAGE COACH LN.,FALLBROOK,CA,92028,33,-117,HIGH,5,,,GEN ELEM FALLBROOK UNION,HIGH FALLBROOK UNION,,75,38,50
384,FALLBROOK HOMESCHOOL ACADEMY,300 Heald Ln,Fallbrook,CA,92028,33,-117,HIGH,5,,,GEN ELEM FALLBROOK UNION,HIGH FALLBROOK UNION,,75,38,50
385,FALLBROOK STEM ACADEMY,405 WEST FALLBROOK ST.,FALLBROOK,CA,92028,33,-117,HIGH,5,,,GEN ELEM FALLBROOK UNION,HIGH FALLBROOK UNION,,75,38,50
386,FALLBROOK STREET ELEMENTARY,405 WEST FALLBROOK ST.,FALLBROOK,CA,92028,33,-117,HIGH,5,,,GEN ELEM FALLBROOK UNION,HIGH FALLBROOK UNION,,75,38,50
387,FARB MIDDLE,4880 LA CUENTA DR.,SAN DIEGO,CA,92124,33,-117,HIGH,3,7,SD,,,UNIFIED SAN DIEGO,77,39,52
388,FARR AVENUE ELEMENTARY,933 FARR AVE.,ESCONDIDO,CA,92026,33,-117,HIGH,3,1,ES,GEN ELEM ESCONDIDO UNION,HIGH ESCONDIDO UNION,,75,38,50
389,FAY ELEMENTARY,4080 52ND ST.,SAN DIEGO,CA,92105,33,-117,HIGH,4,9,SD,,,UNIFIED SAN DIEGO,80,40,51
390,FEASTER (MAE L.) CHARTER,670 Flower Street,Chula Vista,CA,91910,33,-117,HIGH,1,2,CV,"GEN BOND CHULA VISTA-SFID 1 2012C,PROP E 11/06/12",HIGH SWEETWATER UNION,,80,40,51
391,FELICITA ELEMENTARY,737 WEST 13TH AVE.,ESCONDIDO,CA,92025,33,-117,HIGH,3,4,ES,GEN ELEM ESCONDIDO UNION,HIGH ESCONDIDO UNION,,75,38,50
393,FIELD ELEMENTARY,4375 BANNOCK AVE.,SAN DIEGO,CA,92117,33,-117,HIGH,4,6,SD,,,UNIFIED SAN DIEGO,77,39,52
394,FINNEY (MYRTLE S.) ELEMENTARY,3950 Byrd Street,San Diego,CA,92154,33,-117,HIGH,1,8,SD,"GEN BOND CHULA VISTA-SFID 1 2012C,PROP E 11/06/12",HIGH SWEETWATER UNION,,80,40,51
395,FIRESIDE PARK,FIRESIDE DRIVE & PARKSIDE STREET,OCEANSIDE,CA,92058,33,-117,HIGH,5,2,OC,,,UNIFIED OCEANSIDE,76,36,49
397,FIRST BAPTIST CHURCH OF LEMON GROVE,2910 MAIN STREET,LEMON GROVE,CA,91945,33,-117,HIGH,2,,,GEN ELEM LEMON GROVE,HIGH GROSSMONT UNION,,79,38,53
400,FLETCHER ELEMENTARY,7666 Bobolink Way,San Diego,CA,92123,33,-117,HIGH,4,7,SD,,,UNIFIED SAN DIEGO,79,39,53
401,FLETCHER HILLS ELEMENTARY,2330 Center Place,El Cajon,CA,92020,33,-117,HIGH,2,1,EC,GEN ELEM LA MESA-SPRING VALLEY,HIGH GROSSMONT UNION,,71,38,53
402,FLORA VISTA ELEMENTARY,1690 Wandering Road,Encinitas,CA,92024,33,-117,HIGH,3,4,EN,GEN ELEM ENCINITAS UNION,HIGH SAN DIEGUITO UNION,,76,36,49
403,FLORENCE ELEMENTARY,3914 FIRST AVE.,SAN DIEGO,CA,92103,33,-117,HIGH,4,3,SD,,,UNIFIED SAN DIEGO,78,39,53
404,FLYING HILLS ELEMENTARY,1251 FINCH ST.,EL CAJON,CA,92020,33,-117,HIGH,2,1,EC,GEN ELEM CAJON VALLEY UNION,HIGH GROSSMONT UNION,,71,38,53
405,FOOTHILL OAK ELEMENTARY,1370 OAK DR.,VISTA,CA,92084,33,-117,HIGH,5,2,VS,,,UNIFIED VISTA,76,36,49
406,FOOTHILLS ADULT EDUCATION CENTER,1550 Melody Lane,El Cajon,CA,92019,33,-117,HIGH,2,3,EC,GEN ELEM CAJON VALLEY UNION,HIGH GROSSMONT UNION,,71,38,50
407,FOOTHILLS HIGH,158 Cassou Road,San Marcos,CA,92069,33,-117,HIGH,5,4,SM,,,"UNIF BOND SAN MARCOS SFID #1-6/04/96, 2004-1 REF",75,38,50
408,FOSTER ELEMENTARY,6550 51ST ST.,SAN DIEGO,CA,92120,33,-117,HIGH,2,7,SD,,,UNIFIED SAN DIEGO,79,39,53
409,FRANKLIN ELEMENTARY,4481 COPELAND AVE.,SAN DIEGO,CA,92116,33,-117,HIGH,4,9,SD,,,UNIFIED SAN DIEGO,78,39,53
410,FREESE ELEMENTARY,8140 GREENLAWN DR.,SAN DIEGO,CA,92114,33,-117,HIGH,4,4,SD,,,UNIFIED SAN DIEGO,79,40,53
411,FUERTE ELEMENTARY,11625 Fuerte Drive,El Cajon,CA,92020,33,-117,HIGH,2,,,GEN ELEM CAJON VALLEY UNION,HIGH GROSSMONT UNION,,71,38,50
412,FULTON K-8,7055 SKYLINE DR.,SAN DIEGO,CA,92114,33,-117,HIGH,4,4,SD,,,UNIFIED SAN DIEGO,79,40,53
413,FUTURE BOUND INDEPENDENT STUDY SECONDARY,720 Ninth Street,Ramona,CA,92065,33,-117,HIGH,2,,,,,UNIFIED RAMONA,71,38,50
414,GAGE ELEMENTARY,6811 Bisby Lake Drive,San Diego,CA,92119,33,-117,HIGH,2,7,SD,,,UNIFIED SAN DIEGO,77,39,52
415,GARDEN ROAD ELEMENTARY,14614 Garden Road,Poway,CA,92064,33,-117,HIGH,2,4,PW,,,"UNIF BOND POWAY-SFID 2002-1,PROP U, 2014 REF",77,38,52
417,GARFIELD ELEMENTARY,4487 OREGON ST.,SAN DIEGO,CA,92116,33,-117,HIGH,4,3,SD,,,UNIFIED SAN DIEGO,78,39,53
418,GARFIELD HIGH,1255 16th Street,San Diego,CA,92101,33,-117,HIGH,4,3,SD,,,UNIFIED SAN DIEGO,78,39,52
419,GATEWAY CYP,2741 MENDONCA DRIVE,SAN DIEGO,CA,92110,33,-117,HIGH,4,2,SD,,,UNIFIED SAN DIEGO,78,39,52
420,GEORGE NICOLOFF ELEMENTARY,1777 HOWARD AVE.,SAN YSIDRO,CA,92173,33,-117,HIGH,1,8,SD,GEN ELEM SOUTH BAY UNION,HIGH SWEETWATER UNION,,80,40,51
422,GLEN VIEW ELEMENTARY,2201 East Mission Avenue,Escondido,CA,92027,33,-117,HIGH,3,1,ES,GEN ELEM ESCONDIDO UNION,HIGH ESCONDIDO UNION,,75,38,50
424,GODFREY G. BERRY ELEMENTARY,2001 RIMBEY ST.,SAN DIEGO,CA,92154,33,-117,HIGH,1,8,SD,GEN ELEM SOUTH BAY UNION,HIGH SWEETWATER UNION,,80,40,51
425,GOLDEN HILL K-8,1240 33RD ST.,SAN DIEGO,CA,92102,33,-117,HIGH,4,3,SD,,,UNIFIED SAN DIEGO,80,39,53
426,GOLDEN HILL RECREATION CENTER,2600 GOLF COURSE DRIVE,SAN DIEGO,CA,92102,33,-117,HIGH,4,3,SD,,,UNIFIED SAN DIEGO,78,39,53
427,GOMPERS PREPARATORY ACADEMY,1005 47th Street,San Diego,CA,92102,33,-117,HIGH,1,4,SD,,,UNIFIED SAN DIEGO,80,40,51
429,GRACIA Y PAZ,960 5TH AVENUE,CHULA VISTA,CA,91911,33,-117,HIGH,1,4,CV,"GEN BOND CHULA VISTA-SFID 1 2012C,PROP E 11/06/12",HIGH SWEETWATER UNION,,80,40,51
430,GRANGER JUNIOR HIGH,2101 GRANGER AVE.,NATIONAL CITY,CA,91950,33,-117,HIGH,1,,,GEN ELEM NATIONAL,HIGH SWEETWATER UNION,,79,40,51
431,GRANITE HILLS HIGH,1719 EAST MADISON AVE.,EL CAJON,CA,92019,33,-117,HIGH,2,3,EC,GEN ELEM CAJON VALLEY UNION,HIGH GROSSMONT UNION,,71,38,50
432,GRANT K-8,1425 Washington Place,San Diego,CA,92103,33,-117,HIGH,4,3,SD,,,UNIFIED SAN DIEGO,78,39,53
433,GRAPEVINE ELEMENTARY,630 GRAPEVINE RD.,VISTA,CA,92083,33,-117,HIGH,5,3,VS,,,UNIFIED VISTA,76,36,49
435,GREATER SAN DIEGO ACADEMY,14567 Lyons Valley Road,Jamul,CA,91935,33,-117,HIGH,2,,,GEN ELEM JAMUL-DULZURA UNION,HIGH GROSSMONT UNION,,71,40,50
436,GREEN ELEMENTARY,7030 Wandermere Place,San Diego,CA,92119,33,-117,HIGH,2,7,SD,,,UNIFIED SAN DIEGO,79,39,53
437,GREENFIELD MIDDLE,1495 GREENFIELD DR.,EL CAJON,CA,92021,33,-117,HIGH,2,3,EC,GEN ELEM CAJON VALLEY UNION,HIGH GROSSMONT UNION,,71,38,50
439,GROSSMONT ADULT,1550 Melody Lane,El Cajon,CA,92019,33,-117,HIGH,2,3,EC,GEN ELEM CAJON VALLEY UNION,HIGH GROSSMONT UNION,,71,38,50
440,GROSSMONT HIGH,1100 MURRAY DR.,LA MESA,CA,91942,33,-117,HIGH,2,,,GEN ELEM LA MESA-SPRING VALLEY,HIGH GROSSMONT UNION,,79,38,53
441,GROSSMONT MIDDLE COLLEGE HIGH,8800 Grossmont College Drive,El Cajon,CA,92020,33,-117,HIGH,2,1,EC,GEN ELEM SANTEE,HIGH GROSSMONT UNION,,71,38,53
442,GROSSMONT SECONDARY,111 Fletcher Parkway,El Cajon,CA,92020,33,-117,HIGH,2,1,EC,GEN ELEM CAJON VALLEY UNION,HIGH GROSSMONT UNION,,71,38,53
443,GROSSMONT UNION HIGH SPECIAL EDUCATION PROGRAM,1100 Murray Drive,La Mesa,CA,92020,33,-117,HIGH,2,1,EC,GEN ELEM LA MESA-SPRING VALLEY,HIGH GROSSMONT UNION,,71,38,53
444,GROVE PARK,745 N. ASH ST,ESCONDIDO,CA,92026,33,-117,HIGH,3,1,ES,GEN ELEM ESCONDIDO UNION,HIGH ESCONDIDO UNION,,75,38,50
445,GUAJOME LEARNING CENTER,2000 North Santa Fe Avenue,Vista,CA,92083,33,-117,HIGH,5,1,VS,,,UNIFIED VISTA,76,36,49
446,GUAJOME PARK ACADEMY CHARTER,2000 North Santa Fe Avenue,Vista,CA,92084,33,-117,HIGH,5,1,VS,,,UNIFIED VISTA,76,36,49
447,HAGE ELEMENTARY,9750 Galvin Avenue,San Diego,CA,92126,33,-117,HIGH,3,6,SD,,,UNIFIED SAN DIEGO,77,39,52
448,HALECREST ELEMENTARY,475 East J Street,Chula Vista,CA,91910,33,-117,HIGH,1,2,CV,"GEN BOND CHULA VISTA-SFID 1 2012C,PROP E 11/06/12",HIGH SWEETWATER UNION,,80,40,53
449,HALECREST YMCA,475 E. J STREET,CHULA VISTA,CA,91910,33,-117,HIGH,1,2,CV,"GEN BOND CHULA VISTA-SFID 1 2012C,PROP E 11/06/12",HIGH SWEETWATER UNION,,80,40,53
450,HAMILTON ELEMENTARY,2807 Fairmount Avenue,San Diego,CA,92105,33,-117,HIGH,4,9,SD,,,UNIFIED SAN DIEGO,80,40,51
451,HANCOCK ELEMENTARY,3303 TAUSSIG ST.,SAN DIEGO,CA,92124,33,-117,HIGH,3,7,SD,,,UNIFIED SAN DIEGO,79,39,52
452,HANNALEI ELEMENTARY,120 HANNALEI DR.,VISTA,CA,92083,33,-117,HIGH,5,,,,,UNIFIED VISTA,75,36,49
453,HANSON ELEMENTARY,2520 Boundary Avenue,Ramona,CA,92065,33,-117,HIGH,2,,,,,UNIFIED RAMONA,71,38,50
454,HARBOR SPRINGS CHARTER,1704 Cape Horn,Julian,CA,92036,33,-117,HIGH,2,,,GEN ELEM JULIAN UNION,HIGH JULIAN UNION,,71,38,50
455,HARBORSIDE ELEMENTARY,681 Naples Street,Chula Vista,CA,91911,33,-117,HIGH,1,4,CV,"GEN BOND CHULA VISTA-SFID 1 2012C,PROP E 11/06/12",HIGH SWEETWATER UNION,,80,40,51
456,HARDY ELEMENTARY,5420 Montezuma Road,San Diego,CA,92115,33,-117,HIGH,2,9,SD,,,UNIFIED SAN DIEGO,78,39,53
457,HARRIET TUBMAN VILLAGE CHARTER,6880 Mohawk Street,San Diego,CA,92115,33,-117,HIGH,2,9,SD,,,UNIFIED SAN DIEGO,79,39,53
458,HAWKING S.T.E.A.M. CHARTER,1355 Second Avenue,Chula Vista,CA,91911,33,-117,HIGH,1,4,CV,"GEN BOND CHULA VISTA-SFID 1 2012C,PROP E 11/06/12",HIGH SWEETWATER UNION,,80,40,51
459,HAWKING S.T.E.A.M. CHARTER SCHOOL 2,1411 27th Street,San Diego,CA,92154,33,-117,HIGH,1,8,SD,GEN ELEM SOUTH BAY UNION,HIGH SWEETWATER UNION,,80,40,51
461,HAWTHORNE ELEMENTARY,4750 Lehrer Drive,San Diego,CA,92117,33,-117,HIGH,4,6,SD,,,UNIFIED SAN DIEGO,77,39,52
462,HEALTH SCIENCES HIGH,"3910 University Avenue, Suite 100",San Diego,CA,92105,33,-117,HIGH,4,9,SD,,,UNIFIED SAN DIEGO,80,40,51
463,HEALTH SCIENCES MIDDLE,"3910 University Avenue, Suite 100",San Diego,CA,92105,33,-117,HIGH,4,9,SD,,,UNIFIED SAN DIEGO,80,40,51
464,HEARST ELEMENTARY,6230 Del Cerro Boulevard,San Diego,CA,92120,33,-117,HIGH,2,7,SD,,,UNIFIED SAN DIEGO,79,39,53
465,HEDENKAMP (ANNE AND WILLIAM) ELEMENTARY,930 East Palomar,Chula Vista,CA,91913,33,-117,HIGH,1,3,CV,GEN ELEM CHULA VISTA,HIGH SWEETWATER UNION,,79,40,53
466,HELIX HIGH,7323 UNIVERSITY AVE.,LA MESA,CA,91941,33,-117,HIGH,2,,,GEN ELEM LA MESA-SPRING VALLEY,HIGH GROSSMONT UNION,,79,38,53
467,HENRY HIGH,6702 Wandermere Drive,San Diego,CA,92120,33,-117,HIGH,2,7,SD,,,UNIFIED SAN DIEGO,79,39,53
468,HERITAGE DIGITAL ACADEMY CHARTER MIDDLE,2255 East Valley Parkway,Escondido,CA,92027,33,-117,HIGH,3,3,ES,GEN ELEM ESCONDIDO UNION,HIGH ESCONDIDO UNION,,75,38,50
469,HERITAGE ELEMENTARY,1450 Santa Lucia Road,Chula Vista,CA,91913,33,-117,HIGH,1,3,CV,GEN ELEM CHULA VISTA,HIGH SWEETWATER UNION,,79,40,53
470,HERITAGE K-8 CHARTER,1855 East Valley Parkway,Escondido,CA,92027,33,-117,HIGH,3,3,ES,GEN ELEM ESCONDIDO UNION,HIGH ESCONDIDO UNION,,75,38,50
471,HICKMAN ELEMENTARY,10850 Montongo Street,San Diego,CA,92126,33,-117,HIGH,3,6,SD,,,UNIFIED SAN DIEGO,77,39,52
472,HIDDEN VALLEY MIDDLE,2700 Reed Road,Escondido,CA,92027,33,-117,HIGH,3,3,ES,GEN ELEM ESCONDIDO UNION,HIGH ESCONDIDO UNION,,75,38,50
473,HIGH TECH ELEMENTARY,2150 Cushing Road,San Diego,CA,92106,33,-117,HIGH,4,2,SD,,,UNIFIED SAN DIEGO,78,39,52
474,HIGH TECH ELEMENTARY CHULA VISTA,1949 Discovery Falls Drive,Chula Vista,CA,91915,33,-117,HIGH,1,3,CV,GEN ELEM CHULA VISTA,HIGH SWEETWATER UNION,,79,40,53
475,HIGH TECH ELEMENTARY EXPLORER,2230 Truxtun Road 1st Floor,San Diego,CA,92106,33,-117,HIGH,4,2,SD,,,UNIFIED SAN DIEGO,78,39,52
476,HIGH TECH ELEMENTARY MESA,5331 Mount Alifan Drive Building 200,San Diego,CA,92111,33,-117,HIGH,4,6,SD,,,UNIFIED SAN DIEGO,77,39,52
477,HIGH TECH ELEMENTARY NORTH COUNTY,1480 West San Marcos Boulevard,San Marcos,CA,92078,33,-117,HIGH,5,3,SM,,,"UNIF BOND SAN MARCOS SFID #1-6/04/96, 2004-1 REF",75,38,50
478,HIGH TECH HIGH,2861 Womble Road,San Diego,CA,92106,33,-117,HIGH,4,2,SD,,,UNIFIED SAN DIEGO,78,39,52
480,HIGH TECH HIGH CHULA VISTA,1945 Discovery Falls Drive,Chula Vista,CA,91915,33,-117,HIGH,1,3,CV,GEN ELEM CHULA VISTA,HIGH SWEETWATER UNION,,79,40,53
482,HIGH TECH HIGH INTERNATIONAL,2855 Farragut Road,San Diego,CA,92106,33,-117,HIGH,4,2,SD,,,UNIFIED SAN DIEGO,78,39,52
483,HIGH TECH HIGH MEDIA ARTS,2230 Truxtun Road Third Floor,San Diego,CA,92106,33,-117,HIGH,4,2,SD,,,UNIFIED SAN DIEGO,78,39,52
484,HIGH TECH HIGH MESA,5331 Mount Alifan,San Diego,CA,92111,33,-117,HIGH,4,6,SD,,,UNIFIED SAN DIEGO,77,39,52
485,HIGH TECH HIGH NORTH COUNTY,1420 San Marcos Boulevard,San Marcos,CA,92078,33,-117,HIGH,5,3,SM,,,"UNIF BOND SAN MARCOS SFID #1-6/04/96, 2004-1 REF",75,38,50
488,HIGH TECH MIDDLE,2359 Truxtun Road,San Diego,CA,92106,33,-117,HIGH,4,2,SD,,,UNIFIED SAN DIEGO,78,39,52
489,HIGH TECH MIDDLE CHULA VISTA,1949 Discovery Falls Drive,Chula Vista,CA,91915,33,-117,HIGH,1,3,CV,GEN ELEM CHULA VISTA,HIGH SWEETWATER UNION,,79,40,53
490,HIGH TECH MIDDLE MEDIA ARTS,"2230 Truxtun Road, 2nd Floor",San Diego,CA,92106,33,-117,HIGH,4,2,SD,,,UNIFIED SAN DIEGO,78,39,52
491,HIGH TECH MIDDLE MESA,5331 Mount Alifan Drive Building 400,San Diego,CA,92111,33,-117,HIGH,4,6,SD,,,UNIFIED SAN DIEGO,77,39,52
492,HIGH TECH MIDDLE NORTH COUNTY,1460 West San Marcos Boulevard,San Marcos,CA,92078,33,-117,HIGH,5,3,SM,,,"UNIF BOND SAN MARCOS SFID #1-6/04/96, 2004-1 REF",75,38,50
493,HIGHLAND RANCH ELEMENTARY,14840 Waverley Downs Way,San Diego,CA,92128,33,-117,HIGH,3,5,SD,,,UNIFIED POWAY,77,38,52
494,HIGHLANDS ELEMENTARY,3131 SOUTH BARCELONA ST.,SPRING VALLEY,CA,91977,33,-117,HIGH,2,,,GEN ELEM LA MESA-SPRING VALLEY,HIGH GROSSMONT UNION,,71,38,53
495,HILL CREEK ELEMENTARY,9665 Jeremy Street,Santee,CA,92071,33,-117,HIGH,2,2,ST,GEN ELEM SANTEE,HIGH GROSSMONT UNION,,71,38,50
496,HILLSDALE MIDDLE,1301 Brabham Street,El Cajon,CA,92019,33,-117,HIGH,2,,,GEN ELEM CAJON VALLEY UNION,HIGH GROSSMONT UNION,,71,38,50
497,HILLSIDE JUNIOR/SENIOR HIGH,3305 Buckman Springs Road,Pine Valley,CA,91962,33,-116,HIGH,2,,,,,UNIFIED MT EMPIRE,71,40,51
498,HILLTOP DRIVE ELEMENTARY,30 MURRAY ST.,CHULA VISTA,CA,91910,33,-117,HIGH,1,2,CV,"GEN BOND CHULA VISTA-SFID 1 2012C,PROP E 11/06/12",HIGH SWEETWATER UNION,,80,40,51
499,HILLTOP MIDDLE,44 EAST J ST.,CHULA VISTA,CA,91910,33,-117,HIGH,1,2,CV,"GEN BOND CHULA VISTA-SFID 1 2012C,PROP E 11/06/12",HIGH SWEETWATER UNION,,80,40,51
500,HILLTOP SENIOR HIGH,555 CLAIRE AVE.,CHULA VISTA,CA,91910,33,-117,HIGH,1,2,CV,"GEN BOND CHULA VISTA-SFID 1 2012C,PROP E 11/06/12",HIGH SWEETWATER UNION,,80,40,51
501,HILTON HEAD COUNTY PARK,16005 HILTON HEAD RD,EL CAJON,CA,92019,33,-117,HIGH,2,,,GEN ELEM CAJON VALLEY UNION,HIGH GROSSMONT UNION,,71,38,50
502,HOLLY DRIVE LEADERSHIP ACADEMY,4801 Elm Street,San Diego,CA,92102,33,-117,HIGH,4,4,SD,,,UNIFIED SAN DIEGO,80,40,51
503,HOLLYWOOD PALMS APARTMENTS,4372 HOME AVENUE,SAN DIEGO,CA,92105,33,-117,HIGH,4,9,SD,,,UNIFIED SAN DIEGO,80,40,51
504,HOLMES ELEMENTARY,4902 Mount Ararat Drive,San Diego,CA,92111,33,-117,HIGH,4,6,SD,,,UNIFIED SAN DIEGO,77,39,52
506,HOME & HOSP/TRANSITION SUPPORT,"4100 Normal Street, Annex 14",San Diego,CA,92101,33,-117,HIGH,4,3,SD,,,UNIFIED SAN DIEGO,78,39,52
507,HOOVER HIGH,4474 EL CAJON BLVD.,SAN DIEGO,CA,92115,33,-117,HIGH,4,9,SD,,,UNIFIED SAN DIEGO,78,39,53
508,HOPE ELEMENTARY,3010 Tamarack Avenue,Carlsbad,CA,92010,33,-117,HIGH,5,2,CB,,,UNIFIED CARLSBAD,76,36,49
509,HOPE INFANT-TODDLER SPECIAL EDUCATION,6401 Linda Vista Road,San Diego,CA,92111,33,-117,HIGH,4,7,SD,,,UNIFIED SAN DIEGO,79,39,53
510,HORTON ELEMENTARY,5050 Guymon Street,San Diego,CA,92102,33,-117,HIGH,1,4,SD,,,UNIFIED SAN DIEGO,80,40,51
512,HOWARD GARDNER COMMUNITY CHARTER,647 E Street,Chula Vista,CA,91910,33,-117,HIGH,1,2,CV,"GEN BOND CHULA VISTA-SFID 1 2012C,PROP E 11/06/12",HIGH SWEETWATER UNION,,80,40,51
513,HOWARD PENCE ELEMENTARY,877 VIA TONGA CT.,SAN DIEGO,CA,92154,33,-117,HIGH,1,8,SD,GEN ELEM SOUTH BAY UNION,HIGH SWEETWATER UNION,,80,40,51
514,HUDO COMMUNITY CENTER,4175 BONILLO DRIVE,SAN DIEGO,CA,92115,33,-117,HIGH,4,4,SD,,,UNIFIED SAN DIEGO,79,39,53
515,IBARRA ELEMENTARY,4877 Orange Avenue,San Diego,CA,92105,33,-117,HIGH,4,9,SD,,,UNIFIED SAN DIEGO,80,40,51
516,IDEA CENTER,1600 North Cuyamaca Street,El Cajon,CA,92020,33,-117,HIGH,2,1,EC,GEN ELEM CAJON VALLEY UNION,HIGH GROSSMONT UNION,,71,38,53
517,IFTIN CHARTER,5465 El Cajon Boulevard,San Diego,CA,92115,33,-117,HIGH,4,9,SD,,,UNIFIED SAN DIEGO,79,39,53
518,IFTIN UNIVERSITY PREP HIGH,730 45th Street,San Diego,CA,92102,33,-117,HIGH,1,4,SD,,,UNIFIED SAN DIEGO,80,40,51
519,IGLESIA LATINA EMANUEL,152 E. 5TH AVE,ESCONDIDO,CA,92025,33,-117,HIGH,3,3,ES,GEN ELEM ESCONDIDO UNION,HIGH ESCONDIDO UNION,,75,38,50
520,IHIGH VIRTUAL ACADEMY,3939 Conde Street,San Diego,CA,92110,33,-117,HIGH,4,3,SD,,,UNIFIED SAN DIEGO,78,39,53
521,IIPAY NATION OF SANTA YSABEL,100 SCHOOLHOUSE CANYON ROAD PO BOX 130,SANTA YSABEL,CA,92070,33,-117,HIGH,2,,,,,UNIFIED WARNER,71,38,50
522,IMPERIAL BEACH,847 ENCINA AVE.,IMPERIAL BEACH,CA,91932,33,-117,HIGH,1,,,GEN ELEM SOUTH BAY UNION,HIGH SWEETWATER UNION,,78,40,51
523,IMPERIAL BEACH CHARTER,650 IMPERIAL BEACH BLVD.,IMPERIAL BEACH,CA,91932,33,-117,HIGH,1,,,GEN ELEM SOUTH BAY UNION,HIGH SWEETWATER UNION,,78,40,51
525,INGENUITY CHARTER,6130 Skyline Drive,San Diego,CA,92114,33,-117,HIGH,4,4,SD,,,UNIFIED SAN DIEGO,79,40,51
526,INNOVATION MIDDLE,5095 Arvinels Avenue,San Diego,CA,92117,33,-117,HIGH,4,6,SD,,,UNIFIED SAN DIEGO,77,39,52
527,INNOVATIONS ACADEMY,10380 Spring Canyon Road,San Diego,CA,92131,33,-117,HIGH,3,5,SD,,,UNIFIED SAN DIEGO,77,38,52
528,INSIGHT @ SAN DIEGO,50 Moreland Road,Simi Valley,CA,,34,-119,HIGH,,,,,,,,,
529,INSPIRE CHARTER SCHOOL - SOUTH,4612 Dehesa Road,El Cajon,CA,92019,33,-117,HIGH,2,,,GEN ELEM DEHESA,HIGH GROSSMONT UNION,,71,38,50
530,INTEGRITY CHARTER,701 National City Boulevard,National City,CA,91950,33,-117,HIGH,1,,,GEN ELEM NATIONAL,HIGH SWEETWATER UNION,,80,40,51
532,"INTERNATIONAL HIGH SCHOOL OF SCIENCE, TECHNOLOGY, ENGINEERING, ARTS AND MATHEMATICS",1867 Pentecost Way,San Diego,CA,92105,33,-117,HIGH,4,4,SD,,,UNIFIED SAN DIEGO,79,39,51
534,IQRA LEARNING CENTER,5702 EL CAJON BLVD.,SAN DIEGO,CA,92115,33,-117,HIGH,2,9,SD,,,UNIFIED SAN DIEGO,79,39,53
535,IRA HARBISON,3235 East Eighth Street,National City,CA,91950,33,-117,HIGH,1,,,GEN ELEM NATIONAL,HIGH SWEETWATER UNION,,79,40,51
536,IVEY RANCH ELEMENTARY,4275 Via Rancho Road,Oceanside,CA,92057,33,-117,HIGH,5,4,OC,,,UNIFIED OCEANSIDE,76,36,49
537,IVY HIGH (CONTINUATION),1056 WINTERHAVEN RD.,FALLBROOK,CA,92028,33,-117,HIGH,5,,,GEN ELEM FALLBROOK UNION,HIGH FALLBROOK UNION,,75,38,50
539,JACKIE ROBINSON YMCA,151 YMCA WAY,SAN DIEGO,CA,92102,33,-117,HIGH,1,4,SD,,,UNIFIED SAN DIEGO,80,40,51
540,JACUMBA BRANCH LIBRARY,44605 OLD HIGHWAY 80,JACUMBA,CA,91934,33,-116,HIGH,2,,,,,UNIFIED MT EMPIRE,71,40,51
542,JAMACHA ELEMENTARY,2962 Jamul Drive,El Cajon,CA,92019,33,-117,HIGH,2,,,GEN ELEM CAJON VALLEY UNION,HIGH GROSSMONT UNION,,71,40,50
543,JAMES DUKES ELEMENTARY,24908 Abalar Way,Ramona,CA,92065,33,-117,HIGH,2,,,,,UNIFIED RAMONA,71,38,50
544,JAMES E. POTTER INTERMEDIATE,1743 Reche Road,Fallbrook,CA,92028,33,-117,HIGH,5,,,GEN ELEM FALLBROOK UNION,HIGH FALLBROOK UNION,,75,38,50
545,JAMUL INTERMEDIATE,14545 Lyons Valley Road,Jamul,CA,91935,33,-117,HIGH,2,,,GEN ELEM JAMUL-DULZURA UNION,HIGH GROSSMONT UNION,,71,40,50
546,JAMUL PRIMARY,14567 Lyons Valley Road,Jamul,CA,91935,33,-117,HIGH,2,,,GEN ELEM JAMUL-DULZURA UNION,HIGH GROSSMONT UNION,,71,40,50
547,JCS - CEDAR COVE,777 Santa Fe,Encinitas,CA,92007,33,-117,HIGH,3,3,EN,GEN ELEM CARDIFF,HIGH SAN DIEGUITO UNION,,76,36,49
548,JCS - MANZANITA,5300 Jackson Drive,La Mesa,CA,91942,33,-117,HIGH,2,,,GEN ELEM LA MESA-SPRING VALLEY,HIGH GROSSMONT UNION,,79,38,53
549,JCS - MOUNTAIN OAKS,539 Encinitas Boulevard,Encinitas,CA,92024,33,-117,HIGH,3,2,EN,GEN ELEM ENCINITAS UNION,HIGH SAN DIEGUITO UNION,,76,36,49
550,JCS - PINE VALLEY,28876 Old Highway 80,Pine Valley,CA,91962,33,-117,HIGH,2,,,,,UNIFIED MT EMPIRE,71,38,50
551,JEFFERSON ELEMENTARY,3743 JEFFERSON ST.,CARLSBAD,CA,92008,33,-117,HIGH,5,1,CB,,,UNIFIED CARLSBAD,76,36,49
552,JEFFERSON ELEMENTARY,3770 Utah Street,San Diego,CA,92104,33,-117,HIGH,4,3,SD,,,UNIFIED SAN DIEGO,78,39,53
553,JEFFERSON MIDDLE,823 Acacia Street,Oceanside,CA,92058,33,-117,HIGH,5,1,OC,,,UNIFIED OCEANSIDE,76,36,49
554,JERABEK ELEMENTARY,10050 Avenida Magnifica,San Diego,CA,92131,33,-117,HIGH,3,5,SD,,,UNIFIED SAN DIEGO,77,38,52
555,JF KENNEDY PARK,1675 E. MADISON AVE.,EL CAJON,CA,92019,33,-117,HIGH,2,3,EC,GEN ELEM CAJON VALLEY UNION,HIGH GROSSMONT UNION,,71,38,50
556,JOAN MACQUEEN MIDDLE,2001 Tavern Road,Alpine,CA,91901,33,-117,HIGH,2,,,GEN ELEM ALPINE UNION,HIGH GROSSMONT UNION,,71,38,50
557,JOHN A. OTIS ELEMENTARY,621 East 18th Street,National City,CA,91950,33,-117,HIGH,1,,,GEN ELEM NATIONAL,HIGH SWEETWATER UNION,,80,40,51
559,JOHN MUIR LANGUAGE ACADEMY,4431 Mount Herbert Avenue,San Diego,CA,92117,33,-117,HIGH,4,6,SD,,,UNIFIED SAN DIEGO,77,39,52
560,JOHNSON ELEMENTARY,500 WEST MADISON,EL CAJON,CA,92020,33,-117,HIGH,2,1,EC,GEN ELEM CAJON VALLEY UNION,HIGH GROSSMONT UNION,,71,38,53
561,JOHNSON ELEMENTARY,1355 KELTON RD.,SAN DIEGO,CA,92114,33,-117,HIGH,4,4,SD,,,UNIFIED SAN DIEGO,79,39,51
562,JOLI ANN LEICHTAG ELEMENTARY,653 POINSETTIA AVE.,VISTA,CA,92081,33,-117,HIGH,5,,,,,"UNIF BOND SAN MARCOS SFID #1-6/04/96, 2004-1 REF",76,36,49
563,JONAS SALK ELEMENTARY,7825 Flanders Drive,San Diego,CA,92126,33,-117,HIGH,3,6,SD,,,UNIFIED SAN DIEGO,77,39,52
564,JONES ELEMENTARY,2751 Greyling Drive,San Diego,CA,92123,33,-117,HIGH,4,7,SD,,,UNIFIED SAN DIEGO,79,39,53
565,JOYNER ELEMENTARY,4271 MYRTLE AVE.,SAN DIEGO,CA,92105,33,-117,HIGH,4,9,SD,,,UNIFIED SAN DIEGO,80,40,51
566,JUAN BAUTISTA DE ANZA,"2101 South Marina Drive, Suite 4",Salton City,CA,,33,-116,HIGH,,,,,,,,40,51
567,JUAN BAUTISTA DE ANZA CHARTER,"583 Palm Canyon, Suite A",Borrego Springs,CA,92004,33,-116,HIGH,5,,,,,UNIFIED BORREGO SPRINGS,71,38,50
568,JUAREZ ELEMENTARY,2633 MELBOURNE DR.,SAN DIEGO,CA,92123,33,-117,HIGH,4,7,SD,,,UNIFIED SAN DIEGO,79,39,53
570,JUAREZ-LINCOLN ELEMENTARY,849 Twining Avenue,San Diego,CA,92154,33,-117,HIGH,1,8,SD,"GEN BOND CHULA VISTA-SFID 1 2012C,PROP E 11/06/12",HIGH SWEETWATER UNION,,80,40,51
571,JULIAN ADULT,1656 Highway 78,Julian,CA,92036,33,-117,HIGH,2,,,GEN ELEM JULIAN UNION,HIGH JULIAN UNION,,71,38,50
572,JULIAN BRANCH LIBRARY,1850 HIGHWAY 78,JULIAN,CA,92036,33,-117,HIGH,2,,,GEN ELEM JULIAN UNION,HIGH JULIAN UNION,,71,38,50
573,JULIAN CHARTER,1704 Cape Horn,Julian,CA,92036,33,-117,HIGH,2,,,GEN ELEM JULIAN UNION,HIGH JULIAN UNION,,71,38,50
574,JULIAN ELEMENTARY,1704 Cape Horn,Julian,CA,92036,33,-117,HIGH,2,,,GEN ELEM JULIAN UNION,HIGH JULIAN UNION,,71,38,50
575,JULIAN HIGH,1656 Highway 78,Julian,CA,92036,33,-117,HIGH,2,,,GEN ELEM JULIAN UNION,HIGH JULIAN UNION,,71,38,50
576,JULIAN JUNIOR HIGH,1704 Cape Horn,Julian,CA,92036,33,-117,HIGH,2,,,GEN ELEM JULIAN UNION,HIGH JULIAN UNION,,71,38,50
577,JUNIPER ELEMENTARY,1809 SOUTH JUNIPER ST.,ESCONDIDO,CA,92025,33,-117,HIGH,3,4,ES,GEN ELEM ESCONDIDO UNION,HIGH ESCONDIDO UNION,,75,38,50
579,(JCCS) JUVENILE COURT AND COMMUNITY SCHOOL,115 WOODWARD AVE,ESCONDIDO,CA,92025,33,-117,HIGH,3,2,ES,GEN ELEM ESCONDIDO UNION,HIGH ESCONDIDO UNION,,75,38,50
581,KARATE FITNESS NOW,751 SHADOWRIDGE DR.,VISTA,CA,92083,33,-117,HIGH,5,4,VS,,,"UNIF BOND SAN MARCOS SFID #1-6/04/96, 2004-1 REF",76,36,49
582,KAREN ORGANIZATION OF SAN DIEGO,5354 UNIVERSITY AVE #1,SAN DIEGO,CA,92105,33,-117,HIGH,4,9,SD,,,UNIFIED SAN DIEGO,80,40,51
583,KAVOD CHARTER,6991 Balboa Avenue,San Diego,CA,92111,33,-117,HIGH,4,6,SD,,,UNIFIED SAN DIEGO,77,39,52
585,KEARNY COLLEGE CONNECTIONS,1954 Komet Way,San Diego,CA,92111,33,-117,HIGH,4,7,SD,,,UNIFIED SAN DIEGO,79,39,53
586,KEARNY DIGITAL MEDIA & DESIGN,1954 Komet Way,San Diego,CA,92111,33,-117,HIGH,4,7,SD,,,UNIFIED SAN DIEGO,79,39,53
587,KEARNY ENG INNOV & DESIGN,1954 Komet Way,San Diego,CA,92111,33,-117,HIGH,4,7,SD,,,UNIFIED SAN DIEGO,79,39,53
591,KEARNY MESA PARK & REC,3170 ARMSTRONG STREET,SAN DIEGO,CA,92111,33,-117,HIGH,4,7,SD,,,UNIFIED SAN DIEGO,79,39,53
592,KEARNY SCT,1954 Komet Way,San Diego,CA,92111,33,-117,HIGH,4,7,SD,,,UNIFIED SAN DIEGO,79,39,53
593,KEILLER LEADERSHIP ACADEMY,7270 Lisbon Street,San Diego,CA,92114,33,-117,HIGH,4,4,SD,,,UNIFIED SAN DIEGO,79,40,53
594,KELLOGG (KARL H.) ELEMENTARY,229 East Naples Street,Chula Vista,CA,91911,33,-117,HIGH,1,4,CV,"GEN BOND CHULA VISTA-SFID 1 2012C,PROP E 11/06/12",HIGH SWEETWATER UNION,,80,40,51
595,KELLY ELEMENTARY,4885 Kelly Drive,Carlsbad,CA,92008,33,-117,HIGH,5,2,CB,,,UNIFIED CARLSBAD,76,36,49
596,KEMPTON STREET LITERACY ACADEMY,740 KEMPTON ST.,SPRING VALLEY,CA,91977,33,-117,HIGH,2,,,GEN ELEM LA MESA-SPRING VALLEY,HIGH GROSSMONT UNION,,71,40,53
598,KIMBALL,302 West 18th Street,National City,CA,91950,33,-117,HIGH,1,,,GEN ELEM NATIONAL,HIGH SWEETWATER UNION,,80,40,51
599,KIMBROUGH ELEMENTARY,321 HOITT ST.,SAN DIEGO,CA,92102,33,-117,HIGH,1,8,SD,,,UNIFIED SAN DIEGO,80,40,51
600,KING-CHAVEZ ACADEMY OF EXCELLENCE,2850 LOGAN AVE.,SAN DIEGO,CA,92113,33,-117,HIGH,1,8,SD,,,UNIFIED SAN DIEGO,80,40,51
601,KING-CHAVEZ ARTS ACADEMY,415 31st Street,San Diego,CA,92102,33,-117,HIGH,1,8,SD,,,UNIFIED SAN DIEGO,80,40,51
602,KING-CHAVEZ ATHLETICS ACADEMY,415 31st Street,San Diego,CA,92102,33,-117,HIGH,1,8,SD,,,UNIFIED SAN DIEGO,80,40,51
603,KING-CHAVEZ COMMUNITY HIGH,201 A Street,San Diego,CA,92101,33,-117,HIGH,4,3,SD,,,UNIFIED SAN DIEGO,78,39,52
604,KING-CHAVEZ PREPARATORY ACADEMY,500 30th Street,San Diego,CA,92102,33,-117,HIGH,1,8,SD,,,UNIFIED SAN DIEGO,80,40,51
605,KING-CHAVEZ PRIMARY ACADEMY,415 31st Street,San Diego,CA,92102,33,-117,HIGH,1,8,SD,,,UNIFIED SAN DIEGO,80,40,51
606,KIPP ADELANTE PREPARATORY ACADEMY,"1475 Sixth Avenue, Second Floor",San Diego,CA,92101,33,-117,HIGH,4,3,SD,,,UNIFIED SAN DIEGO,78,39,52
607,KNOB HILL ELEMENTARY,1825 Knob Hill Road,San Marcos,CA,92069,33,-117,HIGH,5,3,SM,,,"UNIF BOND SAN MARCOS SFID #1-6/04/96, 2004-1 REF",75,38,50
608,KNOX MIDDLE,1098 South 49th Street,San Diego,CA,92113,33,-117,HIGH,1,4,SD,,,UNIFIED SAN DIEGO,79,40,51
609,KUMEYAAY ELEMENTARY,6475 Antigua Boulevard,San Diego,CA,92124,33,-117,HIGH,3,7,SD,,,UNIFIED SAN DIEGO,77,39,52
610,L. R. GREEN ELEMENTARY,3115 Las Palmas Avenue,Escondido,CA,92025,33,-117,HIGH,3,4,ES,GEN ELEM ESCONDIDO UNION,HIGH ESCONDIDO UNION,,75,38,50
611,LA COSTA CANYON HIGH,1 Maverick Way,Encinitas,CA,92009,33,-117,HIGH,5,4,CB,GEN ELEM ENCINITAS UNION,HIGH SAN DIEGUITO UNION,,76,36,49
612,LA COSTA HEIGHTS ELEMENTARY,3035 Levante Street,Carlsbad,CA,92009,33,-117,HIGH,5,4,CB,GEN ELEM ENCINITAS UNION,HIGH SAN DIEGUITO UNION,,76,36,49
613,LA COSTA MEADOWS ELEMENTARY,6889 El Fuerte Street,Carlsbad,CA,92009,33,-117,HIGH,5,3,CB,,,"UNIF BOND SAN MARCOS SFID #1-6/04/96, 2004-1 REF",76,36,49
614,LA JOLLA BAND OF LUISENO INDIANS,22000 HWY 76,PAUMA VALLEY,CA,92027,33,-117,HIGH,5,,,,,UNIFIED VALLEY CENTER-PAUMA,75,38,50
615,LA JOLLA ELEMENTARY,1111 Marine Street,La Jolla,CA,92037,33,-117,HIGH,4,1,SD,,,UNIFIED SAN DIEGO,78,39,52
616,LA JOLLA HIGH,750 Nautilus Street,La Jolla,CA,92037,33,-117,HIGH,4,1,SD,,,UNIFIED SAN DIEGO,78,39,52
617,LA MESA ARTS ACADEMY,4200 Parks Avenue,La Mesa,CA,91941,33,-117,HIGH,2,,,GEN ELEM LA MESA-SPRING VALLEY,HIGH GROSSMONT UNION,,79,38,53
620,LA MESA DALE ELEMENTARY,4370 PARKS AVE.,LA MESA,CA,91941,33,-117,HIGH,2,,,GEN ELEM LA MESA-SPRING VALLEY,HIGH GROSSMONT UNION,,79,38,53
621,LA MESA MIDDLE,4200 Parks Avenue,La Mesa,CA,91941,33,-117,HIGH,2,,,GEN ELEM LA MESA-SPRING VALLEY,HIGH GROSSMONT UNION,,79,38,53
623,LA MIRADA ACADEMY,3697 La Mirada Drive,San Marcos,CA,92078,33,-117,HIGH,5,1,SM,,,"UNIF BOND SAN MARCOS SFID #1-6/04/96, 2004-1 REF",75,38,50
624,LA MIRADA ELEMENTARY,222 Avenida de la Madrid,San Ysidro,CA,92173,33,-117,HIGH,1,8,SD,GEN ELEM SAN YSIDRO,HIGH SWEETWATER UNION,,80,40,51
625,LA PALOMA ELEMENTARY,300 HEALD LN.,FALLBROOK,CA,92028,33,-117,HIGH,5,,,GEN ELEM FALLBROOK UNION,HIGH FALLBROOK UNION,,75,38,50
626,LA PRESA ELEMENTARY,519 LA PRESA ST.,SPRING VALLEY,CA,91977,33,-117,HIGH,2,,,GEN ELEM LA MESA-SPRING VALLEY,HIGH GROSSMONT UNION,,71,40,53
627,LA PRESA MIDDLE,1001 Leland Street,Spring Valley,CA,91977,33,-117,HIGH,2,,,GEN ELEM LA MESA-SPRING VALLEY,HIGH GROSSMONT UNION,,71,40,53
628,LAFAYETTE ELEMENTARY,6125 PRINTWOOD WAY,SAN DIEGO,CA,92117,33,-117,HIGH,4,6,SD,,,UNIFIED SAN DIEGO,77,39,52
629,LAKE ELEMENTARY,4950 Lake Boulevard,Oceanside,CA,92056,33,-117,HIGH,5,3,OC,,,UNIFIED VISTA,76,36,49
630,LAKESIDE CLUBHOUSE,12824 LAKESHORE DRIVE,LAKESIDE,CA,92040,33,-117,HIGH,2,,,GEN ELEM LAKESIDE UNION,HIGH GROSSMONT UNION,,71,38,50
631,LAKESIDE EARLY ADVANTAGE PRESCHOOL,12824 Lakeshore Drive,Lakeside,CA,92040,33,-117,HIGH,2,,,GEN ELEM LAKESIDE UNION,HIGH GROSSMONT UNION,,71,38,50
632,LAKESIDE FARMS ELEMENTARY,11915 Lakeside Avenue,Lakeside,CA,92040,33,-117,HIGH,2,,,GEN ELEM LAKESIDE UNION,HIGH GROSSMONT UNION,,71,38,50
633,LAKESIDE MIDDLE,11833 WOODSIDE AVE.,LAKESIDE,CA,92040,33,-117,HIGH,2,,,GEN ELEM LAKESIDE UNION,HIGH GROSSMONT UNION,,71,38,50
634,LAKESIDE TEEN CENTER,9841 VINE ST.,LAKESIDE,CA,92040,33,-117,HIGH,2,,,GEN ELEM LAKESIDE UNION,HIGH GROSSMONT UNION,,71,38,50
635,LAKEVIEW ELEMENTARY,9205 Lakeview Road,Lakeside,CA,92040,33,-117,HIGH,2,,,GEN ELEM LAKESIDE UNION,HIGH GROSSMONT UNION,,71,38,50
636,LANGUAGE ACADEMY,4961 64th Street,San Diego,CA,92115,33,-117,HIGH,2,9,SD,,,UNIFIED SAN DIEGO,79,39,53
637,LAS PALMAS,1900 East 18th Street,National City,CA,91950,33,-117,HIGH,1,,,GEN ELEM NATIONAL,HIGH SWEETWATER UNION,,80,40,51
638,LAUDERBACH (J. CALVIN) ELEMENTARY,390 Palomar Street,Chula Vista,CA,91911,33,-117,HIGH,1,2,CV,"GEN BOND CHULA VISTA-SFID 1 2012C,PROP E 11/06/12",HIGH SWEETWATER UNION,,80,40,51
639,LAUREL ELEMENTARY,1410 LAUREL ST.,OCEANSIDE,CA,92058,33,-117,HIGH,5,1,OC,,,UNIFIED OCEANSIDE,76,36,49
640,LAUREL PREPARATORY ACADEMY,10170 Huennekens Street,San Diego,CA,92121,33,-117,HIGH,3,6,SD,,,UNIFIED SAN DIEGO,77,39,52
641,LEARNING CHOICE ACADEMY,9950 Scripps Lake Drive Suite #105,San Diego,CA,92131,33,-117,HIGH,3,5,SD,,,UNIFIED SAN DIEGO,77,38,52
642,LEARNING CHOICE ACADEMY - CHULA VISTA,"881 Kuhn Drive Suite, 106",Chula Vista,CA,91914,33,-117,HIGH,1,1,CV,GEN ELEM CHULA VISTA,HIGH SWEETWATER UNION,,79,40,53
645,LEMON AVENUE ELEMENTARY,8787 LEMON AVE.,LA MESA,CA,91941,33,-117,HIGH,2,,,GEN ELEM LA MESA-SPRING VALLEY,HIGH GROSSMONT UNION,,79,38,53
646,LEMON CREST ELEMENTARY,12463 LEMON CREST DR.,LAKESIDE,CA,92040,33,-117,HIGH,2,,,GEN ELEM LAKESIDE UNION,HIGH GROSSMONT UNION,,71,38,50
647,LEMON GROVE ACADEMY FOR THE SCIENCES AND HUMANITIES,7866 LINCOLN ST.,LEMON GROVE,CA,91945,33,-117,HIGH,2,,,GEN ELEM LEMON GROVE,HIGH GROSSMONT UNION,,79,38,53
649,LEMON GROVE PARK,2271 WASHINGTON STREET,LEMON GROVE,CA,91945,33,-117,HIGH,2,,,GEN ELEM LEMON GROVE,HIGH GROSSMONT UNION,,79,38,53
650,LEMON GROVE REC CENTER,3131 SCHOOL LN,LEMON GROVE,CA,91945,33,-117,HIGH,2,,,GEN ELEM LEMON GROVE,HIGH GROSSMONT UNION,,79,38,53
651,LEONARDO DA VINCI HEALTH SCIENCES CHARTER,229 East Naples,Chula Vista,CA,91911,33,-117,HIGH,1,4,CV,"GEN BOND CHULA VISTA-SFID 1 2012C,PROP E 11/06/12",HIGH SWEETWATER UNION,,80,40,51
653,LEWIS MIDDLE,5170 Greenbrier Avenue,San Diego,CA,92120,33,-117,HIGH,2,7,SD,,,UNIFIED SAN DIEGO,79,39,53
654,LEXINGTON ELEMENTARY,1145 Redwood Avenue,El Cajon,CA,92019,33,-117,HIGH,2,4,EC,GEN ELEM CAJON VALLEY UNION,HIGH GROSSMONT UNION,,71,38,50
655,LIBBY ELEMENTARY,423 WEST REDONDO DR.,OCEANSIDE,CA,92057,33,-117,HIGH,5,2,OC,,,UNIFIED OCEANSIDE,76,36,49
656,LIBBY LAKE PARK,424 CALLE MONTECITO,OCEANSIDE,CA,92057,33,-117,HIGH,5,2,OC,,,UNIFIED OCEANSIDE,76,36,49
657,LIBBY LAKE RESOURCE COMMUNITY CENTER,4700 N. RIVER ROAD,OCEANSIDE,CA,92057,33,-117,HIGH,5,2,OC,,,UNIFIED OCEANSIDE,76,36,49
659,LIBERTY ELEMENTARY,2175 Proctor Valley Road,Chula Vista,CA,91914,33,-117,HIGH,1,1,CV,GEN ELEM CHULA VISTA,HIGH SWEETWATER UNION,,79,40,53
661,LILAC,30109 Lilac Road,Valley Center,CA,92082,33,-117,HIGH,5,,,,,UNIFIED VALLEY CENTER-PAUMA,75,38,50
662,LINCOLN ACRES,2200 Lanoitan Avenue,National City,CA,91950,33,-117,HIGH,1,,,GEN ELEM NATIONAL,HIGH SWEETWATER UNION,,80,40,51
663,LINCOLN ACRES BRANCH LIBRARY,2725 GRANGER AVENUE,NATIONAL CITY,CA,91950,33,-117,HIGH,1,,,GEN ELEM NATIONAL,HIGH SWEETWATER UNION,,80,40,51
664,LINCOLN ELEMENTARY,1029 NORTH BROADWAY,ESCONDIDO,CA,92026,33,-117,HIGH,3,1,ES,GEN ELEM ESCONDIDO UNION,HIGH ESCONDIDO UNION,,75,38,50
665,LINCOLN HIGH,4777 IMPERIAL AVE.,SAN DIEGO,CA,92113,33,-117,HIGH,1,4,SD,,,UNIFIED SAN DIEGO,79,40,51
666,LINCOLN MIDDLE,2000 California Street,Oceanside,CA,92054,33,-117,HIGH,5,3,OC,,,UNIFIED OCEANSIDE,76,36,49
668,LINDA VISTA BRANCH LIBRARY,2160 ULRIC STREET,SAN DIEGO,CA,92111,33,-117,HIGH,4,7,SD,,,UNIFIED SAN DIEGO,79,39,53
669,LINDA VISTA ELEMENTARY,2772 ULRIC ST.,SAN DIEGO,CA,92111,33,-117,HIGH,4,7,SD,,,UNIFIED SAN DIEGO,79,39,53
670,LINDA VISTA REC CENTER,7064 LEVANT STREET,SAN DIEGO,CA,92111,33,-117,HIGH,4,7,SD,,,UNIFIED SAN DIEGO,79,39,53
671,LINDBERGH/SCHWEITZER ELEMENTARY,4133 MT. ALBERTINE AVE.,SAN DIEGO,CA,92111,33,-117,HIGH,4,6,SD,,,UNIFIED SAN DIEGO,77,39,52
672,LINDO PARK ELEMENTARY,12824 LAKESHORE DR.,LAKESIDE,CA,92040,33,-117,HIGH,2,,,GEN ELEM LAKESIDE UNION,HIGH GROSSMONT UNION,,71,38,50
674,LITERACY FIRST CHARTER,799 EAST WASHINGTON AVE.,EL CAJON,CA,92020,33,-117,HIGH,2,4,EC,GEN ELEM CAJON VALLEY UNION,HIGH GROSSMONT UNION,,71,38,53
679,LIVE OAK ELEMENTARY,1978 Reche Road,Fallbrook,CA,92028,33,-117,HIGH,5,,,GEN ELEM FALLBROOK UNION,HIGH FALLBROOK UNION,,75,38,50
681,LOGAN HEIGHTS BRANCH LIBRARY,567 SO. 28TH STREET,SAN DIEGO,CA,92113,33,-117,HIGH,1,8,SD,,,UNIFIED SAN DIEGO,80,40,51
682,LOGAN HEIGHTS CDC,3040 IMPERIAL AVENUE,SAN DIEGO,CA,92102,33,-117,HIGH,1,8,SD,,,UNIFIED SAN DIEGO,80,40,51
683,LOGAN HEIGHTS PUBLIC LIBRARY,567 SOUTH 28TH ST.,SAN DIEGO,CA,92113,33,-117,HIGH,1,8,SD,,,UNIFIED SAN DIEGO,80,40,51
684,LOGAN K-8,2875 Ocean View Boulevard,San Diego,CA,92113,33,-117,HIGH,1,8,SD,,,UNIFIED SAN DIEGO,80,40,51
685,LOMA ELEMENTARY,10355 LOMA LN.,SPRING VALLEY,CA,91978,33,-117,HIGH,2,,,GEN ELEM LA MESA-SPRING VALLEY,HIGH GROSSMONT UNION,,71,38,53
687,LOMA PORTAL ELEMENTARY,3341 Browning Street,San Diego,CA,92106,33,-117,HIGH,4,2,SD,,,UNIFIED SAN DIEGO,78,39,52
688,LOMA VERDE ELEMENTARY,1450 LOMA LN.,CHULA VISTA,CA,91911,33,-117,HIGH,1,4,CV,"GEN BOND CHULA VISTA-SFID 1 2012C,PROP E 11/06/12",HIGH SWEETWATER UNION,,80,40,51
689,LONGFELLOW K-8,5055 July Street,San Diego,CA,92110,33,-117,HIGH,4,2,SD,,,UNIFIED SAN DIEGO,78,39,52
691,LOS ALTOS ELEMENTARY,1332 Kenalan Drive,San Diego,CA,92154,33,-117,HIGH,1,8,SD,"GEN BOND CHULA VISTA-SFID 1 2012C,PROP E 11/06/12",HIGH SWEETWATER UNION,,80,40,51
692,LOS COCHES CREEK MIDDLE,9669 Dunbar Lane,El Cajon,CA,92021,33,-117,HIGH,2,,,GEN ELEM CAJON VALLEY UNION,HIGH GROSSMONT UNION,,71,38,50
693,LOS PENASQUITOS ELEMENTARY,14125 Cuca Street,San Diego,CA,92129,33,-117,HIGH,3,5,SD,,,"UNIF BOND POWAY-SFID 2002-1,PROP U, 2014 REF",77,39,52
694,LOUISE FOUSSAT ELEMENTARY,3800 PALA RD.,OCEANSIDE,CA,92058,33,-117,HIGH,5,2,OC,,,UNIFIED OCEANSIDE,76,36,49
695,LUZ DURAN PARK,340 E TOWNSITE DRIVE,VISTA,CA,92084,33,-117,HIGH,5,1,VS,,,UNIFIED VISTA,76,36,49
696,MAAC COMMUNITY CHARTER,1385 Third Avenue,Chula Vista,CA,91911,33,-117,HIGH,1,4,CV,"GEN BOND CHULA VISTA-SFID 1 2012C,PROP E 11/06/12",HIGH SWEETWATER UNION,,80,40,51
697,MADISON AVENUE ELEMENTARY,1615 EAST MADISON AVE.,EL CAJON,CA,92019,33,-117,HIGH,2,3,EC,GEN ELEM CAJON VALLEY UNION,HIGH GROSSMONT UNION,,71,38,50
698,MADISON HIGH,4833 DOLIVA DR.,SAN DIEGO,CA,92117,33,-117,HIGH,4,6,SD,,,UNIFIED SAN DIEGO,77,39,52
699,MADISON MIDDLE,4930 Lake Boulevard,Oceanside,CA,92056,33,-117,HIGH,5,3,OC,,,UNIFIED VISTA,76,36,49
700,MAGNOLIA ELEMENTARY,650 GREENFIELD DR.,EL CAJON,CA,92021,33,-117,HIGH,2,2,EC,GEN ELEM CAJON VALLEY UNION,HIGH GROSSMONT UNION,,71,38,50
701,MAGNOLIA ELEMENTARY,1905 Magnolia Avenue,Carlsbad,CA,92008,33,-117,HIGH,5,1,CB,,,UNIFIED CARLSBAD,76,36,49
702,MAGNOLIA SCIENCE ACADEMY SAN DIEGO,6525 Estrella Avenue,San Diego,CA,92120,33,-117,HIGH,2,7,SD,,,UNIFIED SAN DIEGO,79,39,53
703,MAIE ELLIS ELEMENTARY,400 West Elder Street,Fallbrook,CA,92028,33,-117,HIGH,5,,,GEN ELEM FALLBROOK UNION,HIGH FALLBROOK UNION,,75,38,50
705,MAJOR GENERAL RAYMOND MURRAY HIGH,215 NORTH MELROSE DR.,VISTA,CA,92083,33,-117,HIGH,5,3,VS,,,UNIFIED VISTA,76,36,49
706,MALCOLM X BRANCH LIBRARY,5148 MARKET STREET,SAN DIEGO,CA,92114,33,-117,HIGH,4,4,SD,,,UNIFIED SAN DIEGO,79,39,51
707,MANN MIDDLE,4345 54TH ST.,SAN DIEGO,CA,92115,33,-117,HIGH,4,9,SD,,,UNIFIED SAN DIEGO,79,39,53
708,MAPLEWOOD APARTMENTS,12701 MAPLEVIEW STREET,LAKESIDE,CA,92040,33,-117,HIGH,2,,,GEN ELEM LAKESIDE UNION,HIGH GROSSMONT UNION,,71,38,50
709,MAR VISTA ACADEMY,1267 THERMAL AVE.,SAN DIEGO,CA,92154,33,-117,HIGH,1,8,SD,GEN ELEM SOUTH BAY UNION,HIGH SWEETWATER UNION,,80,40,51
711,MAR VISTA SENIOR HIGH,505 ELM AVE.,IMPERIAL BEACH,CA,91932,33,-117,HIGH,1,,,GEN ELEM SOUTH BAY UNION,HIGH SWEETWATER UNION,,78,40,51
713,MARSHALL (THURGOOD) ELEMENTARY,2295 MacKenzie Creek Road,Chula Vista,CA,91914,33,-117,HIGH,1,1,CV,GEN ELEM CHULA VISTA,HIGH SWEETWATER UNION,,79,40,53
714,MARSHALL ELEMENTARY,3550 Altadena Avenue,San Diego,CA,92105,33,-117,HIGH,4,9,SD,,,UNIFIED SAN DIEGO,80,40,51
715,MARSHALL MIDDLE,9700 Avenue of Nations,San Diego,CA,92131,33,-117,HIGH,3,5,SD,,,UNIFIED SAN DIEGO,77,38,52
716,MARSTON MIDDLE,3799 Clairemont Drive,San Diego,CA,92117,33,-117,HIGH,4,2,SD,,,UNIFIED SAN DIEGO,78,39,52
717,MARTIN LUTHER KING JR REC CENTER,6401 SKYLINE DRIVE,SAN DIEGO,CA,92114,33,-117,HIGH,4,4,SD,,,UNIFIED SAN DIEGO,79,40,51
718,MARTIN LUTHER KING JR. MIDDLE,1290 Ivey Ranch Road,Oceanside,CA,92057,33,-117,HIGH,5,4,OC,,,UNIFIED OCEANSIDE,76,36,49
719,MARVIN ELEMENTARY,5720 Brunswick Avenue,San Diego,CA,92120,33,-117,HIGH,2,7,SD,,,UNIFIED SAN DIEGO,79,39,53
720,MARY FAY PENDLETON ELEMENTARY,110 Marine Drive,Oceanside,CA,92058,33,-117,HIGH,5,,,GEN ELEM FALLBROOK UNION,HIGH FALLBROOK UNION,,76,36,49
721,MARYLAND AVENUE ELEMENTARY,5400 MARYLAND AVE.,LA MESA,CA,91942,33,-117,HIGH,2,,,GEN ELEM LA MESA-SPRING VALLEY,HIGH GROSSMONT UNION,,79,38,53
722,MARYLAND ELEMENTARY,700 NORTH AVE.,VISTA,CA,92083,33,-117,HIGH,5,1,VS,,,UNIFIED VISTA,76,36,49
723,MASON ELEMENTARY,10340 SAN RAMON DR.,SAN DIEGO,CA,92126,33,-117,HIGH,3,6,SD,,,UNIFIED SAN DIEGO,77,39,52
725,MCGILL SCHOOL OF SUCCESS,3025 FIR ST.,SAN DIEGO,CA,92102,33,-117,HIGH,4,3,SD,,,UNIFIED SAN DIEGO,78,39,53
726,MCKINLEY ELEMENTARY,3045 Felton Street,San Diego,CA,92104,33,-117,HIGH,4,3,SD,,,UNIFIED SAN DIEGO,78,39,53
727,MCMILLIN (CORKY) ELEMENTARY,1201 Santa Cora Avenue,Chula Vista,CA,91913,33,-117,HIGH,1,3,CV,GEN ELEM CHULA VISTA,HIGH SWEETWATER UNION,,79,40,53
728,MEADOWBROOK MIDDLE,12320 Meadowbrook Lane,Poway,CA,92064,33,-117,HIGH,2,1,PW,,,"UNIF BOND POWAY-SFID 2002-1,PROP U, 2014 REF",77,38,52
729,MELBA BISHOP RECREATION CENTER,5306 N RIVER RD,OCEANSIDE,CA,92057,33,-117,HIGH,5,2,OC,,,UNIFIED OCEANSIDE,76,36,49
730,MEMORIAL RECREATION CENTER,2902 MARCY AVENUE,SAN DIEGO,CA,92113,33,-117,HIGH,1,8,SD,,,UNIFIED SAN DIEGO,80,40,51
731,MEMORIAL SCHOLARS & ATHLETES,"2850 LOGAN AVE,",SAN DIEGO,CA,92113,33,-117,HIGH,1,8,SD,,,UNIFIED SAN DIEGO,80,40,51
732,MERIDIAN ELEMENTARY,651 SOUTH THIRD ST.,EL CAJON,CA,92019,33,-117,HIGH,2,3,EC,GEN ELEM CAJON VALLEY UNION,HIGH GROSSMONT UNION,,71,38,50
733,MERIT ACADEMY,1600 North Cuyamaca Street,El Cajon,CA,92020,33,-117,HIGH,2,1,EC,GEN ELEM CAJON VALLEY UNION,HIGH GROSSMONT UNION,,71,38,53
734,MESA GRANDE INDIAN HOUSING AUTHORITY,27000 BLACK CANYON RD.,SANTA YSABEL,CA,92070,33,-117,HIGH,5,,,GEN ELEM JULIAN UNION,HIGH JULIAN UNION,,71,38,50
736,MESA VERDE MIDDLE,8375 Entreken Way,San Diego,CA,92129,33,-117,HIGH,3,5,SD,,,UNIFIED POWAY,77,39,52
737,METHODSCHOOLS,4612 Dehesa Rd,El Cajon,CA,92019,33,-117,HIGH,2,,,GEN ELEM DEHESA,HIGH GROSSMONT UNION,,71,38,50
738,METRO AREA ADVISORY COMMITTEE (DIFFERENCT FROM HONEY BEE),9119 JAMACHA ROAD,SPRING VALLEY,CA,91977,33,-117,HIGH,2,,,GEN ELEM LA MESA-SPRING VALLEY,HIGH GROSSMONT UNION,,71,40,53
741,METRO VILLAS APARTMENTS,4071 39TH STREET,SAN DIEGO,CA,92105,33,-117,HIGH,4,9,SD,,,UNIFIED SAN DIEGO,80,40,51
743,MIDLAND ELEMENTARY,13910 Midland Road,Poway,CA,92064,33,-117,HIGH,2,3,PW,,,"UNIF BOND POWAY-SFID 2002-1,PROP U, 2014 REF",77,38,52
744,MIKE CHOATE EARLY CHILDHOOD EDUCATION CENTER,407 South Mission Road,Fallbrook,CA,92028,33,-117,HIGH,5,,,GEN ELEM FALLBROOK UNION,HIGH FALLBROOK UNION,,75,38,50
745,MILLENNIAL TECH MIDDLE,1110 CAROLINA LN.,SAN DIEGO,CA,92102,33,-117,HIGH,1,4,SD,,,UNIFIED SAN DIEGO,80,40,51
746,MILLER ELEMENTARY,1975 Miller Avenue,Escondido,CA,92025,33,-117,HIGH,3,4,ES,GEN ELEM ESCONDIDO UNION,HIGH ESCONDIDO UNION,,75,38,50
747,MILLER ELEMENTARY,4343 Shields Street,San Diego,CA,92124,33,-117,HIGH,3,7,SD,,,UNIFIED SAN DIEGO,77,39,52
749,MIRA MESA HIGH,10510 Reagan Road,San Diego,CA,92126,33,-117,HIGH,3,6,SD,,,UNIFIED SAN DIEGO,77,39,52
750,MIRA MESA PARK & REC,8575 NEW SALEM STREET,SAN DIEGO,CA,92126,33,-117,HIGH,3,6,SD,,,UNIFIED SAN DIEGO,77,39,52
751,MIRAMAR AIRSTATION CHILD YOUTH & TEEN CENTER,2700 MOORE AVENUE,SAN DIEGO,CA,92126,33,-117,HIGH,3,6,SD,,,UNIFIED SAN DIEGO,77,39,52
752,MIRAMAR RANCH ELEMENTARY,10770 Red Cedar Drive,San Diego,CA,92131,33,-117,HIGH,3,5,SD,,,UNIFIED SAN DIEGO,77,38,52
753,MISSION BAY HIGH,2475 Grand Avenue,San Diego,CA,92109,33,-117,HIGH,4,2,SD,,,UNIFIED SAN DIEGO,78,39,52
754,MISSION COVE APARTMENTS,3301 MISSION AVE.,OCEANSIDE,CA,92058,33,-117,HIGH,5,1,OC,,,UNIFIED OCEANSIDE,76,36,49
755,MISSION ELEMENTARY,2100 MISSION AVE.,OCEANSIDE,CA,92058,33,-117,HIGH,5,1,OC,,,UNIFIED OCEANSIDE,76,36,49
756,MISSION ESTANCIA ELEMENTARY,3330 Calle Barcelona,Carlsbad,CA,92009,33,-117,HIGH,5,4,CB,GEN ELEM ENCINITAS UNION,HIGH SAN DIEGUITO UNION,,76,36,49
757,MISSION HILLS HIGH,1 Mission Hills Court,San Marcos,CA,92069,33,-117,HIGH,5,1,SM,,,"UNIF BOND SAN MARCOS SFID #1-6/04/96, 2004-1 REF",75,38,50
758,MISSION MEADOWS ELEMENTARY,5657 Spur Avenue,Oceanside,CA,92057,33,-117,HIGH,5,2,OC,,,UNIFIED VISTA,76,36,49
759,MISSION MIDDLE,939 EAST MISSION AVE.,ESCONDIDO,CA,92025,33,-117,HIGH,3,1,ES,GEN ELEM ESCONDIDO UNION,HIGH ESCONDIDO UNION,,75,38,50
760,MISSION MIDDLE SCHOOL X-TRACK,939 E MISSION AVE,ESCONDIDO,CA,92025,33,-117,HIGH,3,1,ES,GEN ELEM ESCONDIDO UNION,HIGH ESCONDIDO UNION,,75,38,50
762,MISSION VISTA HIGH,1306 Melrose Drive,Oceanside,CA,92057,33,-117,HIGH,5,2,OC,,,UNIFIED VISTA,76,36,49
763,MITCHELL BRANCH,115 W WOODWARD AVE,ESCONDIDO,CA,92025,33,-117,HIGH,3,2,ES,GEN ELEM ESCONDIDO UNION,HIGH ESCONDIDO UNION,,75,38,50
764,MONARCH,1625 Newton Avenue,San Diego,CA,92113,33,-117,HIGH,4,8,SD,,,UNIFIED SAN DIEGO,80,40,51
766,MONTE VISTA ELEMENTARY,1720 Monte Vista Road,Vista,CA,92084,33,-117,HIGH,5,2,VS,,,UNIFIED VISTA,76,36,49
767,MONTE VISTA HIGH,3230 SWEETWATER SPRINGS BLVD.,SPRING VALLEY,CA,91977,33,-117,HIGH,2,,,GEN ELEM LA MESA-SPRING VALLEY,HIGH GROSSMONT UNION,,71,38,53
768,MONTECITO HIGH (CONTINUATION),720 Ninth Street,Ramona,CA,92065,33,-117,HIGH,2,,,,,UNIFIED RAMONA,71,38,50
769,MONTEREY HEIGHTS ELEMENTARY,7550 Canton Drive,Lemon Grove,CA,91945,33,-117,HIGH,2,,,GEN ELEM LEMON GROVE,HIGH GROSSMONT UNION,,79,38,53
770,MONTEREY RIDGE ELEMENTARY,17117 4S Ranch Parkway,San Diego,CA,92127,33,-117,HIGH,3,,,,,UNIFIED POWAY,77,38,49
772,MONTGOMERY (JOHN J.) ELEMENTARY,1601 Fourth Avenue,Chula Vista,CA,91911,33,-117,HIGH,1,4,CV,"GEN BOND CHULA VISTA-SFID 1 2012C,PROP E 11/06/12",HIGH SWEETWATER UNION,,80,40,51
773,MONTGOMERY ADULT,3240 Palm Avenue,San Diego,CA,92154,33,-117,HIGH,1,8,SD,"GEN BOND CHULA VISTA-SFID 1 2012C,PROP E 11/06/12",HIGH SWEETWATER UNION,,80,40,51
774,MONTGOMERY MIDDLE,2470 Ulric Street,San Diego,CA,92111,33,-117,HIGH,4,7,SD,,,UNIFIED SAN DIEGO,79,39,53
775,MONTGOMERY MIDDLE,1570 Melody Lane,El Cajon,CA,92019,33,-117,HIGH,2,3,EC,GEN ELEM CAJON VALLEY UNION,HIGH GROSSMONT UNION,,71,38,50
776,MONTGOMERY MIDDLE,1051 PICADOR BLVD.,SAN DIEGO,CA,92154,33,-117,HIGH,1,8,SD,"GEN BOND CHULA VISTA-SFID 1 2012C,PROP E 11/06/12",HIGH SWEETWATER UNION,,80,40,51
777,MONTGOMERY SENIOR HIGH,3250 Palm Avenue,San Diego,CA,92154,33,-117,HIGH,1,8,SD,"GEN BOND CHULA VISTA-SFID 1 2012C,PROP E 11/06/12",HIGH SWEETWATER UNION,,80,40,51
778,MONTGOMERY WALLER RECREACTION CENTER,3020 CORONADO AVENUE,SAN DIEGO,CA,92154,33,-117,HIGH,1,8,SD,GEN ELEM SOUTH BAY UNION,HIGH SWEETWATER UNION,,80,40,51
779,MORNING CREEK ELEMENTARY,"10925 Morning Creek Drive, South",San Diego,CA,92128,33,-117,HIGH,3,5,SD,,,UNIFIED POWAY,77,38,52
780,MORSE HIGH,6905 SKYLINE DR.,SAN DIEGO,CA,92114,33,-117,HIGH,4,4,SD,,,UNIFIED SAN DIEGO,79,40,53
782,MOUNT MIGUEL HIGH,8585 BLOSSOM LN.,SPRING VALLEY,CA,91977,33,-117,HIGH,2,,,GEN ELEM LA MESA-SPRING VALLEY,HIGH GROSSMONT UNION,,71,40,53
783,MOUNTAIN EMPIRE HIGH,3305 Buckman Springs Road,Pine Valley,CA,91962,33,-116,HIGH,2,,,,,UNIFIED MT EMPIRE,71,40,51
784,MOUNTAIN EMPIRE SPECIAL EDUCATION PRESCHOOL,3291 Buckman Springs Road,Pine Valley,CA,91962,33,-116,HIGH,2,,,,,UNIFIED MT EMPIRE,71,40,51
786,MOUNTAIN VALLEY ACADEMY,1010 Ramona Street,Ramona,CA,92065,33,-117,HIGH,2,,,,,UNIFIED RAMONA,71,38,50
787,MOUNTAIN VIEW COMMUNITY CENTER,641 SOUTH BOUNDARY,SAN DIEGO,CA,92113,33,-117,HIGH,1,9,SD,,,UNIFIED SAN DIEGO,80,40,51
788,MOUNTAIN VIEW LEARNING ACADEMY,8770 Harbison Canyon Road,Alpine,CA,91901,33,-117,HIGH,2,,,GEN ELEM ALPINE UNION,HIGH GROSSMONT UNION,,71,38,50
789,MT. CARMEL HIGH,9550 Carmel Mountain Road,San Diego,CA,92129,33,-117,HIGH,3,5,SD,,,"UNIF BOND POWAY-SFID 2002-1,PROP U, 2014 REF",77,39,52
790,MT. ERIE BAPTIST CHURCH,511 SO. 47TH STREET,SAN DIEGO,CA,92113,33,-117,HIGH,1,4,SD,,,UNIFIED SAN DIEGO,79,40,51
791,MT. ERIE CHRISTIAN ACADEMY,504 S. 47TH STREET,SAN DIEGO,CA,92113,33,-117,HIGH,1,4,SD,,,UNIFIED SAN DIEGO,79,40,51
792,MT. EVEREST ACADEMY,4350 Mount Everest Boulevard,San Diego,CA,92117,33,-117,HIGH,4,6,SD,,,UNIFIED SAN DIEGO,77,39,52
793,MT. MIGUEL ADULT CENTER,1800 Sweetwater Road,Spring Valley,CA,91977,33,-117,HIGH,2,,,GEN ELEM LA MESA-SPRING VALLEY,HIGH GROSSMONT UNION,,71,38,53
794,MT. VERNON,8350 Mount Vernon Street,Lemon Grove,CA,91945,33,-117,HIGH,2,,,GEN ELEM LEMON GROVE,HIGH GROSSMONT UNION,,79,38,53
795,MT. WOODSON ELEMENTARY,17427 Archie Moore Road,Ramona,CA,92065,33,-117,HIGH,2,,,,,UNIFIED RAMONA,71,38,50
796,MUELLER CHARTER (ROBERT L.),715 I Street,Chula Vista,CA,91910,33,-117,HIGH,1,2,CV,"GEN BOND CHULA VISTA-SFID 1 2012C,PROP E 11/06/12",HIGH SWEETWATER UNION,,80,40,51
797,MUIRLANDS MIDDLE,1056 Nautilus Street,La Jolla,CA,92037,33,-117,HIGH,4,1,SD,,,UNIFIED SAN DIEGO,78,39,52
798,MURAOKA (SABURO) ELEMENTARY,1644 Santa Alexia Avenue,Chula Vista,CA,91913,33,-117,HIGH,1,3,CV,GEN ELEM CHULA VISTA,HIGH SWEETWATER UNION,,79,40,53
799,MURDOCK ELEMENTARY,4354 CONRAD DR.,LA MESA,CA,91941,33,-117,HIGH,2,,,GEN ELEM LA MESA-SPRING VALLEY,HIGH GROSSMONT UNION,,71,38,53
800,MURPHY CANYON KID CONNECTION,3493 SANTO ROAD,SAN DIEGO,CA,92124,33,-117,HIGH,3,7,SD,,,UNIFIED SAN DIEGO,79,39,52
801,MURPHY CANYON YOUTH CENTER,4867 SANTO ROAD,SAN DIEGO,CA,92124,33,-117,HIGH,3,7,SD,,,UNIFIED SAN DIEGO,77,39,52
802,MURRAY MANOR ELEMENTARY,8305 El Paso Street,La Mesa,CA,91942,33,-117,HIGH,2,,,GEN ELEM LA MESA-SPRING VALLEY,HIGH GROSSMONT UNION,,79,38,53
803,MUSEUM,211 Maple Street,San Diego,CA,92103,33,-117,HIGH,4,3,SD,,,UNIFIED SAN DIEGO,78,39,53
804,NARANCA ELEMENTARY,1030 NARANCA AVE.,EL CAJON,CA,92021,33,-117,HIGH,2,2,EC,GEN ELEM CAJON VALLEY UNION,HIGH GROSSMONT UNION,,71,38,50
805,NATIONAL CITY ADULT,517 West 24th Street,National City,CA,91950,33,-117,HIGH,1,,,GEN ELEM NATIONAL,HIGH SWEETWATER UNION,,80,40,51
806,NATIONAL CITY MIDDLE,1701 D AVE.,NATIONAL CITY,CA,91950,33,-117,HIGH,1,,,GEN ELEM NATIONAL,HIGH SWEETWATER UNION,,80,40,51
807,NATIONAL CITY POLICA DEPATMENT RESOURCE CENTER,3030 PLAZA BONITA RD SUITE 2075,NATIONAL CITY,CA,91950,33,-117,HIGH,1,,,"GEN BOND CHULA VISTA-SFID 1 2012C,PROP E 11/06/12",HIGH SWEETWATER UNION,,80,40,51
808,NATIONAL SCHOOL DISTRICT PRESCHOOL,2401 East 24th Street,National City,CA,91950,33,-117,HIGH,1,,,GEN ELEM NATIONAL,HIGH SWEETWATER UNION,,80,40,51
809,NATIONAL UNIVERSITY ACADEMY,2030 University Drive,Vista,CA,92083,33,-117,HIGH,5,4,VS,,,UNIFIED VISTA,76,36,49
810,NATIONAL UNIVERSITY ACADEMY 1001 STEAM,3678 Aero Court,San Diego,CA,92123,33,-117,HIGH,4,7,SD,,,UNIFIED SAN DIEGO,79,39,53
811,NATIONAL UNIVERSITY ACADEMY DUAL LANGUAGE INSTITUTE,2030 University Drive,Vista,CA,92083,33,-117,HIGH,5,4,VS,,,UNIFIED VISTA,76,36,49
812,NATIONAL UNIVERSITY ACADEMY SPARROW,4207 Spring Gardens Road,La Mesa,CA,91941,33,-117,HIGH,2,,,GEN ELEM LA MESA-SPRING VALLEY,HIGH GROSSMONT UNION,,79,38,53
813,NATIVITY PREP ACADEMY,2755 55TH ST.,SAN DIEGO,CA,92105,33,-117,HIGH,4,4,SD,,,UNIFIED SAN DIEGO,79,39,51
816,NESTOR LANGUAGE ACADEMY CHARTER,1455 Hollister Street,San Diego,CA,92154,33,-117,HIGH,1,8,SD,GEN ELEM SOUTH BAY UNION,HIGH SWEETWATER UNION,,80,40,51
834,NEW SEASONS CHURCH,2300 BANCROFT DRIVE,SPRING VALLEY,CA,91977,33,-117,HIGH,2,,,GEN ELEM LA MESA-SPRING VALLEY,HIGH GROSSMONT UNION,,71,38,53
835,NEW SEASONS EL CAJON,990 NARANCA AVENUE,EL CAJON,CA,92021,33,-117,HIGH,2,2,EC,GEN ELEM CAJON VALLEY UNION,HIGH GROSSMONT UNION,,71,38,50
836,NEW VISION CHRISTIAN FELLOWSHIP,4353 PARK BLVD.,SAN DIEGO,CA,92103,33,-117,HIGH,4,3,SD,,,UNIFIED SAN DIEGO,78,39,53
837,NICHOLS ELEMENTARY,4250 OLD GROVE RD.,OCEANSIDE,CA,92057,33,-117,HIGH,5,4,OC,,,UNIFIED OCEANSIDE,76,36,49
838,NICOLAYSEN COMMUNITY DAY,420 North Falconer Road,Escondido,CA,92027,33,-117,HIGH,3,3,ES,GEN ELEM ESCONDIDO UNION,HIGH ESCONDIDO UNION,,75,38,50
871,NORMAL HEIGHTS ELEMENTARY,3750 WARD RD.,SAN DIEGO,CA,92116,33,-117,HIGH,4,3,SD,,,UNIFIED SAN DIEGO,78,39,53
872,NORMAN L. SULLIVAN MIDDLE,7350 West Lilac Road,Bonsall,CA,92003,33,-117,HIGH,5,,,,,UNIFIED BONSALL,75,38,50
873,NORTH BROADWAY ELEMENTARY,2301 NORTH BROADWAY,ESCONDIDO,CA,92026,33,-117,HIGH,3,2,ES,GEN ELEM ESCONDIDO UNION,HIGH ESCONDIDO UNION,,75,38,50
874,NORTH CLAIREMONT PARK & REC CENTER,4421 BANNOCK AVENUE,SAN DIEGO,CA,92117,33,-117,HIGH,4,6,SD,,,UNIFIED SAN DIEGO,77,39,52
875,NORTH COAST ALTERNATIVE HIGH,684 Requeza,Encinitas,CA,92024,33,-117,HIGH,3,2,EN,GEN ELEM ENCINITAS UNION,HIGH SAN DIEGUITO UNION,,76,36,49
877,NORTH COASTAL CONSORTIUM SCHOOLS,"255 Pico Avenue, Room 220",San Marcos,CA,92069,33,-117,HIGH,5,1,SM,,,"UNIF BOND SAN MARCOS SFID #1-6/04/96, 2004-1 REF",75,38,50
878,NORTH COUNTY BOYS AND GIRLS CLUB,445 E IVY ST,FALLBROOK,CA,92028,33,-117,HIGH,5,,,GEN ELEM FALLBROOK UNION,HIGH FALLBROOK UNION,,75,38,50
880,NORTH COUNTY HEALTH SERVICES SAN MARCOS,150 VALPREDA RD.,SAN MARCOS,CA,92069,33,-117,HIGH,5,1,SM,,,"UNIF BOND SAN MARCOS SFID #1-6/04/96, 2004-1 REF",75,38,50
882,NORTH COUNTY TRADE TECH HIGH,"1132 N Melrose Drive, Suite 501",Vista,CA,92083,33,-117,HIGH,5,1,VS,,,UNIFIED VISTA,76,36,49
884,NORTH PARK REC CENTER,4044 IDAHO STREET,SAN DIEGO,CA,92104,33,-117,HIGH,4,3,SD,,,UNIFIED SAN DIEGO,78,39,53
886,NORTH TERRACE ELEMENTARY,141 SANTA ROSA DR.,OCEANSIDE,CA,92058,33,-117,HIGH,5,,,,,UNIFIED OCEANSIDE,76,36,49
888,NORTHMONT ELEMENTARY,9405 Gregory Street,La Mesa,CA,91942,33,-117,HIGH,2,,,GEN ELEM LA MESA-SPRING VALLEY,HIGH GROSSMONT UNION,,79,38,53
890,NU-WAY INTERNATIONAL CHRISTIAN MINISTRIES,4166 NATIONAL AVENUE,SAN DIEGO,CA,92113,33,-117,HIGH,1,9,SD,,,UNIFIED SAN DIEGO,80,40,51
891,NYE ELEMENTARY,981 Valencia Parkway,San Diego,CA,92114,33,-117,HIGH,4,4,SD,,,UNIFIED SAN DIEGO,79,40,51
892,OAK CREST MIDDLE,675 Balour Drive,Encinitas,CA,92024,33,-117,HIGH,3,3,EN,GEN ELEM ENCINITAS UNION,HIGH SAN DIEGUITO UNION,,76,36,49
893,OAK GLEN HIGH,14172 West Oak Glen Road,Valley Center,CA,92082,33,-117,HIGH,5,,,,,UNIFIED VALLEY CENTER-PAUMA,75,38,50
894,OAK GROVE MIDDLE,14344 Olive Vista Drive,Jamul,CA,91935,33,-117,HIGH,2,,,GEN ELEM JAMUL-DULZURA UNION,HIGH GROSSMONT UNION,,71,40,50
895,OAK HILL ELEMENTARY,1820 OAK HILL DR.,ESCONDIDO,CA,92027,33,-117,HIGH,3,3,ES,GEN ELEM ESCONDIDO UNION,HIGH ESCONDIDO UNION,,75,38,50
896,OAK PARK ELEMENTARY,2606 54TH ST.,SAN DIEGO,CA,92105,33,-117,HIGH,4,4,SD,,,UNIFIED SAN DIEGO,79,39,51
897,OAK VALLEY MIDDLE,16055 Winecreek Road,San Diego,CA,92127,33,-117,HIGH,3,,,,,UNIFIED POWAY,77,38,49
899,OASIS HIGH (ALTERNATIVE),2208 South Stage Coach Lane,Fallbrook,CA,92028,33,-117,HIGH,5,,,GEN ELEM FALLBROOK UNION,HIGH FALLBROOK UNION,,75,38,50
900,OCEAN AIR,11444 Canter Heights Drive,San Diego,CA,92130,33,-117,HIGH,3,1,SD,GEN ELEM DEL MAR UNION,HIGH SAN DIEGUITO UNION,,77,39,52
901,OCEAN BEACH ELEMENTARY,4741 Santa Monica Avenue,San Diego,CA,92107,33,-117,HIGH,4,2,SD,,,UNIFIED SAN DIEGO,78,39,52
902,OCEAN DISCOVERY HOOVER HIGH,3838 ORANGE AVE,SAN DIEGO,CA,92105,33,-117,HIGH,4,9,SD,,,UNIFIED SAN DIEGO,80,40,51
903,OCEAN KNOLL ELEMENTARY,910 Melba Road,Encinitas,CA,92024,33,-117,HIGH,3,2,EN,GEN ELEM ENCINITAS UNION,HIGH SAN DIEGUITO UNION,,76,36,49
904,OCEAN SHORES HIGH (CONTINUATION),3131 OCEANSIDE BLVD.,OCEANSIDE,CA,92056,33,-117,HIGH,5,3,OC,,,UNIFIED OCEANSIDE,76,36,49
905,OCEAN VIEW HILLS,4919 Del Sol Boulevard,San Diego,CA,92154,33,-117,HIGH,1,8,SD,GEN ELEM SAN YSIDRO,HIGH SWEETWATER UNION,,80,40,51
906,OCEANSIDE HIGH,1 PIRATES COVE,OCEANSIDE,CA,92054,33,-117,HIGH,5,1,OC,,,UNIFIED OCEANSIDE,76,36,49
907,OFARRELL COMMUNITY SCHOOL,6130 SKYLINE DR.,SAN DIEGO,CA,92114,33,-117,HIGH,4,4,SD,,,UNIFIED SAN DIEGO,79,40,51
908,OLD TOWN ACADEMY K-8 CHARTER,2120 San Diego Avenue,San Diego,CA,92110,33,-117,HIGH,4,3,SD,,,UNIFIED SAN DIEGO,78,39,53
909,OLIVE ELEMENTARY,836 Olive Avenue,Vista,CA,92083,33,-117,HIGH,5,3,VS,,,UNIFIED VISTA,76,36,49
910,OLIVE PEIRCE MIDDLE,1521 Hanson Lane,Ramona,CA,92065,33,-117,HIGH,2,,,,,UNIFIED RAMONA,71,38,50
911,OLIVENHAIN PIONEER ELEMENTARY,8000 Calle Acervo,Carlsbad,CA,92009,33,-117,HIGH,5,4,CB,GEN ELEM ENCINITAS UNION,HIGH SAN DIEGUITO UNION,,76,36,49
912,OLIVEWOOD,2505 F Avenue,National City,CA,91950,33,-117,HIGH,1,,,GEN ELEM NATIONAL,HIGH SWEETWATER UNION,,80,40,51
913,OLYMPIAN HIGH,1925 Magdalena Avenue,Chula Vista,CA,91913,33,-117,HIGH,1,3,CV,"GEN BOND CHULA VISTA-SFID 1 2012C,PROP E 11/06/12",HIGH SWEETWATER UNION,,79,40,53
914,OLYMPIC VIEW ELEMENTARY,1220 South Greensview Drive,Chula Vista,CA,91915,33,-117,HIGH,1,1,CV,GEN ELEM CHULA VISTA,HIGH SWEETWATER UNION,,79,40,53
915,ONEONTA ELEMENTARY,1311 TENTH ST.,IMPERIAL BEACH,CA,91932,33,-117,HIGH,1,,,GEN ELEM SOUTH BAY UNION,HIGH SWEETWATER UNION,,78,40,51
916,OPTIONS SECONDARY,467 Moss Street,Chula Vista,CA,91911,33,-117,HIGH,1,4,CV,"GEN BOND CHULA VISTA-SFID 1 2012C,PROP E 11/06/12",HIGH SWEETWATER UNION,,80,40,51
917,ORANGE GLEN ELEMENTARY,2861 Valley Parkway,Escondido,CA,92027,33,-117,HIGH,3,3,ES,GEN ELEM ESCONDIDO UNION,HIGH ESCONDIDO UNION,,75,38,50
918,ORANGE GLEN HIGH,2200 GLEN RIDGE RD.,ESCONDIDO,CA,92027,33,-117,HIGH,3,3,ES,GEN ELEM ESCONDIDO UNION,HIGH ESCONDIDO UNION,,75,38,50
919,OTAY ELEMENTARY,1651 Albany Avenue,Chula Vista,CA,91911,33,-117,HIGH,1,4,CV,"GEN BOND CHULA VISTA-SFID 1 2012C,PROP E 11/06/12",HIGH SWEETWATER UNION,,80,40,51
920,OTAY RANCH SENIOR HIGH,1250 Olympic Parkway,Chula Vista,CA,91913,33,-117,HIGH,1,3,CV,GEN ELEM CHULA VISTA,HIGH SWEETWATER UNION,,79,40,53
921,OTAY RECREATION CENTER,3354 MAIN STREET,CHULA VISTA,CA,91911,33,-117,HIGH,1,4,CV,"GEN BOND CHULA VISTA-SFID 1 2012C,PROP E 11/06/12",HIGH SWEETWATER UNION,,80,40,51
922,OTAY-NESTOR BRANCH LIBRARY,3003 CORONADO AVENUE,SAN DIEGO,CA,92154,33,-117,HIGH,1,8,SD,GEN ELEM SOUTH BAY UNION,HIGH SWEETWATER UNION,,80,40,51
925,OXFORD PREPARATORY ACADEMY - SAN DIEGO COUNTY,2281 Diegueno Drive,Borrego Springs,CA,92004,33,-116,HIGH,5,,,,,UNIFIED BORREGO SPRINGS,71,38,50
927,PACIFIC AMERICAN ACADEMY,4260 54th Street,San Diego,CA,92115,33,-117,HIGH,4,9,SD,,,UNIFIED SAN DIEGO,79,40,51
928,PACIFIC BEACH ELEMENTARY,1234 Tourmaline Street,San Diego,CA,92109,33,-117,HIGH,4,2,SD,,,UNIFIED SAN DIEGO,78,39,52
930,PACIFIC BEACH MIDDLE,4676 Ingraham Street,San Diego,CA,92109,33,-117,HIGH,4,2,SD,,,UNIFIED SAN DIEGO,78,39,52
931,PACIFIC BEACH PARK & REC CENTER,1405 DIAMOND STREET,SAN DIEGO,CA,92109,33,-117,HIGH,4,2,SD,,,UNIFIED SAN DIEGO,78,39,52
932,PACIFIC COAST ACADEMY,353 East Park Avenue Suite 201,El Cajon,CA,92020,33,-117,HIGH,2,2,EC,GEN ELEM CAJON VALLEY UNION,HIGH GROSSMONT UNION,,71,38,53
933,PACIFIC RIM ELEMENTARY,1100 Camino de las Ondas,Carlsbad,CA,92011,33,-117,HIGH,5,3,CB,,,UNIFIED CARLSBAD,76,36,49
934,PACIFIC SPRINGS CHARTER,1615 Mater Dei Drive,Chula Vista,CA,91913,33,-117,HIGH,1,3,CV,GEN ELEM CHULA VISTA,HIGH SWEETWATER UNION,,79,40,53
935,PACIFIC TRAILS MIDDLE,5975 Village Center Loop Road,San Diego,CA,92130,33,-117,HIGH,3,1,SD,GEN ELEM DEL MAR UNION,HIGH SAN DIEGUITO UNION,,77,39,52
936,PACIFIC VIEW CHARTER,3670 Ocean Ranch Boulevard,Oceanside,CA,92056,33,-117,HIGH,5,4,OC,,,UNIFIED OCEANSIDE,76,36,49
937,PACIFIC VIEW LEADERSHIP ELEMENTARY,6196 Childs Avenue,San Diego,CA,92139,33,-117,HIGH,1,4,SD,,,UNIFIED SAN DIEGO,80,40,53
938,PACIFIC VILLAGE,1551 SATURN BLVD.,SAN DIEGO,CA,92154,33,-117,HIGH,1,8,SD,GEN ELEM SOUTH BAY UNION,HIGH SWEETWATER UNION,,80,40,51
939,PAINTED ROCK ELEMENTARY,16711 Martincoit Road,Poway,CA,92064,33,-117,HIGH,2,2,PW,,,"UNIF BOND POWAY-SFID 2002-1,PROP U, 2014 REF",77,38,52
941,PALM ACADEMY FOR LEARNING,650 D Avenue,Coronado,CA,92118,33,-117,HIGH,1,,,,,UNIFIED CORONADO,78,39,52
942,PALM CANYON CONTINUATION HIGH,2281 Diegueno Road,Borrego Springs,CA,92004,33,-116,HIGH,5,,,,,UNIFIED BORREGO SPRINGS,71,38,50
943,PALMER WAY,2900 PALMER ST.,NATIONAL CITY,CA,91950,33,-117,HIGH,1,,,GEN ELEM NATIONAL,HIGH SWEETWATER UNION,,79,40,51
944,PALMQUIST ELEMENTARY,1999 CALIFORNIA ST.,OCEANSIDE,CA,92054,33,-117,HIGH,5,3,OC,,,UNIFIED OCEANSIDE,76,36,49
945,PALOMA ELEMENTARY,660 CAMINO MAGNIFICO,SAN MARCOS,CA,92069,33,-117,HIGH,5,4,SM,,,UNIFIED SAN MARCOS,75,38,50
946,PALOMAR ELEMENTARY,300 EAST PALOMAR ST.,CHULA VISTA,CA,91911,33,-117,HIGH,1,4,CV,"GEN BOND CHULA VISTA-SFID 1 2012C,PROP E 11/06/12",HIGH SWEETWATER UNION,,80,40,51
947,PALOMAR FAMILY YMCA,1050 NORTH BROADWAY,ESCONDIDO,CA,92026,33,-117,HIGH,3,1,ES,GEN ELEM ESCONDIDO UNION,HIGH ESCONDIDO UNION,,75,38,50
948,PALOMAR HIGH,480 Palomar Street,Chula Vista,CA,91911,33,-117,HIGH,1,4,CV,"GEN BOND CHULA VISTA-SFID 1 2012C,PROP E 11/06/12",HIGH SWEETWATER UNION,,80,40,51
950,PARADISE HILLS ELEMENTARY,5816 Alleghany Street,San Diego,CA,92139,33,-117,HIGH,1,4,SD,,,UNIFIED SAN DIEGO,79,40,53
951,PARADISE HILLS REC CENTER,6610 POTOMAC STREET,SAN DIEGO,CA,92139,33,-117,HIGH,1,4,SD,,,UNIFIED SAN DIEGO,79,40,53
953,PARK DALE LANE ELEMENTARY,2050 Park Dale Lane,Encinitas,CA,92024,33,-117,HIGH,3,4,EN,GEN ELEM ENCINITAS UNION,HIGH SAN DIEGUITO UNION,,76,36,49
954,PARK DE LA CRUZ,3901 LANDIS STREET,SAN DIEGO,CA,92105,33,-117,HIGH,4,9,SD,,,UNIFIED SAN DIEGO,80,40,51
957,PARK VILLAGE ELEMENTARY,7930 Park Village Road,San Diego,CA,92129,33,-117,HIGH,3,6,SD,,,UNIFIED POWAY,77,39,52
958,PARKVIEW ELEMENTARY,575 JUNIPER ST.,CHULA VISTA,CA,91911,33,-117,HIGH,1,3,CV,"GEN BOND CHULA VISTA-SFID 1 2012C,PROP E 11/06/12",HIGH SWEETWATER UNION,,80,40,53
959,PARKWAY MIDDLE,9009 Park Plaza Drive,La Mesa,CA,91942,33,-117,HIGH,2,,,GEN ELEM LA MESA-SPRING VALLEY,HIGH GROSSMONT UNION,,79,38,53
960,PATHWAYS ACADEMY CHARTER,31505 Old River Road,Bonsall,CA,92003,33,-117,HIGH,5,,,,,UNIFIED BONSALL,75,38,50
961,PAUL ECKE-CENTRAL ELEMENTARY,185 Union Street,Encinitas,CA,92024,33,-117,HIGH,3,2,EN,GEN ELEM ENCINITAS UNION,HIGH SAN DIEGUITO UNION,,76,36,49
962,PAUMA ELEMENTARY,33158 Cole Grade Road,Pauma Valley,CA,92061,33,-117,HIGH,5,,,,,UNIFIED VALLEY CENTER-PAUMA,75,38,50
963,PAYNE FAMILY BRANCH (FORMERLY NATIONAL CITY BRANCH),1430 D AVE,NATIONAL CITY,CA,91950,33,-117,HIGH,1,,,GEN ELEM NATIONAL,HIGH SWEETWATER UNION,,80,40,51
964,PENN ATHLETIC FIELD,2555 DUSK AVENUE,SAN DIEGO,CA,92139,33,-117,HIGH,1,4,SD,,,UNIFIED SAN DIEGO,79,40,53
965,PENN ELEMENTARY,2797 Utica Drive,San Diego,CA,92139,33,-117,HIGH,1,4,SD,,,UNIFIED SAN DIEGO,79,40,53
966,PEPPER DRIVE ELEMENTARY,1935 Marlinda Way,El Cajon,CA,92021,33,-117,HIGH,2,,,GEN ELEM SANTEE,HIGH GROSSMONT UNION,,71,38,50
967,PERKINS K-8,1770 MAIN ST.,SAN DIEGO,CA,92113,33,-117,HIGH,1,8,SD,,,UNIFIED SAN DIEGO,80,40,51
968,PERRY ELEMENTARY,6290 ORISKANY RD.,SAN DIEGO,CA,92139,33,-117,HIGH,1,4,SD,,,UNIFIED SAN DIEGO,79,40,53
969,PERSHING MIDDLE,8204 San Carlos Drive,San Diego,CA,92119,33,-117,HIGH,2,7,SD,,,UNIFIED SAN DIEGO,77,39,52
970,PHOENIX HIGH,1600 North Cuyamaca Street,El Cajon,CA,92020,33,-117,HIGH,2,1,EC,GEN ELEM CAJON VALLEY UNION,HIGH GROSSMONT UNION,,71,38,53
973,PINE VALLEY MIDDLE,7454 Pine Boulevard,Pine Valley,CA,91962,33,-117,HIGH,2,,,,,UNIFIED MT EMPIRE,71,38,50
974,PIONEER ELEMENTARY,980 NORTH ASH ST.,ESCONDIDO,CA,92027,33,-117,HIGH,3,1,ES,GEN ELEM ESCONDIDO UNION,HIGH ESCONDIDO UNION,,75,38,50
976,PIVOT CHARTER SCHOOL - SAN DIEGO,"1030 La Bonita Drive, Suite 100",San Marcos,CA,92078,33,-117,HIGH,5,,,,,"UNIF BOND SAN MARCOS SFID #1-6/04/96, 2004-1 REF",75,38,50
977,PIVOT CHARTER SCHOOL - SAN DIEGO II,1030 La Bonita Drive Suite 100,San Marcos,CA,92078,33,-117,HIGH,5,,,,,"UNIF BOND SAN MARCOS SFID #1-6/04/96, 2004-1 REF",75,38,50
978,POINSETTIA ELEMENTARY,2445 Mica Road,Carlsbad,CA,92009,33,-117,HIGH,5,3,CB,,,UNIFIED CARLSBAD,76,36,49
979,POINT LOMA HIGH,2335 Chatsworth Boulevard,San Diego,CA,92106,33,-117,HIGH,4,2,SD,,,UNIFIED SAN DIEGO,78,39,52
980,POMERADO ELEMENTARY,12321 Ninth Street,Poway,CA,92064,33,-117,HIGH,2,1,PW,,,"UNIF BOND POWAY-SFID 2002-1,PROP U, 2014 REF",77,38,52
981,PORTER ELEMENTARY,4800 T Street,San Diego,CA,92113,33,-117,HIGH,1,4,SD,,,UNIFIED SAN DIEGO,79,40,51
982,PORTER ELEMENTARY (NORTH CAMPUS) -ANNEX,445 S. 47TH STREET,SAN DIEGO,CA,92113,33,-117,HIGH,1,4,SD,,,UNIFIED SAN DIEGO,79,40,51
984,POTRERO ELEMENTARY,24875 Potrero Valley Road,Potrero,CA,91963,33,-117,HIGH,2,,,,,UNIFIED MT EMPIRE,71,40,51
985,POWAY ADULT,13626 Twin Peaks Road,Poway,CA,92064,33,-117,HIGH,2,3,PW,,,"UNIF BOND POWAY-SFID 2002-1,PROP U, 2014 REF",77,38,52
986,POWAY HIGH,15500 Espola Road,Poway,CA,92064,33,-117,HIGH,2,2,PW,,,"UNIF BOND POWAY-SFID 2002-1,PROP U, 2014 REF",77,38,52
987,PREUSS SCHOOL UCSD,9500 Gilman Drive,La Jolla,CA,92093,33,-117,HIGH,4,1,SD,,,UNIFIED SAN DIEGO,78,39,49
988,PRIDE ACADEMY AT PROSPECT AVENUE,9303 PROSPECT AVE.,SANTEE,CA,92071,33,-117,HIGH,2,3,ST,GEN ELEM SANTEE,HIGH GROSSMONT UNION,,71,38,50
989,PROJECT ACCESS,378 SO. MEADOWBROOK DRIVE,SAN DIEGO,CA,92114,33,-117,HIGH,4,4,SD,,,UNIFIED SAN DIEGO,79,40,53
992,QUANTUM ACADEMY,420 North Falconer Road,Escondido,CA,92027,33,-117,HIGH,3,3,ES,GEN ELEM ESCONDIDO UNION,HIGH ESCONDIDO UNION,,75,38,50
993,QUEST ACADEMY,8805 Tyler Street,Spring Valley,CA,91977,33,-117,HIGH,2,,,GEN ELEM LA MESA-SPRING VALLEY,HIGH GROSSMONT UNION,,71,40,53
994,R. ROGER ROWE ELEMENTARY,5927 La Granada,Rancho Santa Fe,CA,92067,33,-117,HIGH,5,,,GEN ELEM RANCHO SANTA FE,HIGH SAN DIEGUITO UNION,,77,38,49
995,R. ROGER ROWE MIDDLE,5927 La Granada,Rancho Santa Fe,CA,92067,33,-117,HIGH,5,,,GEN ELEM RANCHO SANTA FE,HIGH SAN DIEGUITO UNION,,77,38,49
996,RAI ONLINE CHARTER,5253 Fifth Street,Fallbrook,CA,92028,33,-117,HIGH,5,,,GEN ELEM VALLECITOS,HIGH FALLBROOK UNION,,75,38,50
997,RAMONA ADULT,720 Ninth Street,Ramona,CA,92065,33,-117,HIGH,2,,,,,UNIFIED RAMONA,71,38,50
998,RAMONA BRANCH,622 E ST,RAMONA,CA,92065,33,-117,HIGH,2,,,,,UNIFIED RAMONA,71,38,50
999,RAMONA BRANCH LIBRARY,1275 MAIN STREET,RAMONA,CA,92065,33,-117,HIGH,2,,,,,UNIFIED RAMONA,71,38,50
1000,RAMONA COMMUNITY,1010 Ramona Street,Ramona,CA,92065,33,-117,HIGH,2,,,,,UNIFIED RAMONA,71,38,50
1000,RAMONA COMMUNITY MONTESSORI,1010 Ramona Street,Ramona,CA,92065,33,-117,HIGH,2,,,,,UNIFIED RAMONA,71,38,50
1001,RAMONA ELEMENTARY,415 EIGHTH ST.,RAMONA,CA,92065,33,-117,HIGH,2,,,,,UNIFIED RAMONA,71,38,50
1002,RAMONA HIGH,1401 HANSON LN.,RAMONA,CA,92065,33,-117,HIGH,2,,,,,UNIFIED RAMONA,71,38,50
1003,RANCHO BERNARDO HIGH,13010 Paseo Lucido,San Diego,CA,92128,33,-117,HIGH,3,5,SD,,,"UNIF BOND POWAY-SFID 2002-1,PROP U, 2014 REF",77,39,52
1004,RANCHO BUENA VISTA HIGH,1601 LONGHORN DR.,VISTA,CA,92081,33,-117,HIGH,5,4,VS,,,UNIFIED VISTA,76,36,49
1005,RANCHO DE LA NACION,1830 East Division Street,National City,CA,91950,33,-117,HIGH,1,,,GEN ELEM NATIONAL,HIGH SWEETWATER UNION,,80,40,51
1006,RANCHO DEL REY MIDDLE,1174 East J Street,Chula Vista,CA,91910,33,-117,HIGH,1,3,CV,GEN ELEM CHULA VISTA,HIGH SWEETWATER UNION,,80,40,53
1007,RANCHO ELEMENTARY,8845 NOELINE AVE.,SPRING VALLEY,CA,91977,33,-117,HIGH,2,,,GEN ELEM LA MESA-SPRING VALLEY,HIGH GROSSMONT UNION,,79,40,53
1008,RANCHO MINERVA MIDDLE,2245 FOOTHILL DR.,VISTA,CA,92084,33,-117,HIGH,5,2,VS,,,UNIFIED VISTA,76,36,49
1009,RANCHO SAN DIEGO ELEMENTARY,12151 Calle Albara,El Cajon,CA,92019,33,-117,HIGH,2,,,GEN ELEM CAJON VALLEY UNION,HIGH GROSSMONT UNION,,71,38,50
1010,REACH ACADEMY,230 JAMACHA RD.,EL CAJON,CA,92019,33,-117,HIGH,2,3,EC,GEN ELEM CAJON VALLEY UNION,HIGH GROSSMONT UNION,,71,38,50
1011,REDDING (RAY) HIGH (CONTINUATION),1517 Highway 78,Julian,CA,92036,33,-117,HIGH,2,,,GEN ELEM JULIAN UNION,HIGH JULIAN UNION,,71,38,50
1012,REFLECTIONS,8374 HERCULES STREET,LA MESA,CA,91942,33,-117,HIGH,2,,,GEN ELEM LA MESA-SPRING VALLEY,HIGH GROSSMONT UNION,,79,38,53
1015,REIDY CREEK ELEMENTARY,2869 North Broadway,Escondido,CA,92026,33,-117,HIGH,3,2,ES,GEN ELEM ESCONDIDO UNION,HIGH ESCONDIDO UNION,,75,38,50
1016,RENETTE PARK COMMUNITY CENTER,935 EMERALD AVE.,EL CAJON,CA,92020,33,-117,HIGH,2,4,EC,GEN ELEM CAJON VALLEY UNION,HIGH GROSSMONT UNION,,71,38,53
1017,REYNOLDS ELEMENTARY,4575 DOUGLAS DR.,OCEANSIDE,CA,92057,33,-117,HIGH,5,2,OC,,,UNIFIED OCEANSIDE,76,36,49
1018,RICE (LILIAN J.) ELEMENTARY,915 Fourth Avenue,Chula Vista,CA,91911,33,-117,HIGH,1,4,CV,"GEN BOND CHULA VISTA-SFID 1 2012C,PROP E 11/06/12",HIGH SWEETWATER UNION,,80,40,51
1019,RICHLAND ELEMENTARY,910 Borden Road,San Marcos,CA,92069,33,-117,HIGH,5,4,SM,,,"UNIF BOND SAN MARCOS SFID #1-6/04/96, 2004-1 REF",75,38,50
1020,RILEY/NEW DAWN,5650 Mount Ackerly Drive,San Diego,CA,92111,33,-117,HIGH,4,6,SD,,,UNIFIED SAN DIEGO,77,39,52
1022,RINCON MIDDLE,925 Lehner Avenue,Escondido,CA,92026,33,-117,HIGH,3,2,ES,GEN ELEM ESCONDIDO UNION,HIGH ESCONDIDO UNION,,75,38,50
1023,RIO SECO ELEMENTARY,9545 Cuyamaca Street,Santee,CA,92071,33,-117,HIGH,2,1,ST,GEN ELEM SANTEE,HIGH GROSSMONT UNION,,71,38,50
1024,RIOS ELEMENTARY,14314 Rios Canyon Road,El Cajon,CA,92021,33,-117,HIGH,2,,,GEN ELEM CAJON VALLEY UNION,HIGH GROSSMONT UNION,,71,38,50
1025,RIVER VALLEY CHARTER,9707 1/2 Marilla Drive,Lakeside,CA,92040,33,-117,HIGH,2,,,GEN ELEM LAKESIDE UNION,HIGH GROSSMONT UNION,,71,38,50
1026,RIVERVIEW ELEMENTARY,9308 Winter Gardens Boulevard,Lakeside,CA,92040,33,-117,HIGH,2,,,GEN ELEM LAKESIDE UNION,HIGH GROSSMONT UNION,,71,38,50
1027,ROBERT EGGER SR. SOUTH BAY RECREATION CENTER,1885 CORONADO AVE.,SAN DIEGO,CA,92154,33,-117,HIGH,1,8,SD,GEN ELEM SOUTH BAY UNION,HIGH SWEETWATER UNION,,80,40,51
1028,ROCK SPRINGS ELEMENTARY,1155 DEODAR RD.,ESCONDIDO,CA,92026,33,-117,HIGH,3,2,ES,GEN ELEM ESCONDIDO UNION,HIGH ESCONDIDO UNION,,75,38,50
1029,RODRIGUEZ ELEMENTARY,825 South 31st Street,San Diego,CA,92113,33,-117,HIGH,1,8,SD,,,UNIFIED SAN DIEGO,80,40,51
1030,ROGERS (GREG) ELEMENTARY,510 EAST NAPLES ST.,CHULA VISTA,CA,91911,33,-117,HIGH,1,3,CV,"GEN BOND CHULA VISTA-SFID 1 2012C,PROP E 11/06/12",HIGH SWEETWATER UNION,,80,40,53
1031,ROHR (FRED H.) ELEMENTARY,1540 Malta Avenue,Chula Vista,CA,91911,33,-117,HIGH,1,4,CV,"GEN BOND CHULA VISTA-SFID 1 2012C,PROP E 11/06/12",HIGH SWEETWATER UNION,,80,40,51
1032,ROLANDO ELEMENTARY,6925 TOWER ST.,LA MESA,CA,91942,33,-117,HIGH,2,,,GEN ELEM LA MESA-SPRING VALLEY,HIGH GROSSMONT UNION,,79,38,53
1033,ROLANDO PARK ELEMENTARY,6620 MARLOWE DR.,SAN DIEGO,CA,92115,33,-117,HIGH,4,4,SD,,,UNIFIED SAN DIEGO,79,39,53
1034,ROLLING HILLS ELEMENTARY,15255 Penasquitos Drive,San Diego,CA,92129,33,-117,HIGH,3,5,SD,,,"UNIF BOND POWAY-SFID 2002-1,PROP U, 2014 REF",77,39,52
1035,RON ROBERTS BRANCH (FORMERLY LINDA VISTA BRANCH),2230 E JEWETT ST,SAN DIEGO,CA,92111,33,-117,HIGH,4,7,SD,,,UNIFIED SAN DIEGO,79,39,53
1036,ROOSEVELT INTERNATIONAL MIDDLE,3366 PARK BLVD.,SAN DIEGO,CA,92101,33,-117,HIGH,4,3,SD,,,UNIFIED SAN DIEGO,78,39,53
1037,ROOSEVELT MIDDLE,850 SAGEWOOD DR.,OCEANSIDE,CA,92057,33,-117,HIGH,5,4,OC,,,UNIFIED VISTA,76,36,49
1039,ROSA PARKS ELEMENTARY,4510 Landis Street,San Diego,CA,92105,33,-117,HIGH,4,9,SD,,,UNIFIED SAN DIEGO,80,40,51
1040,ROSE ELEMENTARY,906 North Rose Avenue,Escondido,CA,92027,33,-117,HIGH,3,1,ES,GEN ELEM ESCONDIDO UNION,HIGH ESCONDIDO UNION,,75,38,50
1042,ROSEBANK ELEMENTARY,80 Flower Street,Chula Vista,CA,91910,33,-117,HIGH,1,2,CV,"GEN BOND CHULA VISTA-SFID 1 2012C,PROP E 11/06/12",HIGH SWEETWATER UNION,,80,40,51
1043,ROSS ELEMENTARY,7470 BAGDAD ST.,SAN DIEGO,CA,92111,33,-117,HIGH,4,6,SD,,,UNIFIED SAN DIEGO,77,39,52
1045,ROWAN ELEMENTARY,1755 Rowan Street,San Diego,CA,92105,33,-117,HIGH,4,9,SD,,,UNIFIED SAN DIEGO,80,40,51
1047,SAGE CANYON,5290 Harvest Run Drive,San Diego,CA,92130,33,-117,HIGH,3,1,SD,GEN ELEM DEL MAR UNION,HIGH SAN DIEGUITO UNION,,77,39,52
1048,SAGE CREEK HIGH,3900 Cannon Road,Carlsbad,CA,92008,33,-117,HIGH,5,2,CB,,,UNIFIED CARLSBAD,76,36,49
1050,SALT CREEK ELEMENTARY,1055 Hunte Parkway,Chula Vista,CA,91914,33,-117,HIGH,1,1,CV,GEN ELEM CHULA VISTA,HIGH SWEETWATER UNION,,79,40,53
1051,SALVATION ARMY KROC CENTER,6605 UNIVERSITY AVENUE,SAN DIEGO,CA,92115,33,-117,HIGH,4,4,SD,,,UNIFIED SAN DIEGO,79,39,53
1054,SAN ALTOS ELEMENTARY,1750 MADERA ST.,LEMON GROVE,CA,91945,33,-117,HIGH,2,,,GEN ELEM LEMON GROVE,HIGH GROSSMONT UNION,,79,38,53
1055,SAN DIEGO ADULT,"2555 Camino Del Rio South, Suite 155",San Diego,CA,92108,33,-117,HIGH,4,7,SD,,,UNIFIED SAN DIEGO,79,39,53
1056,SAN DIEGO BUSINESS/LEADERSHIP,1405 PARK BLVD.,SAN DIEGO,CA,92101,33,-117,HIGH,4,3,SD,,,UNIFIED SAN DIEGO,78,39,52
1058,SAN DIEGO CONTINUING EDUCATION,4343 Ocean View Boulevard,San Diego,CA,92113,33,-117,HIGH,1,4,SD,,,UNIFIED SAN DIEGO,80,40,51
1059,SAN DIEGO COOPERATIVE CHARTER,7260 Linda Vista Road,San Diego,CA,92111,33,-117,HIGH,4,7,SD,,,UNIFIED SAN DIEGO,79,39,53
1060,SAN DIEGO COOPERATIVE CHARTER SCHOOL 2,3550 Logan Avenue,San Diego,CA,92113,33,-117,HIGH,1,9,SD,,,UNIFIED SAN DIEGO,80,40,51
1061,SAN DIEGO COUNTY COMMUNITY,"6401 Linda Vista Road, Room 216",San Diego,CA,92111,33,-117,HIGH,4,7,SD,,,UNIFIED SAN DIEGO,79,39,53
1062,SAN DIEGO COUNTY COURT,2801 Meadow Lark Drive,San Diego,CA,92123,33,-117,HIGH,4,7,SD,,,UNIFIED SAN DIEGO,79,39,53
1063,SAN DIEGO COUNTY ROP,"6401 Linda Vista Road, Room 408",San Diego,CA,92111,33,-117,HIGH,4,7,SD,,,UNIFIED SAN DIEGO,79,39,53
1064,SAN DIEGO COUNTY SPECIAL EDUCATION,"6401 Linda Vista Road, Room 409",San Diego,CA,92111,33,-117,HIGH,4,7,SD,,,UNIFIED SAN DIEGO,79,39,53
1067,SAN DIEGO GLOBAL VISION ACADEMY MIDDLE,3430 School Street,San Diego,CA,92116,33,-117,HIGH,4,3,SD,,,UNIFIED SAN DIEGO,78,39,53
1068,SAN DIEGO INTERNATIONAL STUDIES,1405 Park Boulevard,San Diego,CA,92101,33,-117,HIGH,4,3,SD,,,UNIFIED SAN DIEGO,78,39,52
1069,SAN DIEGO METRO CAREER AND TECH,"7250 Mesa College Drive, Room L-502",San Diego,CA,92111,33,-117,HIGH,4,6,SD,,,UNIFIED SAN DIEGO,77,39,52
1070,SAN DIEGO MISSION ACADEMY,30951 Highway 79,Warner Springs,CA,92086,33,-117,HIGH,5,,,,,UNIFIED WARNER,71,38,50
1071,SAN DIEGO MVP ARTS,1405 Park Boulevard,San Diego,CA,92101,33,-117,HIGH,4,3,SD,,,UNIFIED SAN DIEGO,78,39,52
1072,SAN DIEGO NEIGHBORHOOD HOMESCHOOLS,"3548 Seagate Way, Suite 140",Oceanside,CA,92056,33,-117,HIGH,5,4,OC,,,UNIFIED OCEANSIDE,76,36,49
1073,SAN DIEGO SCIENCE AND TECHNOLOGY,1405 Park Boulevard,San Diego,CA,92101,33,-117,HIGH,4,3,SD,,,UNIFIED SAN DIEGO,78,39,52
1074,SAN DIEGO SCPA,2425 Dusk Drive,San Diego,CA,92139,33,-117,HIGH,1,4,SD,,,UNIFIED SAN DIEGO,79,40,53
1075,SAN DIEGO VIRTUAL,2878 Camino Del Rio South Suite 410,San Diego,CA,92108,33,-117,HIGH,4,7,SD,,,UNIFIED SAN DIEGO,79,39,53
1076,SAN DIEGO WORKFORCE INNOVATION HIGH,2 Euclid Avenue Suite A,National City,CA,91950,33,-117,HIGH,1,,,GEN ELEM NATIONAL,HIGH SWEETWATER UNION,,80,40,51
1078,SAN DIEGO YOUTH SERVICES,3845 SPRING DRIVE,SPRING VALLEY,CA,91977,33,-117,HIGH,2,,,GEN ELEM LA MESA-SPRING VALLEY,HIGH GROSSMONT UNION,,71,38,53
1079,SAN DIEGUITO ADULT HIGH,675 Balour Drive,Encinitas,CA,92024,33,-117,HIGH,3,3,EN,GEN ELEM ENCINITAS UNION,HIGH SAN DIEGUITO UNION,,76,36,49
1081,SAN DIEGUITO HS ACADEMY,800 Santa Fe Drive,Encinitas,CA,92024,33,-117,HIGH,3,2,EN,GEN ELEM ENCINITAS UNION,HIGH SAN DIEGUITO UNION,,76,36,49
1082,SAN ELIJO ELEMENTARY,1615 Schoolhouse Way,San Marcos,CA,92078,33,-117,HIGH,5,2,SM,,,"UNIF BOND SAN MARCOS SFID #1-6/04/96, 2004-1 REF",75,38,50
1083,SAN ELIJO MIDDLE,1600 Schoolhouse Way,San Marcos,CA,92078,33,-117,HIGH,5,2,SM,,,"UNIF BOND SAN MARCOS SFID #1-6/04/96, 2004-1 REF",75,38,50
1084,SAN JOSE VALLEY CONTINUATION HIGH,30951 Highway 79,Warner Springs,CA,92086,33,-117,HIGH,5,,,,,UNIFIED WARNER,71,38,50
1085,SAN LUIS REY ELEMENTARY,3535 HACIENDA DR.,OCEANSIDE,CA,92054,33,-117,HIGH,5,1,OC,,,UNIFIED OCEANSIDE,76,36,49
1086,SAN MARCOS ADULT,158 Cassou Road,San Marcos,CA,92069,33,-117,HIGH,5,4,SM,,,"UNIF BOND SAN MARCOS SFID #1-6/04/96, 2004-1 REF",75,38,50
1087,SAN MARCOS ELEMENTARY,1 TIGER WAY,SAN MARCOS,CA,92069,33,-117,HIGH,5,1,SM,,,"UNIF BOND SAN MARCOS SFID #1-6/04/96, 2004-1 REF",75,38,50
1088,SAN MARCOS HIGH,1615 SAN MARCOS BLVD.,SAN MARCOS,CA,92078,33,-117,HIGH,5,3,SM,,,"UNIF BOND SAN MARCOS SFID #1-6/04/96, 2004-1 REF",75,38,50
1089,SAN MARCOS MIDDLE,650 West Mission Road,San Marcos,CA,92069,33,-117,HIGH,5,1,SM,,,"UNIF BOND SAN MARCOS SFID #1-6/04/96, 2004-1 REF",75,38,50
1090,SAN MIGUEL ELEMENTARY,7059 San Miguel Avenue,Lemon Grove,CA,91945,33,-117,HIGH,2,,,GEN ELEM LEMON GROVE,HIGH GROSSMONT UNION,,79,38,53
1091,SAN ONOFRE ELEMENTARY,200 Pate Road,San Clemente,CA,92672,33,-118,HIGH,5,,,GEN ELEM FALLBROOK UNION,HIGH FALLBROOK UNION,,76,36,49
1092,SAN PASQUAL ACADEMY,17701 San Pasqual Valley Road,Escondido,CA,92025,33,-117,HIGH,3,,,GEN ELEM SAN PASQUAL UNION,HIGH ESCONDIDO UNION,,71,38,50
1094,SAN PASQUAL HIGH,3300 BEAR VALLEY PKWY.,ESCONDIDO,CA,92025,33,-117,HIGH,3,4,ES,GEN ELEM ESCONDIDO UNION,HIGH ESCONDIDO UNION,,75,38,50
1095,SAN PASQUAL UNION ELEMENTARY,15305 Rockwood Road,Escondido,CA,92027,33,-117,HIGH,3,5,SD,GEN ELEM SAN PASQUAL UNION,HIGH ESCONDIDO UNION,,77,39,52
1096,SAN YSIDRO ADULT EDUCATION CENTER,4220 OTAY MESA RD.,SAN YSIDRO,CA,92173,33,-117,HIGH,1,8,SD,GEN ELEM SAN YSIDRO,HIGH SWEETWATER UNION,,80,40,51
1097,SAN YSIDRO COMMUNITY ACTIVITY CENTER,179 DIZA ROAD,SAN YSIDRO,CA,92173,33,-117,HIGH,1,8,SD,GEN ELEM SAN YSIDRO,HIGH SWEETWATER UNION,,80,40,51
1098,SAN YSIDRO HIGH,5353 Airway Road,San Diego,CA,92154,33,-117,HIGH,1,8,SD,GEN ELEM SAN YSIDRO,HIGH SWEETWATER UNION,,80,40,51
1099,SAN YSIDRO MIDDLE,4345 Otay Mesa Road,San Ysidro,CA,92173,33,-117,HIGH,1,8,SD,GEN ELEM SAN YSIDRO,HIGH SWEETWATER UNION,,80,40,51
1100,SANDBURG ELEMENTARY,11230 Avenida del Gato,San Diego,CA,92126,33,-117,HIGH,3,6,SD,,,UNIFIED SAN DIEGO,77,39,52
1101,SANTA MARGARITA ACADEMY,400 West Elder Street,Fallbrook,CA,92028,33,-117,HIGH,5,,,GEN ELEM FALLBROOK UNION,HIGH FALLBROOK UNION,,75,38,50
1102,SANTA MARGARITA ELEMENTARY,1 Carnes Road,Oceanside,CA,92058,33,-117,HIGH,5,,,,,UNIFIED OCEANSIDE,76,36,49
1103,SANTA ROSA COMMUNITY DAY,2243 Diegueno Road,Borrego Springs,CA,92004,33,-116,HIGH,5,,,,,UNIFIED BORREGO SPRINGS,71,38,50
1105,SANTANA ADULT CENTER,9915 North Magnolia,Santee,CA,92071,33,-117,HIGH,2,2,ST,GEN ELEM SANTEE,HIGH GROSSMONT UNION,,71,38,50
1106,SANTANA HIGH,9915 NORTH MAGNOLIA AVE.,SANTEE,CA,92071,33,-117,HIGH,2,2,ST,GEN ELEM SANTEE,HIGH GROSSMONT UNION,,71,38,50
1107,SANTEE ALTERNATIVE,10250 El Nopal,Santee,CA,92071,33,-117,HIGH,2,1,ST,GEN ELEM SANTEE,HIGH GROSSMONT UNION,,71,38,50
1108,SANTEE ASES PROGRAM,9303 PROSPECT AVE,SANTEE,CA,92071,33,-117,HIGH,2,3,ST,GEN ELEM SANTEE,HIGH GROSSMONT UNION,,71,38,50
1109,SANTEE RECREATION CENTER,10601 MAGNOLIA AVE BUILDING #6,SANTEE,CA,92071,33,-117,HIGH,2,1,ST,GEN ELEM SANTEE,HIGH GROSSMONT UNION,,71,38,50
1110,SANTEE SUCCESS PROGRAM,10280 North Magnolia Avenue,Santee,CA,92071,33,-117,HIGH,2,1,ST,GEN ELEM SANTEE,HIGH GROSSMONT UNION,,71,38,50
1111,SCHOLARSHIP PREP - OCEANSIDE,4070 Mission Avenue,Oceanside,CA,92057,33,-117,HIGH,5,4,OC,,,UNIFIED OCEANSIDE,76,36,49
1112,SCHOOL FOR ENTREPRENEURSHIP AND TECHNOLOGY,3540 Aero Court,San Diego,CA,92123,33,-117,HIGH,4,7,SD,,,UNIFIED SAN DIEGO,79,39,53
1113,SCHOOL OF UNIVERSAL LEARNING (SOUL),533 Lomas Santa Fe Drive,Solana Beach,CA,92075,33,-117,HIGH,3,,,GEN BOND SOLANA BEACH-SFID 2016-1 PROP JJ 11/08/16,HIGH SAN DIEGUITO UNION,,78,39,49
1114,"SCIENCE, TECHNOLOGY, ENGINEERING, ARTS, AND MATH ACADEMY AT LA PRESA",1001 Leland Street,Spring Valley,CA,91977,33,-117,HIGH,2,,,GEN ELEM LA MESA-SPRING VALLEY,HIGH GROSSMONT UNION,,71,40,53
1115,SCRIPPS ELEMENTARY,11778 Cypress Canyon Road,San Diego,CA,92131,33,-117,HIGH,3,5,SD,,,UNIFIED SAN DIEGO,77,38,52
1116,SCRIPPS RANCH HIGH,10410 Falcon Way,San Diego,CA,92131,33,-117,HIGH,3,5,SD,,,UNIFIED SAN DIEGO,77,38,52
1117,SD GLOBAL VISION ACADEMY,3430 School Street,San Diego,CA,92116,33,-117,HIGH,4,3,SD,,,UNIFIED SAN DIEGO,78,39,53
1119,SDSU UPWARD BOUND,5500 CAMPANILE DR.,SAN DIEGO,CA,92115,33,-117,HIGH,2,9,SD,,,UNIFIED SAN DIEGO,79,39,53
1120,SDSU UPWARD BOUND STAR,5500 CAMPANILE DR.,SAN DIEGO,CA,92115,33,-117,HIGH,2,9,SD,,,UNIFIED SAN DIEGO,79,39,53
1122,SEQUOIA ELEMENTARY,4690 LIMERICK AVE.,SAN DIEGO,CA,92117,33,-117,HIGH,4,6,SD,,,UNIFIED SAN DIEGO,77,39,52
1123,SERRA HIGH,5156 SANTO RD.,SAN DIEGO,CA,92124,33,-117,HIGH,3,7,SD,,,UNIFIED SAN DIEGO,77,39,52
1124,SERRA MESA PARK & REC,9020 VILLAGE GLEN DRIVE,SAN DIEGO,CA,92123,33,-117,HIGH,4,7,SD,,,UNIFIED SAN DIEGO,79,39,53
1125,SESSIONS ELEMENTARY,2150 Beryl Street,San Diego,CA,92109,33,-117,HIGH,4,2,SD,,,UNIFIED SAN DIEGO,78,39,52
1126,SEVICK SPECIAL EDUCATION,1609 East Madison Avenue,El Cajon,CA,92019,33,-117,HIGH,2,3,EC,GEN ELEM CAJON VALLEY UNION,HIGH GROSSMONT UNION,,71,38,50
1127,SHADOW HILLS ELEMENTARY,8770 Harbison Canyon Road,Alpine,CA,91901,33,-117,HIGH,2,,,GEN ELEM ALPINE UNION,HIGH GROSSMONT UNION,,71,38,50
1128,SHERMAN ELEMENTARY,301 22ND ST.,SAN DIEGO,CA,92102,33,-117,HIGH,1,8,SD,,,UNIFIED SAN DIEGO,80,40,51
1129,SHERMAN HEIGHTS COMMUNITY CENTER,2258 ISLAND AVE,SAN DIEGO,CA,92102,33,-117,HIGH,1,8,SD,,,UNIFIED SAN DIEGO,80,40,51
1130,SHOAL CREEK ELEMENTARY,11775 Shoal Creek Drive,San Diego,CA,92128,33,-117,HIGH,3,5,SD,,,UNIFIED POWAY,77,38,52
1131,SIATECH,"2611 Temple Heights Drive, Suite A",Oceanside,CA,92056,33,-117,HIGH,5,4,OC,,,UNIFIED VISTA,76,36,49
1132,SILVER GATE ELEMENTARY,1499 Venice Street,San Diego,CA,92107,33,-117,HIGH,4,2,SD,,,UNIFIED SAN DIEGO,78,39,52
1133,SILVER STRAND ELEMENTARY,1350 Leyte Road,Coronado,CA,92118,33,-117,HIGH,1,,,,,UNIFIED CORONADO,78,39,52
1134,SILVER WING ELEMENTARY,3730 Arey Drive,San Diego,CA,92154,33,-117,HIGH,1,8,SD,"GEN BOND CHULA VISTA-SFID 1 2012C,PROP E 11/06/12",HIGH SWEETWATER UNION,,80,40,51
1135,SILVER WING RECREATION CENTER,3737 AREY DRIVE,SAN DIEGO,CA,92154,33,-117,HIGH,1,8,SD,"GEN BOND CHULA VISTA-SFID 1 2012C,PROP E 11/06/12",HIGH SWEETWATER UNION,,80,40,51
1136,SKYLINE ELEMENTARY,606 Lomas Santa Fe Drive,Solana Beach,CA,92075,33,-117,HIGH,3,,,GEN BOND SOLANA BEACH-SFID 2016-1 PROP JJ 11/08/16,HIGH SAN DIEGUITO UNION,,78,39,49
1137,SKYLINE HILLS REC CENTER,8285 SKYLINE DRIVE,SAN DIEGO,CA,92114,33,-117,HIGH,4,4,SD,,,UNIFIED SAN DIEGO,79,40,53
1138,SMYTHE ELEMENTARY,1880 Smythe Avenue,San Ysidro,CA,92173,33,-117,HIGH,1,8,SD,GEN ELEM SAN YSIDRO,HIGH SWEETWATER UNION,,80,40,51
1139,SOLANA HIGHLANDS ELEMENTARY,3520 Long Run Drive,San Diego,CA,92130,33,-117,HIGH,3,1,SD,GEN BOND SOLANA BEACH-SFID 2016-1 PROP JJ 11/08/16,HIGH SAN DIEGUITO UNION,,77,39,52
1140,SOLANA PACIFIC ELEMENTARY,3901 Townsgate Drive,San Diego,CA,92130,33,-117,HIGH,3,1,SD,GEN BOND SOLANA BEACH-SFID 2016-1 PROP JJ 11/08/16,HIGH SAN DIEGUITO UNION,,77,39,52
1141,SOLANA RANCH ELEMENTARY,13605 Pacific Highlands Ranch Parkway,San Diego,CA,92130,33,-117,HIGH,3,1,SD,GEN ELEM SOLANA BEACH,HIGH SAN DIEGUITO UNION,,77,39,52
1142,SOLANA SANTA FE ELEMENTARY,6570 El Apajo,Rancho Santa Fe,CA,92067,33,-117,HIGH,5,,,GEN BOND SOLANA BEACH-SFID 2016-1 PROP JJ 11/08/16,HIGH SAN DIEGUITO UNION,,77,38,49
1143,SOLANA VISTA ELEMENTARY,780 Santa Victoria Avenue,Solana Beach,CA,92075,33,-117,HIGH,3,,,GEN BOND SOLANA BEACH-SFID 2016-1 PROP JJ 11/08/16,HIGH SAN DIEGUITO UNION,,78,39,49
1147,SOUTH CLAIREMONT PARK & REC,3605 CLAIREMONT DRIVE,SAN DIEGO,CA,92117,33,-117,HIGH,4,2,SD,,,UNIFIED SAN DIEGO,78,39,52
1148,SOUTH CREST REC CENTER,4149 NEWTON AVENUE,SAN DIEGO,CA,92113,33,-117,HIGH,1,9,SD,,,UNIFIED SAN DIEGO,80,40,51
1149,SOUTH OCEANSIDE ELEMENTARY,1806 SOUTH HORNE ST.,OCEANSIDE,CA,92054,33,-117,HIGH,5,3,OC,,,UNIFIED OCEANSIDE,76,36,49
1152,SOUTHWEST MIDDLE,2710 IRIS ST.,SAN DIEGO,CA,92154,33,-117,HIGH,1,8,SD,GEN ELEM SOUTH BAY UNION,HIGH SWEETWATER UNION,,80,40,51
1153,SOUTHWEST SENIOR HIGH,1685 HOLLISTER ST.,SAN DIEGO,CA,92154,33,-117,HIGH,1,8,SD,GEN ELEM SOUTH BAY UNION,HIGH SWEETWATER UNION,,80,40,51
1154,SPECIAL EDUCATION PRESCHOOL,"84 East J Street, Room 301",Chula Vista,CA,91910,33,-117,HIGH,1,2,CV,"GEN BOND CHULA VISTA-SFID 1 2012C,PROP E 11/06/12",HIGH SWEETWATER UNION,,80,40,51
1155,SPECIAL EDUCATION TRANSITION CLASS,2065 EAST VALLEY PARKWAY,ESCONDIDO,CA,92027,33,-117,HIGH,3,3,ES,GEN ELEM ESCONDIDO UNION,HIGH ESCONDIDO UNION,,75,38,50
1156,SPENCER VALLEY ELEMENTARY,4414 Highway 78 and 79,Santa Ysabel,CA,92036,33,-117,HIGH,2,,,GEN ELEM SPENCER VALLEY,HIGH JULIAN UNION,,71,38,50
1157,SPORTS PARK OF IMPERIAL BEACH,425 IMPERIAL BEACH BLVD,IMPERIAL BEACH,CA,91932,33,-117,HIGH,1,,,GEN ELEM SOUTH BAY UNION,HIGH SWEETWATER UNION,,78,40,51
1160,SPRECKELS ELEMENTARY,6033 Stadium Street,San Diego,CA,92122,33,-117,HIGH,3,1,SD,,,UNIFIED SAN DIEGO,78,39,52
1161,SPRING VALLEY ACADEMY,3900 CONRAD DR.,SPRING VALLEY,CA,91977,33,-117,HIGH,2,,,GEN ELEM LA MESA-SPRING VALLEY,HIGH GROSSMONT UNION,,71,38,53
1162,SPRING VALLEY COMMUNITY CENTER,8735 JAMACHA BLVD,SPRING VALLEY,CA,91977,33,-117,HIGH,2,,,GEN ELEM LA MESA-SPRING VALLEY,HIGH GROSSMONT UNION,,71,40,53
1163,SPRING VALLEY LIBRARY,836 KEMPTON STREET,SPRING VALLEY,CA,91977,33,-117,HIGH,2,,,GEN ELEM LA MESA-SPRING VALLEY,HIGH GROSSMONT UNION,,71,40,53
1164,SPRING VALLEY MIDDLE,3900 CONRAD DR.,SPRING VALLEY,CA,91977,33,-117,HIGH,2,,,GEN ELEM LA MESA-SPRING VALLEY,HIGH GROSSMONT UNION,,71,38,53
1165,SPRING VALLEY REC CLUB,838 KEMPTON STREET,SPRING VALLEY,CA,91977,33,-117,HIGH,2,,,GEN ELEM LA MESA-SPRING VALLEY,HIGH GROSSMONT UNION,,71,40,53
1175,STANDLEY MIDDLE,6298 Radcliffe Drive,San Diego,CA,92122,33,-117,HIGH,3,1,SD,,,UNIFIED SAN DIEGO,78,39,52
1176,STEELE CANYON ADULT CENTER,12440 Campo Road,Spring Valley,CA,91978,33,-117,HIGH,2,,,GEN ELEM CAJON VALLEY UNION,HIGH GROSSMONT UNION,,71,40,50
1177,STEELE CANYON HIGH,12440 CAMPO RD.,SPRING VALLEY,CA,91978,33,-117,HIGH,2,,,GEN ELEM CAJON VALLEY UNION,HIGH GROSSMONT UNION,,71,40,50
1182,STOCKTON REC CENTER,330 32ND STREET,SAN DIEGO,CA,92102,33,-117,HIGH,1,8,SD,,,UNIFIED SAN DIEGO,80,40,51
1183,STONE RANCH ELEMENTARY,16150 4S Ranch Parkway,San Diego,CA,92127,33,-117,HIGH,3,,,,,UNIFIED POWAY,77,38,49
1184,STUART MESA ELEMENTARY,100 Yamanaka Way,Oceanside,CA,92058,33,-117,HIGH,5,,,,,UNIFIED OCEANSIDE,76,36,49
1185,SULPIZIO FAMILY BRANCH,12988 BOWRON RD,POWAY,CA,92064,33,-117,HIGH,2,4,PW,,,"UNIF BOND POWAY-SFID 2002-1,PROP U, 2014 REF",77,38,52
1187,SUNDANCE ELEMENTARY,8944 Twin Trails Drive,San Diego,CA,92129,33,-117,HIGH,3,5,SD,,,"UNIF BOND POWAY-SFID 2002-1,PROP U, 2014 REF",77,39,52
1188,SUNNYSIDE ELEMENTARY,5430 San Miguel Road,Bonita,CA,91902,33,-117,HIGH,1,,,"GEN BOND CHULA VISTA-SFID 1 2012C,PROP E 11/06/12",HIGH SWEETWATER UNION,,79,40,53
1189,SUNNYSLOPE ELEMENTARY,2500 ELM AVE.,SAN DIEGO,CA,92154,33,-117,HIGH,1,8,SD,GEN ELEM SOUTH BAY UNION,HIGH SWEETWATER UNION,,80,40,51
1190,SUNSET ELEMENTARY,3825 Sunset Lane,San Ysidro,CA,92173,33,-117,HIGH,1,8,SD,GEN ELEM SAN YSIDRO,HIGH SWEETWATER UNION,,80,40,51
1191,SUNSET HIGH (CONTINUATION),684 Requeza Street,Encinitas,CA,92024,33,-117,HIGH,3,2,EN,GEN ELEM ENCINITAS UNION,HIGH SAN DIEGUITO UNION,,76,36,49
1192,SUNSET HILLS ELEMENTARY,9291 Oviedo Street,San Diego,CA,92129,33,-117,HIGH,3,5,SD,,,"UNIF BOND POWAY-SFID 2002-1,PROP U, 2014 REF",77,39,52
1193,SUNSET VIEW ELEMENTARY,4365 Hill Street,San Diego,CA,92107,33,-117,HIGH,1,2,SD,,,UNIFIED SAN DIEGO,78,39,52
1194,SWEETWATER COMMUNITY DAY,505 1/2 Elm Avenue,Imperial Beach,CA,91932,33,-117,HIGH,1,,,GEN ELEM SOUTH BAY UNION,HIGH SWEETWATER UNION,,78,40,51
1195,SWEETWATER HIGH,2900 HIGHLAND AVE.,NATIONAL CITY,CA,91950,33,-117,HIGH,1,,,GEN ELEM NATIONAL,HIGH SWEETWATER UNION,,80,40,51
1196,SWEETWATER SECONDARY,3252 Bonita Road,Chula Vista,CA,91910,33,-117,HIGH,1,,,"GEN BOND CHULA VISTA-SFID 1 2012C,PROP E 11/06/12",HIGH SWEETWATER UNION,,79,40,53
1197,SWEETWATER SPRINGS ELEMENTARY,10129 AUSTIN DR.,SPRING VALLEY,CA,91977,33,-117,HIGH,2,,,GEN ELEM LA MESA-SPRING VALLEY,HIGH GROSSMONT UNION,,71,38,53
1198,SYCAMORE CANYON ELEMENTARY,10201 Settle Road,Santee,CA,92071,33,-117,HIGH,2,4,ST,GEN ELEM SANTEE,HIGH GROSSMONT UNION,,71,38,50
1199,SYCAMORE RIDGE,5333 Old Carmel Valley Road,San Diego,CA,92130,33,-117,HIGH,3,1,SD,GEN ELEM DEL MAR UNION,HIGH SAN DIEGUITO UNION,,77,39,52
1200,SYHC-WIC CHULA VISTA,"1655 BROADWAY, STE. 18",CHULA VISTA,CA,91911,33,-117,HIGH,1,4,CV,"GEN BOND CHULA VISTA-SFID 1 2012C,PROP E 11/06/12",HIGH SWEETWATER UNION,,80,40,51
1201,T.H.E LEADERSHIP ACADEMY,1550 TEMPLE HEIGHTS DR.,OCEANSIDE,CA,92056,33,-117,HIGH,5,4,OC,,,UNIFIED VISTA,76,36,49
1202,TAFT MIDDLE,9191 GRAMERCY DR.,SAN DIEGO,CA,92123,33,-117,HIGH,4,7,SD,,,UNIFIED SAN DIEGO,79,39,53
1203,TAYLION SAN DIEGO ACADEMY,100 North Rancho Sante Fe Road #110,San Marcos,CA,92069,33,-117,HIGH,5,1,SM,,,"UNIF BOND SAN MARCOS SFID #1-6/04/96, 2004-1 REF",75,38,50
1206,TEMPLE HEIGHTS ELEMENTARY,1550 TEMPLE HEIGHTS DR.,OCEANSIDE,CA,92056,33,-117,HIGH,5,4,OC,,,UNIFIED VISTA,76,36,49
1207,TEOFILO MENDOZA,2050 CORONADO AVE.,SAN DIEGO,CA,92154,33,-117,HIGH,1,8,SD,GEN ELEM SOUTH BAY UNION,HIGH SWEETWATER UNION,,80,40,51
1208,THE CLUB - LA MESA TEEN CENTER,7775 JUNIOR HIGH DRIVE,"LA MESA, CA",CA,91941,33,-117,HIGH,2,,,GEN ELEM LA MESA-SPRING VALLEY,HIGH GROSSMONT UNION,,79,38,53
1209,THE HEIGHTS CHARTER,"2710 Alpine Boulevard, Suite E",Alpine,CA,91901,33,-117,HIGH,2,,,GEN ELEM ALPINE UNION,HIGH GROSSMONT UNION,,71,38,50
1213,THE LEARNING CHOICE ACADEMY - EAST COUNTY,4215 Spring Street Suite 104,La Mesa,CA,91941,33,-117,HIGH,2,,,GEN ELEM LA MESA-SPRING VALLEY,HIGH GROSSMONT UNION,,79,38,53
1214,THE O'FARRELL CHARTER,6130 SKYLINE DR.,SAN DIEGO,CA,92114,33,-117,HIGH,4,4,SD,,,UNIFIED SAN DIEGO,79,40,51
1215,THRIVE PUBLIC,4260 54th Street,San Diego,CA,92115,33,-117,HIGH,4,9,SD,,,UNIFIED SAN DIEGO,79,40,51
1221,TIERRA BONITA ELEMENTARY,14678 Tierra Bonita Road,Poway,CA,92064,33,-117,HIGH,2,3,PW,,,"UNIF BOND POWAY-SFID 2002-1,PROP U, 2014 REF",77,38,52
1222,TIERRA DEL SOL MIDDLE,9611 PETITE LN.,LAKESIDE,CA,92040,33,-117,HIGH,2,,,GEN ELEM LAKESIDE UNION,HIGH GROSSMONT UNION,,71,38,50
1224,TIERRASANTA ELEMENTARY,5450 Lacuenta Drive,San Diego,CA,92124,33,-117,HIGH,3,7,SD,,,UNIFIED SAN DIEGO,77,39,52
1225,TIERRASANTA PARK & REC,11220 CLAIREMONT MESA BLVD,SAN DIEGO,CA,92124,33,-117,HIGH,3,7,SD,,,UNIFIED SAN DIEGO,77,39,52
1226,TIFFANY (BURTON C.) ELEMENTARY,1691 Elmhurst Street,Chula Vista,CA,91913,33,-117,HIGH,1,1,CV,"GEN BOND CHULA VISTA-SFID 1 2012C,PROP E 11/06/12",HIGH SWEETWATER UNION,,79,40,53
1227,TOLER ELEMENTARY,3350 Baker Street,San Diego,CA,92117,33,-117,HIGH,4,2,SD,,,UNIFIED SAN DIEGO,78,39,52
1229,TORREY HILLS,10830 Calle Mar de Mariposa,San Diego,CA,92130,33,-117,HIGH,3,1,SD,GEN ELEM DEL MAR UNION,HIGH SAN DIEGUITO UNION,,77,39,52
1230,TORREY LEARNING CENTER,228 CHAMBERS STREET,EL CAJON,CA,92020,33,-117,HIGH,2,2,EC,GEN ELEM CAJON VALLEY UNION,HIGH GROSSMONT UNION,,71,38,53
1231,TORREY PINES ELEMENTARY,8350 Cliffridge Avenue,La Jolla,CA,92037,33,-117,HIGH,4,1,SD,,,UNIFIED SAN DIEGO,78,39,52
1232,TORREY PINES HIGH,3710 Del Mar Heights Road,San Diego,CA,92130,33,-117,HIGH,3,1,SD,GEN BOND SOLANA BEACH-SFID 2016-1 PROP JJ 11/08/16,HIGH SAN DIEGUITO UNION,,77,39,52
1233,TRACE,"2555 Camino Del Rio South, Suite 150",San Diego,CA,92108,33,-117,HIGH,4,3,SD,,,UNIFIED SAN DIEGO,78,39,53
1234,TRUST BLENDED LEARNING,9009 Park Plaza Dr,La Mesa,CA,91942,33,-117,HIGH,2,,,GEN ELEM LA MESA-SPRING VALLEY,HIGH GROSSMONT UNION,,79,38,53
1235,TURTLEBACK ELEMENTARY,15855 Turtleback Road,San Diego,CA,92127,33,-117,HIGH,3,5,SD,,,"UNIF BOND POWAY-SFID 2002-1,PROP U, 2014 REF",77,39,52
1236,TWAIN HIGH,6402 LINDA VISTA RD.,SAN DIEGO,CA,92111,33,-117,HIGH,4,7,SD,,,UNIFIED SAN DIEGO,79,39,53
1237,TWIN OAKS ELEMENTARY,1 CASSOU RD.,SAN MARCOS,CA,92069,33,-117,HIGH,5,4,SM,,,"UNIF BOND SAN MARCOS SFID #1-6/04/96, 2004-1 REF",75,38,50
1238,TWIN OAKS HIGH,158 CASSOU RD.,SAN MARCOS,CA,92069,33,-117,HIGH,5,4,SM,,,"UNIF BOND SAN MARCOS SFID #1-6/04/96, 2004-1 REF",75,38,50
1239,TWIN PEAKS MIDDLE,14640 Tierra Bonita Road,Poway,CA,92064,33,-117,HIGH,2,3,PW,,,"UNIF BOND POWAY-SFID 2002-1,PROP U, 2014 REF",77,38,52
1240,UMI LEARNING CENTER,6157 UNIVERSITY AVE.,SAN DIEGO,CA,92115,33,-117,HIGH,4,4,SD,,,UNIFIED SAN DIEGO,79,39,53
1241,UNIVERSITY CITY HIGH,6949 Genesee Avenue,San Diego,CA,92122,33,-117,HIGH,3,1,SD,,,UNIFIED SAN DIEGO,78,39,52
1243,UNIVERSITY OF SAN DIEGO STUDENT SUPPORT SERVICES BRIDGE,"UNIVERSITY OF SAN DIEGO STUDENT SUPPORT SERVICES BRIDGE 5998 ALCALA PARK, BARCELONA 301",SAN DIEGO,CA,92110,33,-117,HIGH,4,2,SD,,,UNIFIED SAN DIEGO,78,39,52
1244,UNIVERSITY OF SAN DIEGO TRIO UPWARD BOUND,"UNIVERSITY OF SAN DIEGO TRIO UPWARD BOUND 5998 ALCALA PARK, BARCELONA 301",SAN DIEGO,CA,92110,33,-117,HIGH,4,2,SD,,,UNIFIED SAN DIEGO,78,39,52
1245,UNIVERSITY PREP,4684 Ontario Mills Parkway Suite 100,Ontario,CA,,34,-118,HIGH,,,,,,,,,
1247,UPWARD BOUND #1,UCSD UPWARD BOUND #1 9500 GILMAN DRIVE #0341,LA JOLLA,CA,92093,33,-117,HIGH,4,1,SD,,,UNIFIED SAN DIEGO,78,39,49
1248,UPWARD BOUND #2,UCSD UPWARD BOUND #2 9500 GILMAN DRIVE #0341,LA JOLLA,CA,92093,33,-117,HIGH,4,1,SD,,,UNIFIED SAN DIEGO,78,39,49
1249,UPWARD BOUND MATH SCIENCE #1,UCSD UPWARD BOUND MATH SCIENCE #1 9500 GILMAN DRIVE #0341,LA JOLLA,CA,92093,33,-117,HIGH,4,1,SD,,,UNIFIED SAN DIEGO,78,39,49
1250,UPWARD BOUND MATH SCIENCE #2,UCSD UPWARD BOUND MATH SCIENCE #2 9500 GILMAN DRIVE #0341,LA JOLLA,CA,92093,33,-117,HIGH,4,1,SD,,,UNIFIED SAN DIEGO,78,39,49
1251,URBAN DISCOVERY ACADEMY CHARTER,840 14th Street,San Diego,CA,92101,33,-117,HIGH,4,3,SD,,,UNIFIED SAN DIEGO,78,39,52
1252,URBAN LIFE MINISTRIES,5202 ORANGE AVE.,SAN DIEGO,CA,92115,33,-117,HIGH,4,9,SD,,,UNIFIED SAN DIEGO,79,40,51
1254,VALENCIA PARK ELEMENTARY,5880 Skyline Drive,San Diego,CA,92114,33,-117,HIGH,4,4,SD,,,UNIFIED SAN DIEGO,79,40,51
1255,VALENCIA PARK/MALCOLM X BRANCH LIBRARY,5148 MARKET STREET,SAN DIEGO,CA,92114,33,-117,HIGH,4,4,SD,,,UNIFIED SAN DIEGO,79,39,51
1256,VALHALLA HIGH,1725 HILLSDALE RD.,EL CAJON,CA,92019,33,-117,HIGH,2,,,GEN ELEM CAJON VALLEY UNION,HIGH GROSSMONT UNION,,71,38,50
1258,VALIANT ACADEMY OF SOUTHERN CALIFORNIA,4612 Dehesa Road,El Cajon,CA,92019,33,-117,HIGH,2,,,GEN ELEM DEHESA,HIGH GROSSMONT UNION,,71,38,50
1259,VALLE LINDO ELEMENTARY,1515 Oleander Avenue,Chula Vista,CA,91911,33,-117,HIGH,1,3,CV,"GEN BOND CHULA VISTA-SFID 1 2012C,PROP E 11/06/12",HIGH SWEETWATER UNION,,80,40,53
1260,VALLECITOS ELEMENTARY,5211 5TH ST,FALLBROOK,CA,92028,33,-117,HIGH,5,,,GEN ELEM VALLECITOS,HIGH FALLBROOK UNION,,75,38,50
1261,VALLEY CENTER BRANCH LIBRARY,29200 COLE GRADE RD.,VALLEY CENTER,CA,92082,33,-117,HIGH,5,,,,,UNIFIED VALLEY CENTER-PAUMA,75,38,50
1262,VALLEY CENTER ELEMENTARY,28751 Cole Grade Road,Valley Center,CA,92082,33,-117,HIGH,5,,,,,UNIFIED VALLEY CENTER-PAUMA,75,38,50
1264,VALLEY CENTER HIGH,31322 Cole Grade Road,Valley Center,CA,92082,33,-117,HIGH,5,,,,,UNIFIED VALLEY CENTER-PAUMA,75,38,50
1265,VALLEY CENTER MIDDLE,28102 North Lake Wohlford Road,Valley Center,CA,92082,33,-117,HIGH,5,,,,,UNIFIED VALLEY CENTER-PAUMA,75,38,50
1266,VALLEY CENTER PREP,28751-U Cole Grade Road,Valley Center,CA,92082,33,-117,HIGH,5,,,,,UNIFIED VALLEY CENTER-PAUMA,75,38,50
1267,VALLEY CENTER PRIMARY,14249 Fruitvale Road,Valley Center,CA,92082,33,-117,HIGH,5,,,,,UNIFIED VALLEY CENTER-PAUMA,75,38,50
1268,VALLEY CENTER-PAUMA ADULT,31322 Cole Grade Road,Valley Center,CA,92082,33,-117,HIGH,5,,,,,UNIFIED VALLEY CENTER-PAUMA,75,38,50
1269,VALLEY ELEMENTARY,13000 Bowron Road,Poway,CA,92064,33,-117,HIGH,2,4,PW,,,"UNIF BOND POWAY-SFID 2002-1,PROP U, 2014 REF",77,38,52
1270,VALLEY HIGH (CONTINUATION),410 NORTH HIDDEN TRAILS RD.,ESCONDIDO,CA,92027,33,-117,HIGH,3,2,ES,GEN ELEM ESCONDIDO UNION,HIGH ESCONDIDO UNION,,75,38,50
1271,VALLEY MIDDLE,1645 Magnolia Avenue,Carlsbad,CA,92008,33,-117,HIGH,5,1,CB,,,UNIFIED CARLSBAD,76,36,49
1272,VALLEY VISTA ELEMENTARY,3724 Valley Vista Way,Bonita,CA,91902,33,-117,HIGH,1,,,"GEN BOND CHULA VISTA-SFID 1 2012C,PROP E 11/06/12",HIGH SWEETWATER UNION,,79,40,53
1273,VCC PROJECT REACH LIBBY LAKE,4700 NORTH RIVER RD.,OCEANSIDE,CA,92057,33,-117,HIGH,5,2,OC,,,UNIFIED OCEANSIDE,76,36,49
1274,VETERANS ELEMENTARY,1550 Magdalena Avenue,Chula Vista,CA,91913,33,-117,HIGH,1,3,CV,GEN ELEM CHULA VISTA,HIGH SWEETWATER UNION,,79,40,53
1278,VICTORY OUTREACH,4235 NATIONAL AVENUE,SAN DIEGO,CA,92113,33,-117,HIGH,1,9,SD,,,UNIFIED SAN DIEGO,80,40,51
1280,VILLAGE AT SERRA MESA,8420 1/2 KRENZ STREET,SAN DIEGO,CA,92123,33,-117,HIGH,4,7,SD,,,UNIFIED SAN DIEGO,79,39,53
1281,VILLAGE VIEW APARTMENTS,3820 43RD STREET,SAN DIEGO,CA,92105,33,-117,HIGH,4,9,SD,,,UNIFIED SAN DIEGO,80,40,51
1282,VIP VILLAGE PRESCHOOL,1001 Fern Avenue,Imperial Beach,CA,91932,33,-117,HIGH,1,,,GEN ELEM SOUTH BAY UNION,HIGH SWEETWATER UNION,,78,40,51
1283,VISTA ACADEMY OF VISUAL AND PERFORMING ARTS,600 NORTH SANTA FE AVE.,VISTA,CA,92083,33,-117,HIGH,5,1,VS,,,UNIFIED VISTA,76,36,49
1284,VISTA ADULT TRANSITION CENTER,325 EAST BOBIER DR.,VISTA,CA,92084,33,-117,HIGH,5,1,VS,,,UNIFIED VISTA,76,36,49
1285,VISTA BRANCH LIBRARY,700 EUCALYPTUS AVENUE,VISTA,CA,92084,33,-117,HIGH,5,2,VS,,,UNIFIED VISTA,76,36,49
1287,VISTA GRANDE ELEMENTARY,5606 Antigua Boulevard,San Diego,CA,92124,33,-117,HIGH,3,7,SD,,,UNIFIED SAN DIEGO,77,39,52
1288,VISTA GRANDE ELEMENTARY,1908 Vista Grande Road,El Cajon,CA,92019,33,-117,HIGH,2,,,GEN ELEM CAJON VALLEY UNION,HIGH GROSSMONT UNION,,71,38,50
1290,VISTA HIGH,1 Panther Drive,Vista,CA,92084,33,-117,HIGH,5,2,VS,,,UNIFIED VISTA,76,36,49
1291,VISTA INNOVATION AND DESIGN ACADEMY,740 OLIVE AVE.,VISTA,CA,92083,33,-117,HIGH,5,3,VS,,,UNIFIED VISTA,76,36,49
1292,VISTA LA MESA ACADEMY,3900 VIOLET ST.,LA MESA,CA,91941,33,-117,HIGH,2,,,GEN ELEM LEMON GROVE,HIGH GROSSMONT UNION,,79,38,53
1293,VISTA LA MESA CHRISTIAN CHURCH,4210 MASSACHUSETTS AVENUE,LA MESA,CA,91941,33,-117,HIGH,2,,,GEN ELEM LEMON GROVE,HIGH GROSSMONT UNION,,79,38,53
1294,"VISTA MAGNET MIDDLE SCHOOL OF TECHNOLOGY, SCIENCE, AND MATH",151 CIVIC CENTER DR.,VISTA,CA,92084,33,-117,HIGH,5,2,VS,,,UNIFIED VISTA,76,36,49
1295,VISTA SPRINGS CHARTER,700 East Bobier Avenue,Vista,CA,92084,33,-117,HIGH,5,2,VS,,,UNIFIED VISTA,76,36,49
1296,VISTA SQUARE ELEMENTARY,540 G Street,Chula Vista,CA,91910,33,-117,HIGH,1,2,CV,"GEN BOND CHULA VISTA-SFID 1 2012C,PROP E 11/06/12",HIGH SWEETWATER UNION,,80,40,51
1297,VISTA TERRACE HILLS,1790 DEL SUR BLVD.,SAN YSIDRO,CA,92173,33,-117,HIGH,1,8,SD,GEN ELEM SAN YSIDRO,HIGH SWEETWATER UNION,,80,40,51
1298,VISTA VISIONS ACADEMY,305 East Bobier,Vista,CA,92084,33,-117,HIGH,5,1,VS,,,UNIFIED VISTA,76,36,49
1299,VIVIAN BANKS CHARTER,11800 Pala Mission Road,Pala,CA,92059,33,-117,HIGH,5,,,,,UNIFIED BONSALL,75,38,50
1301,W. D. HALL ELEMENTARY,1376 PEPPER DR.,EL CAJON,CA,92021,33,-117,HIGH,2,,,GEN ELEM CAJON VALLEY UNION,HIGH GROSSMONT UNION,,71,38,50
1303,WALKER ELEMENTARY,9225 Hillery Drive,San Diego,CA,92126,33,-117,HIGH,3,6,SD,,,UNIFIED SAN DIEGO,77,39,52
1304,WANGENHEIM MIDDLE,9230 GOLD COAST DR.,SAN DIEGO,CA,92126,33,-117,HIGH,3,6,SD,,,UNIFIED SAN DIEGO,77,39,52
1305,WARNER ELEMENTARY,30951 Highway 79,Warner Springs,CA,92086,33,-117,HIGH,5,,,,,UNIFIED WARNER,71,38,50
1306,WARNER JUNIOR/SENIOR HIGH,30951 Highway 79,Warner Springs,CA,92086,33,-117,HIGH,5,,,,,UNIFIED WARNER,71,38,50
1307,WASHINGTON ELEMENTARY,1789 State Street,San Diego,CA,92101,33,-117,HIGH,4,3,SD,,,UNIFIED SAN DIEGO,78,39,52
1308,WASHINGTON PARK CENTER,501 ROSE STREET,ESCONDIDO,CA,92027,33,-117,HIGH,3,3,ES,GEN ELEM ESCONDIDO UNION,HIGH ESCONDIDO UNION,,75,38,50
1309,WATERFRONT,1600 PACIFIC HIGHWAY,SAN DIEGO,CA,92101,33,-117,HIGH,1,3,SD,,,UNIFIED SAN DIEGO,78,39,52
1310,WEBSTER ELEMENTARY,4801 Elm Street,San Diego,CA,92102,33,-117,HIGH,4,4,SD,,,UNIFIED SAN DIEGO,80,40,51
1312,WEGEFORTH ELEMENTARY,3443 Ediwhar Avenue,San Diego,CA,92123,33,-117,HIGH,4,7,SD,,,UNIFIED SAN DIEGO,79,39,53
1313,WEST HILLS HIGH,8756 MAST BLVD.,SANTEE,CA,92071,33,-117,HIGH,2,4,ST,GEN ELEM SANTEE,HIGH GROSSMONT UNION,,71,38,50
1314,WEST VIEW EARLY LEARNING CENTER,525 Third Street,Imperial Beach,CA,91932,33,-117,HIGH,1,,,GEN ELEM SOUTH BAY UNION,HIGH SWEETWATER UNION,,78,40,51
1315,WESTSIDE PARK,333 SOUTH SPRUCE STREET,ESCONDIDO,CA,92025,33,-117,HIGH,3,4,ES,GEN ELEM ESCONDIDO UNION,HIGH ESCONDIDO UNION,,75,38,50
1316,WESTVIEW HIGH,13500 Camino Del Sur,San Diego,CA,92129,33,-117,HIGH,3,5,SD,,,UNIFIED POWAY,77,39,52
1317,WESTWOOD ELEMENTARY,17449 Matinal Road,San Diego,CA,92127,33,-117,HIGH,3,5,SD,,,"UNIF BOND POWAY-SFID 2002-1,PROP U, 2014 REF",77,39,52
1318,WHITMAN ELEMENTARY,4050 Appleton Street,San Diego,CA,92117,33,-117,HIGH,4,6,SD,,,UNIFIED SAN DIEGO,77,39,52
1319,WHITTIER K-12,3401 Clairemont Drive,San Diego,CA,92117,33,-117,HIGH,4,2,SD,,,UNIFIED SAN DIEGO,78,39,52
1320,WIC NATIONAL CITY,1420 E. PLAZA BLVD. STE. B4,NATIONAL CITY,CA,91950,33,-117,HIGH,1,,,GEN ELEM NATIONAL,HIGH SWEETWATER UNION,,79,40,51
1321,WILLIAM H. FRAZIER ELEMENTARY,1835 Gum Tree Lane,Fallbrook,CA,92028,33,-117,HIGH,5,,,GEN ELEM FALLBROOK UNION,HIGH FALLBROOK UNION,,75,38,50
1322,WILLIAM J OAKES BRANCH,2930 MARCY AVE,SAN DIEGO,CA,92113,33,-117,HIGH,1,8,SD,,,UNIFIED SAN DIEGO,80,40,51
1323,WILLIE HENDERSON SPORTS COMPLEX,1035 S. 45TH STREET,SAN DIEGO,CA,92113,33,-117,HIGH,1,9,SD,,,UNIFIED SAN DIEGO,80,40,51
1324,WILLOW ELEMENTARY,226 Willow Road,San Ysidro,CA,92173,33,-117,HIGH,1,8,SD,GEN ELEM SAN YSIDRO,HIGH SWEETWATER UNION,,80,40,51
1325,WILLOW GROVE ELEMENTARY,14727 Via Azul,San Diego,CA,92127,33,-117,HIGH,3,5,SD,,,UNIFIED POWAY,77,38,52
1326,WILSON MIDDLE,3838 Orange Avenue,San Diego,CA,92105,33,-117,HIGH,4,9,SD,,,UNIFIED SAN DIEGO,80,40,51
1327,WINTER GARDENS ELEMENTARY,8501 Pueblo Road,Lakeside,CA,92040,33,-117,HIGH,2,,,GEN ELEM LAKESIDE UNION,HIGH GROSSMONT UNION,,71,38,50
1328,WOLF CANYON ELEMENTARY,1950 Wolf Canyon Loop,Chula Vista,CA,91913,33,-117,HIGH,1,3,CV,GEN ELEM CHULA VISTA,HIGH SWEETWATER UNION,,79,40,53
1329,WOODGLEN VISTA APARTMENTS,10450 N. MAGNOLIA AVE.,SANTEE,CA,92071,33,-117,HIGH,2,1,ST,GEN ELEM SANTEE,HIGH GROSSMONT UNION,,71,38,50
1330,WOODLAND PARK MIDDLE,1270 Rock Springs Road,San Marcos,CA,92069,33,-117,HIGH,5,4,SM,,,"UNIF BOND SAN MARCOS SFID #1-6/04/96, 2004-1 REF",75,38,50
1333,YMCA - LA MESA,8881 DALLAS STREET,"LA MESA, CA",CA,91942,33,-117,HIGH,2,,,GEN ELEM LA MESA-SPRING VALLEY,HIGH GROSSMONT UNION,,79,38,53
1334,YMCA - MCGRATH,12006 CAMPO RD,SPRING VALLEY,CA,92019,33,-117,HIGH,2,,,GEN ELEM CAJON VALLEY UNION,HIGH GROSSMONT UNION,,71,38,50
1335,YMCA - SANTEE,10123 RIVERWALK DRIVE,SANTEE,CA,92071,33,-117,HIGH,2,1,ST,GEN ELEM SANTEE,HIGH GROSSMONT UNION,,71,38,50
1336,YMCA EARLY ENRICHMENT CENTER,540 G STREET,CHULA VISTA,CA,91910,33,-117,HIGH,1,2,CV,"GEN BOND CHULA VISTA-SFID 1 2012C,PROP E 11/06/12",HIGH SWEETWATER UNION,,80,40,51
1337,YMCA ESCONDIDO,1050 N BROADWAY,ESCONDIDO,CA,92026,33,-117,HIGH,3,1,ES,GEN ELEM ESCONDIDO UNION,HIGH ESCONDIDO UNION,,75,38,50
1338,YMCA LEADERSHIP ACADEMY,1450 LOMA LANE,CHULA VISTA,CA,91911,33,-117,HIGH,1,4,CV,"GEN BOND CHULA VISTA-SFID 1 2012C,PROP E 11/06/12",HIGH SWEETWATER UNION,,80,40,51
1340,ZAMORANO ELEMENTARY,2655 CASEY ST.,SAN DIEGO,CA,92139,33,-117,HIGH,1,4,SD,,,UNIFIED SAN DIEGO,79,40,53
